{"type":"Topology","objects":{"districts":{"type":"GeometryCollection","geometries":[{"type":"Polygon","arcs":[[0,1,2,3,4,5]],"properties":{"CODE":"1101","PARENT":"11","NAME_TH":"เมืองสมุทรปราการ","NAME_EN":"Mueang Samut Prakan","NAME_CN":"Mueang Samut Prakan","COLOR_IDX":3}},{"type":"Polygon","arcs":[[-2,6,7,8]],"properties":{"CODE":"1102","PARENT":"11","NAME_TH":"บางบ่อ","NAME_EN":"Bang Bo","NAME_CN":"Bang Bo","COLOR_IDX":2}},{"type":"Polygon","arcs":[[9,-7,-1,10]],"properties":{"CODE":"1103","PARENT":"11","NAME_TH":"บางพลี","NAME_EN":"Bang Phli","NAME_CN":"Bang Phli","COLOR_IDX":0}},{"type":"Polygon","arcs":[[-5,11,12]],"properties":{"CODE":"1104","PARENT":"11","NAME_TH":"พระประแดง","NAME_EN":"Phra Pradaeng","NAME_CN":"Phra Pradaeng","COLOR_IDX":2}},{"type":"Polygon","arcs":[[13,-12,-4]],"properties":{"CODE":"1105","PARENT":"11","NAME_TH":"พระสมุทรเจดีย์","NAME_EN":"Phra Samut Chedi","NAME_CN":"Phra Samut Chedi","COLOR_IDX":1}},{"type":"Polygon","arcs":[[-8,-10,14]],"properties":{"CODE":"1106","PARENT":"11","NAME_TH":"บางเสาธง","NAME_EN":"Bang Sao Thong","NAME_CN":"Bang Sao Thong","COLOR_IDX":3}}]}},"arcs":[[[385730,730783],[-308,-2127],[-1117,-6465],[-866,-4796],[-327,-1710],[-943,-3461],[-886,-4213],[-674,167],[-539,-709],[-539,-1501],[-366,-1085],[-423,-1293],[-693,-1918],[-462,-1293],[-732,-2044],[-366,-1001],[-905,-2586],[-635,-1710],[-635,-1793],[-424,-1168],[-481,-1293],[-462,-1126],[-751,-2043],[-674,-1961],[-1193,-3670],[-520,-1793],[-443,-1418],[-366,-1168],[-674,-1877],[-539,-1543],[-385,-876],[-481,-1042],[-558,-1293],[-501,-1210],[-481,-1376],[-443,-1585],[-289,-1126],[-404,-1752],[-520,-2127],[-443,-1876],[-558,-2670],[-404,-1835],[-270,-1168],[-308,-1209],[-500,-1877],[-231,-834],[-424,-1543],[-520,-1835],[-481,-1835],[-250,-834],[-404,-1460],[-617,-2211],[-250,-959],[-462,-1710],[-308,-1209],[-404,-1669],[-327,-1418],[-520,-2085],[-385,-1335],[-251,-959],[617,-1501],[481,-960],[943,-667],[905,-292],[520,-584],[885,-1585],[636,-917],[905,-918],[712,-542],[885,-584],[828,-667],[924,-918],[674,-750],[443,-542],[886,-1001],[558,-751],[654,-793],[462,-667],[925,-542],[847,-501],[616,-458],[693,-793],[558,-876],[655,-1501],[500,-834],[944,-793],[847,-500],[885,-584],[655,-667],[1020,-1251],[732,-1126],[462,-584],[693,-376],[1020,-709],[828,-709],[558,-500],[1194,-1043],[635,-584],[655,-625],[558,-501],[693,-542],[1020,-918],[1271,-1251],[809,-834],[1193,-1168],[636,-584],[654,-500],[809,-542],[1155,-584],[577,-167],[732,-209],[1136,-959],[751,-709],[924,-709],[731,-208],[578,-42],[943,-125],[636,-167],[654,-459],[558,-459],[732,-625],[1136,-1085],[1059,-834],[808,-458],[1175,-501],[750,-334],[597,-166],[867,-84],[866,-41],[597,-84],[693,-208],[654,-459],[809,-668],[577,-500],[886,-959],[539,-501],[1001,-542],[924,-208],[828,-167],[847,-334],[982,-1376],[385,-959],[558,-1794],[616,-2294],[482,-1459],[577,-1544],[539,-667],[1059,-292],[1040,375],[808,251],[520,41],[770,-83],[616,-83],[597,-126],[1040,-208],[943,-209],[1174,-208],[1156,-209],[616,-125],[2637,-542],[674,-125],[-193,-1418],[-288,-1376],[-212,-1085],[-366,-1668],[-250,-1168],[-501,-2085],[-366,-1668],[-288,-1794],[-174,-1418],[-154,-1418],[-134,-1501],[-212,-1794],[-173,-1334],[-366,-2002],[-308,-1960],[-135,-1252],[-173,-2335],[-77,-1210],[-97,-1501],[-96,-1418],[-96,-1668],[-173,-1544],[-501,-1960],[-327,-1459],[250,-1627],[424,-792],[885,-1418],[559,-876],[962,-1627],[712,-1543],[617,-1418],[635,-1460],[462,-1251],[404,-1501],[674,-2002],[443,-1543],[423,-1210],[385,-751],[732,-1376],[366,-1084],[327,-1293],[424,-2086],[154,-1543],[57,-2210],[-134,-1502],[-58,-1167],[96,-1710],[39,-1168],[-97,-1835],[-96,-1043],[-38,-1710],[346,-2085],[173,-1960],[135,-2586],[96,-2378],[97,-1292],[500,-1710],[924,-626],[1021,-209],[750,-333],[982,-626],[597,-1126],[116,-1960],[154,-1627],[173,-1251],[-154,-1460],[-270,-1292],[-115,-2336],[38,-1501],[135,-1585],[462,-3545],[905,-584],[828,-334],[674,-250],[385,-1376],[327,-1419],[423,-2085],[405,-1293],[808,-1293],[770,-458],[790,-417],[616,-543],[1097,-1167],[732,-626],[404,-792],[963,-709],[635,-251],[847,-250],[1059,584],[481,542],[712,542],[1021,960],[616,625],[924,1168],[501,751],[673,709],[616,375],[847,375],[597,84],[770,-417],[790,-1585],[789,-1668],[443,-1335],[616,-667],[905,-1293],[654,584],[1001,292],[963,-1418],[558,-459],[828,-709],[539,-84],[597,1168],[597,-83],[731,-709],[770,584],[443,709],[1117,292],[597,792],[1020,1001],[866,542],[1155,-667],[636,709],[808,1126],[1040,459],[1020,1084],[693,626],[462,750],[539,1127],[1021,-960],[404,-1459],[308,-1043],[809,-1794],[442,-1543],[97,-1251],[-231,-1835],[-424,-1585],[-346,-1001],[-308,-1334],[-308,-2086],[-58,-1418],[135,-2544],[57,-1460],[328,-2127],[577,-917],[520,-1710],[58,-1126],[115,-1543],[404,-1919],[289,-1001],[116,-1751],[-39,-1794],[-154,-1918],[-231,-1544],[-192,-1376],[-135,-2210],[289,-2378],[577,-1376],[405,-2502],[19,-1502],[-39,-2168],[39,-1043],[96,-1668],[193,-2044],[192,-1501],[289,-1669],[250,-1167],[635,-1877],[520,-1543],[347,-1502],[231,-1668],[192,-1502],[174,-1668],[0,-2461],[-135,-1418],[231,-1751],[423,-2294],[308,-2211],[270,-2210],[270,-1835],[269,-2169],[289,-1668],[346,-918],[77,-2419],[20,-1584],[231,-2044],[462,-1168],[250,-1626],[115,-1627],[-269,-2419],[-231,-1126],[-250,-2544],[115,-1543],[77,-1502],[-115,-1251],[-424,-1793],[-77,-1335],[173,-1793],[347,-2252],[173,-1669],[231,-2460],[231,-1252],[462,-2460],[-58,-1460],[97,-2586],[366,-1460],[519,-1793],[462,-1752],[520,-1418],[501,-1459],[366,-2211],[-97,-1334],[193,-2044],[366,-1752],[519,-1251],[578,-1877],[250,-876],[424,-1543],[346,-1209],[347,-1168],[520,-1710],[-231,-1835],[-308,-751],[-154,-1793],[423,-2377],[347,-1919],[500,-2002],[154,-1501],[39,-1126],[154,-1752],[577,-1710],[154,-2461],[-558,-1793],[-501,-1418],[-423,-1293],[-289,-1001],[-366,-1376],[-404,-2002],[-385,-1627],[-616,-2169],[-327,-1835],[-251,-1418],[-308,-1668],[-346,-1043],[-693,-1001],[-559,-834],[-539,-1459],[-500,-2127],[-443,-2211],[-366,-2461],[-192,-2502],[-39,-1543],[-115,-2252],[-482,-1418],[-673,-2002],[-405,-1668],[-77,-2044],[-38,-1543],[-135,-2086],[-96,-1251],[-173,-1418],[-540,-2252],[-192,-1168],[-347,-1710],[-423,-1918],[-289,-1085],[-443,-2001],[-192,-1627],[-173,-1543],[-174,-2503],[-96,-1167],[-116,-2002],[20,-2419],[-1059,-1168],[-1097,667],[-674,84],[-944,-125],[-1058,-584],[-694,-1543],[-192,-1335],[-77,-1376],[-116,-2211],[20,-1501],[231,-1460],[134,-1251],[77,-1377],[-924,-1376],[-770,-917],[-577,-84],[-790,-792],[-981,-1168],[-212,-1418],[3022,-959],[2368,-709],[1771,-542],[809,-251],[1559,-500],[944,-334],[1598,-542],[1309,-459],[924,-333],[1887,-626],[1906,-584],[789,-250],[1424,-501],[1175,-333],[1733,-543],[1135,-375],[1983,-709],[1637,-542],[2117,-667],[2060,-668],[1733,-584],[1001,-125],[1598,-667],[1598,-709],[1829,-834],[1906,-834],[1848,-793],[1001,-417],[982,-417],[2445,-1042],[115,-42],[1329,-542],[2426,-1085],[2329,-1001],[2445,-1001],[2118,-876],[2214,-917],[1232,-501],[2021,-917],[2599,-1084],[1194,-501],[1039,-667],[2349,-959],[1290,-543],[770,-333],[1502,-668],[828,-333],[1944,-793],[1906,-792],[2657,-1126],[2117,-876],[2349,-1043],[2464,-1084],[2311,-1043],[1232,-542],[173,-83],[1367,-543],[1579,-583],[1982,-918],[925,-459],[789,-375],[962,-417],[963,-459],[635,-250],[944,-376],[1020,-375],[1521,-667],[327,-1585],[462,-1335],[2657,1252],[597,-584],[462,-4630],[404,-375],[3947,2711],[924,1334],[597,209],[6295,-2753],[539,-250],[1059,-459],[693,-125],[1059,667],[597,126],[1482,-793],[770,-625],[867,-376],[789,-333],[2098,166],[-96,3462],[-154,4337],[-154,3462],[212,2586],[173,1084],[154,2169],[231,3754],[270,5004],[-366,1877],[327,2503],[1617,2711],[385,834],[212,1751],[39,6548],[19,459]],[[618774,180798],[847,501],[674,-42],[982,-250],[750,-209],[674,-167],[655,-167],[751,-208],[731,-209],[963,-292],[674,-166],[943,-251],[1059,-250],[1309,-334],[1078,-291],[751,-167],[751,-209],[712,-208],[635,-209],[616,-208],[905,-251],[597,-292],[847,-208],[809,-209],[1771,-500],[943,-376],[-19,-1000],[96,-1710],[270,-2002],[539,-2795],[520,-1126],[866,-1209],[1020,-1377],[1406,-2043],[500,-1668],[-19,-1210],[-154,-1960],[154,-1627],[674,-1001],[962,292],[770,793],[1040,1126],[770,750],[1136,334],[1059,0],[1270,-83],[559,-2044],[250,-3045],[250,-1835],[347,-1793],[269,-1168],[867,-1501],[673,167],[674,-584],[616,-209],[1078,-375],[289,-1418],[-1174,-1293],[-770,-959],[-578,-834],[-712,-1127],[-924,-1710],[-847,-959],[-655,-417],[-905,-917],[-365,-1377],[1636,-3378],[789,-1501],[732,-1502],[366,-2085],[-751,-667],[-385,-960],[-674,-1042],[-289,-960],[-520,-2043],[-173,-1293],[-115,-2044],[-578,-2127],[-58,-2127],[58,-1668],[-347,-2002],[-154,-1752],[-327,-1960],[-558,-2627],[-501,-2586],[-346,-1752],[-327,-1960],[-270,-1210],[-366,-2127],[-423,-2210],[-328,-1335],[-269,-1751],[-39,-1585],[58,-1085],[77,-1668],[-77,-1835],[19,-1168],[0,-1626],[-211,-1835],[-97,-1835],[-77,-2002],[-211,-1627],[-231,-1126],[-154,-1501],[-58,-2086],[-116,-10552]],[[646708,56512],[-1463,-1084],[-2406,-2210],[-462,-376],[-1945,-1543],[-1020,-751],[-2156,709],[-1079,417],[-7681,3045],[-5622,2252],[-8740,3921],[-6642,4003],[-269,167],[-4409,2294],[-4274,2211],[-9664,4462],[-9203,4171],[-6988,3420],[-14805,6381],[-654,292],[-8644,3753],[-251,0],[-1482,42],[-2079,-333],[-1078,-209],[-6623,-1543],[-77,0],[-2715,125],[-3811,1001],[-4736,1126],[-1656,375],[-8298,1835],[-6179,1710],[-2657,626],[924,11344],[-712,-584],[-1059,542],[-308,1335],[-1175,-42],[-1020,292],[-462,1543],[-250,876],[-3754,793],[-694,-334],[-789,-459],[-2387,-876],[-539,-83],[-1406,375],[-4408,1168],[-2176,542],[-1020,876],[-1194,668],[-2541,667],[-366,-1710],[-269,-834],[-1540,167],[-1463,458],[-2426,292],[-1617,1293],[-6604,2086],[-635,250],[-1521,667],[-597,-1418],[-847,-1543],[-1790,375],[-905,125],[-3254,417],[-1578,-125],[-770,42],[-539,584],[-1213,1585],[-2118,2377],[-1078,1001],[-4621,4463],[-1732,1042],[-1136,-208],[-1020,750],[-3235,3921],[-1906,1543],[-2483,459],[-2272,1460],[-1810,750],[-1982,960],[-1887,1167],[-2214,1877],[-4236,4588],[-1597,1585],[-7181,5880],[-5468,4922],[-1251,876],[-1078,750],[-3158,918],[-2676,0],[-3542,542],[-1887,667],[-3696,2127],[-1752,1210],[-2387,1126],[-809,292],[-616,42],[-770,-292],[-963,-292],[-962,-376],[-1020,125],[-1387,543],[-1617,542],[-3484,1376],[-905,417],[-1078,667],[-1059,918],[-732,1293],[-770,1084],[-712,501],[-1097,542],[-982,500],[-1040,417],[-1097,376],[-674,292],[-1040,459],[-693,750],[-1174,1710],[-1579,2378],[-924,1376],[-1694,2461],[-443,625],[-1829,2794],[-635,918],[-693,876],[-1059,1209],[-770,876],[-751,1085],[-1771,2752],[-1020,1543],[-1464,2252],[-981,1544],[-847,1334],[-135,2544],[77,2920],[38,2627],[-269,1669],[-1136,2919],[-674,1084],[-1867,2670],[-1425,2043],[-655,918],[-1848,3170],[-2079,3503],[-2637,6006],[-2484,5755],[-2272,5255],[-77,167],[-847,1710],[-346,918],[-2503,5546],[-3157,42],[-462,0],[-24412,334]],[[294322,252617],[-1136,7424],[-2059,5547],[-9607,16140],[-11686,14514],[-5622,10927],[-1809,4254],[-1078,2586],[-539,1335],[-501,1334],[-481,1335],[-944,2794],[-885,2878],[-424,1460],[-404,1501],[-385,1501],[-366,1544],[-327,1584],[-327,1585],[-308,1627],[-289,1626],[-250,1669],[-251,1626],[-192,1752],[-193,1752],[-115,1293],[-193,2252],[-212,3336],[-19,250],[-212,3587],[-57,1794],[-58,1793],[-19,1710],[0,1710],[0,1710],[77,3420],[115,3378],[96,1710],[97,1668],[154,1669],[154,1668],[211,1626],[212,1669],[501,3211],[558,3170],[308,1585],[327,1543],[385,1710],[424,1626],[424,1669],[885,3253],[924,3211],[4621,16141],[943,3169],[943,3170],[501,1585],[962,3003],[1464,4546],[8259,24773],[3061,10010],[866,3211],[19,125],[809,3170],[404,1668],[770,3379],[366,1710],[327,1710],[289,1751],[270,1752],[231,1793],[211,1794],[212,1793],[173,1794],[154,1835],[135,1835],[96,1835],[58,1793],[0,1835],[0,1835],[-96,3629],[-135,3670],[-96,1835],[-135,1835],[-135,1710],[-154,1710],[-173,1710],[-385,3378],[-443,3337],[-231,1668],[-269,1627],[-308,1585],[-328,1543],[-404,1501],[-443,1460],[-481,1376],[-520,1335],[-558,1251],[-597,1168],[-597,1042],[-616,960],[-654,876],[-674,834],[-674,792],[-712,709],[-713,709],[-712,626],[-789,584],[-790,542],[-808,500],[-809,417],[-828,376],[-808,333],[-828,292],[-866,251],[-847,166],[-1733,251],[-2580,250],[-8625,667],[-7566,667],[-2291,251],[-1078,125],[-1675,250],[-847,125],[-1752,417],[-1732,501],[-1752,542],[-1733,625],[-1732,709],[-790,418],[-789,417],[-1579,917],[-1559,1001],[-770,542],[-770,584],[-1540,1335],[-1541,1418],[-1520,1460],[-1521,1501],[-1502,1585],[-789,834],[-1560,1752],[-1559,1876],[-751,960],[-693,917],[-1328,1919],[-1310,1960],[-654,1043],[-616,1084],[-674,1168],[-732,1418],[-1289,2502]],[[205822,584476],[1058,6924],[462,1918],[828,1585],[847,292],[559,-209],[750,-459],[655,960],[1078,-876],[809,917],[712,1544],[539,959],[751,1168],[789,1084],[770,1043],[482,1585],[616,542],[982,1001],[327,2460],[539,1585],[308,1668],[481,2002],[655,2002],[231,1418],[520,1961],[365,1000],[328,1252],[481,1167],[481,1961],[559,2043],[231,1001],[173,1543],[500,1919],[193,1293],[520,1293],[423,1001],[308,1209],[328,1168],[442,1043],[636,2002],[596,1376],[482,1084],[712,1794],[501,2043],[519,1585],[366,1210],[404,959],[1310,2544],[462,1585],[1213,2460],[539,918],[904,1168],[925,1126],[577,917],[520,793],[520,959],[539,1001],[712,792],[308,-750],[558,-1293],[385,-876],[578,-959],[693,-1043],[924,-1668],[539,-1210],[385,-917],[636,-1293],[847,-1543],[1829,-3295],[1347,5338],[96,209],[1156,-375],[1309,-501],[1290,-1001],[2502,-1793],[482,-334],[1713,-2753],[655,-1501],[1270,-2377],[501,-668],[597,-875],[577,-668],[616,-500],[924,-918],[655,-1209],[635,-2127],[597,-1627],[1194,0],[731,84],[597,-709],[1155,-334],[616,-334],[1097,-1126],[1136,-1042],[1059,-1043],[597,-459],[693,-542],[655,-501],[1001,-875],[442,3086],[790,5505],[269,1543],[212,1335],[250,1501],[539,3587],[1040,6840],[712,4588],[1155,7549],[366,2377],[328,2127],[385,2627],[539,3462],[635,4171],[115,709],[443,2961],[539,3628],[424,2878],[19,167],[39,209],[385,2836],[731,5547],[154,1084],[327,2627],[443,3545],[520,5381],[58,709],[366,3795],[38,2085],[-77,1960],[-115,2545],[-77,2252],[-154,2836],[-39,1001],[-173,3962],[-135,3170],[-58,1793],[-134,3170],[-116,2627],[-96,2211],[-97,2085],[-134,3211],[-135,2586],[-19,667],[-193,4213],[-77,2002],[-96,2127],[-116,2627],[-134,3128],[-116,2670],[-77,1751],[-77,1752],[-38,1043]],[[284254,773199],[8528,-6924],[-404,-4087],[654,-1960],[1040,-668],[1097,-834],[1098,-1126],[712,-584],[578,-375],[808,-542],[1040,-542],[924,-1502],[-443,-4045],[905,-1001],[1213,-4088],[1309,7257],[2907,-2377],[2252,-125],[848,5839],[4427,-3462],[-1078,-6631],[2888,-3503],[11301,-9885],[231,1210],[3331,-2586],[2599,15014],[4350,-3628],[-654,-4379],[9992,-8092],[-405,-2794],[11089,-8008],[-1212,-8007],[11050,-3212],[886,2002],[2887,6590],[1059,4921],[809,-1251],[885,-1918],[1136,7882],[732,4671],[731,-417],[1252,3879],[327,1043],[6642,-3545],[1155,-626]],[[618774,180798],[462,2044],[500,1501],[328,959],[404,1794],[-250,1418],[-636,1585],[-442,1459],[-347,1919],[193,2294],[-135,1626],[-366,1085],[-481,959],[-693,1543],[-809,1668],[-693,1377],[-501,1751],[20,2962],[250,1501],[250,1793],[77,3003],[289,2169],[385,1752],[77,2585],[173,1043],[366,1502],[424,1543],[462,1751],[674,1877],[616,1835],[404,1377],[500,2001],[617,1210],[654,709],[212,2002],[-135,2210],[212,2127],[308,1710],[173,1377],[96,2127],[-134,2294],[308,1918],[57,2586],[771,2085],[1155,2920],[77,208],[808,1919],[135,1585],[-135,2043],[135,2377],[308,1627],[424,1418],[423,1251],[462,1627],[424,1793],[404,2044],[250,1376],[424,2878],[269,2419],[174,1960],[192,1960],[270,2920],[96,1168],[212,3002],[346,5964],[58,2711],[58,2044],[519,7757]],[[630902,313800],[2484,-1459],[1964,-1043],[673,-375],[3485,-1877],[2503,-1376],[616,-334],[1270,-751],[1618,-959],[1058,-626],[193,-1376],[116,-2294],[385,-1877],[385,-1626],[250,-1585],[982,-1168],[924,250],[616,376],[635,917],[404,793],[944,250],[1020,-292],[1059,-292],[847,-250],[963,-250],[789,-251],[404,1502],[424,2919],[885,1835],[520,960],[790,1876],[1116,-959],[1290,-2377],[578,-1460],[96,-4129],[58,-2711],[404,-375],[2098,-501],[539,3587],[20,167],[519,3295],[308,2377],[674,4129],[539,3587],[385,2794],[405,2920],[365,2335],[385,2711],[309,1710],[596,3670],[270,1835],[327,2628],[385,2961],[270,1501],[269,1669],[366,2294],[655,4295],[770,4880],[539,3211],[519,3379],[636,4462],[905,6215],[519,3503],[693,-1460],[732,-2043],[1540,-4672],[482,-1501],[577,-1835],[289,-834],[751,-2503],[539,-1334],[828,-834],[1155,-125],[1675,-1460],[404,-334],[1482,-1126],[520,-125],[1309,-209],[655,-125],[674,-250],[481,2294],[577,2419],[251,1043],[751,4254],[173,959],[789,3545],[385,959],[982,1418],[1213,2795],[366,959],[654,2002],[693,1585],[867,1668],[808,1835],[578,1335],[481,1251],[520,1376],[385,1251],[289,1460],[2214,-375],[3965,-3337],[3909,-3253],[3138,-3503],[2310,-2211],[2830,-3044],[1367,-2044],[597,-876],[847,-709],[982,-625],[2368,-835],[1424,-292],[1617,-83],[1098,83],[924,42],[520,-125],[1193,-500],[1175,0],[1443,166],[1079,793],[2425,3879],[674,1418],[327,1376],[154,1126],[135,1835],[96,1752],[154,2252],[20,1960],[-97,1418],[-1155,5464],[-1655,5797],[-732,-793],[-809,-667],[-519,-417],[-1386,-1001],[-828,-459],[-1425,-709],[-886,-500],[-712,-125],[-1386,83],[-886,209],[-1097,542],[-462,625],[-655,1293],[-462,1544],[-211,1501],[-251,4337],[-77,1377],[39,1501],[269,1627],[828,1501],[1117,167],[712,-751],[982,-834],[905,-459],[982,126],[770,667],[558,1001],[674,1460],[1078,709],[1020,1167],[3292,3462],[597,792],[867,1377],[500,1042],[270,1293],[385,1460],[866,1877],[732,834],[1155,626],[635,208],[1097,83],[616,0],[-423,3504],[-116,1418],[-57,2461],[-20,1626],[0,1293],[20,1710],[57,2294],[116,2461],[-19,2627],[-20,1627],[116,1584],[192,1210],[328,1835],[308,1752],[211,1168],[289,1751],[174,1001],[346,2002],[193,1210],[288,1543],[289,1793],[154,918],[327,2085],[289,1335],[289,1251],[327,1710],[251,1585],[269,1876],[154,960],[289,2002],[77,2043],[38,1293],[116,1835],[192,1502],[270,1918],[192,1335],[405,2085],[385,1335],[462,1585],[289,1084],[423,1752],[558,1793],[443,876],[539,792],[1040,1460],[1290,1960],[635,1001],[866,1710],[308,1460],[154,1042],[308,1669],[328,1168],[327,1543],[270,1751],[288,1669],[559,1751],[596,793],[886,1334],[616,2169],[385,2461],[77,1209],[-96,2294],[38,2169],[135,1334],[270,1669],[134,2627],[-77,2169],[-192,1710],[-558,1626],[-616,1460],[-443,1210],[-251,1126],[-96,1543],[-19,1335],[-96,1543],[-193,1126],[-404,1501],[-347,1293],[-327,1835],[-250,1418],[-96,1335],[231,1918],[231,1001],[481,1794],[577,2085],[385,1376],[309,1210],[442,1668],[578,2085],[308,1252],[327,1334],[558,2002],[636,1752],[-231,1835],[-732,1626],[-481,1961],[-655,584],[-616,2252],[-1136,1501],[-654,667],[-558,251],[-674,333],[-982,334],[-770,167],[-520,-84],[-847,626],[-116,1251],[-231,2044],[-866,1001],[0,1251],[-231,1835],[-578,1335],[-327,1084],[-212,1960],[-38,2211],[0,1084],[115,2252],[347,1794],[539,1251],[866,1418],[636,2043],[847,1669],[385,1960],[-385,2669],[-443,1710],[-58,2336],[636,1668],[808,1126],[77,1585],[308,2210],[424,1001],[-231,2211],[-193,2043],[308,1335],[347,1668],[211,1919],[-211,834],[-405,1710],[636,1084],[712,84],[520,-876],[539,-1710],[674,-250],[924,1459],[558,2086],[0,1459],[-173,2086],[924,1168],[751,1835],[1829,-1585],[1405,7382],[-77,375],[693,3837],[789,-125],[771,3754],[1174,6214],[423,2002],[405,2294],[442,2877],[347,1710],[-38,2461],[134,1794],[154,1543],[270,1960],[8605,-3587],[693,4338],[-173,1459],[366,4463],[385,4713],[327,3712],[713,1001],[-1001,834],[-636,667],[-2503,2878],[-1270,1501],[-828,1001],[-982,918],[-847,2460],[212,1710],[-39,2253],[-327,1793],[-481,1710],[-655,2044],[-346,1292],[-251,1377],[-57,2335],[-308,2503],[-405,1585],[-173,1209],[-77,1835],[39,1418],[134,1418],[867,1835],[750,626],[347,2836],[347,1460],[808,1334],[404,1126],[212,1252],[674,3586],[424,2544],[173,1377],[115,2085],[77,3253],[97,1752],[269,2127],[693,2461],[770,2377],[520,1376],[308,793],[635,1001],[520,500],[674,876],[674,1043],[635,959],[578,1334],[346,1877],[270,2878],[154,1627],[423,2836],[539,2335],[501,2002],[231,1376],[481,1919],[405,625],[1078,1710],[616,1210],[442,1126],[251,1126],[462,2336],[385,584],[905,333],[712,250],[770,418],[924,792],[712,751],[636,876],[674,1501],[19,1877],[96,1418],[77,1793],[212,3921],[77,2377],[38,1418],[-38,2127],[-135,1668],[-289,1919],[-327,2127],[-154,1293],[-192,1459],[-366,2795],[-231,1459],[-212,1126],[-289,1836],[-327,1584],[-366,1710],[-558,2503],[-366,1918],[-173,1585],[192,2252],[443,2252],[558,2461],[1136,5380],[366,2336],[19,1835],[-192,2002],[0,1168],[96,1710],[173,1835],[58,1585],[-58,1626],[-154,2503],[77,2168],[270,1126],[327,1377],[327,2085],[77,1710],[58,1752],[96,1084]],[[798759,880593],[154,1835],[308,3295],[174,2044],[327,3378],[212,2335],[250,3003],[77,834],[289,3545],[173,2169],[77,709],[193,2294],[115,1501],[212,2128],[173,1543],[462,-709],[6719,-6215],[2368,-2168],[443,-417],[789,-709],[1059,-960],[424,-375],[1347,-1168],[366,-334],[1040,-1000],[3061,-2837],[731,-792],[3254,-2919],[4928,-4421],[1001,-876],[1040,-1001],[1020,-918],[1252,-1334],[712,-584],[1232,-918],[2002,-1585],[636,-458],[1886,-1502],[1579,-1084],[982,-709],[2021,-1418],[616,-417],[751,-542],[655,-376],[789,-500],[905,-709],[500,-292],[1001,-626],[578,-709],[828,-709],[1405,-1001],[2657,-1626],[212,-125],[1136,-793],[770,-542],[1270,-959],[1117,-1001],[982,-709],[1328,-793],[1136,-792],[2060,-1460],[481,-375],[2965,-2294],[1059,-876],[1039,-959],[790,-793],[866,-584],[1309,-1000],[847,-501],[1117,-792],[1271,-1085],[1270,-1084],[1136,-626],[1675,-1376],[1194,-834],[442,-417],[713,-626],[828,-667],[885,-667],[1656,-1252],[1290,-1042],[1001,-834],[1059,-835],[1636,-1292],[1213,-1043],[1213,-1043],[905,-709],[981,-792],[848,-668],[1193,-959],[1829,-1334],[943,-751],[2349,-1752],[2580,-2127],[1155,-917],[231,-209],[1502,-1209],[1078,-835],[1559,-1251],[1117,-834],[1732,-1251],[3100,-2294],[2426,-1835],[1829,-1460],[943,-584],[751,-417],[828,-667],[577,-626],[1117,-875],[674,-543],[808,-584],[924,-583],[982,-626],[1059,-876],[732,-542],[539,-459],[847,-709],[982,-375],[519,-626],[982,-834],[866,-751],[597,-417],[847,-667],[809,-709],[655,-584],[866,-584],[462,-292],[866,-667],[616,-501],[1290,-959],[847,-584],[1617,-1167],[1002,-793],[654,-500],[732,-501],[885,-625],[790,-584],[789,-709],[1906,-1085],[616,-375],[905,-709],[597,-542],[1097,-918],[1887,-1585],[2849,-1960],[751,-500],[1193,-834],[867,-584],[539,-417],[635,-459],[1194,-876],[731,-542],[1791,-1418],[558,-459],[3388,-2669],[3485,-2669],[1694,-1252],[828,-625],[1444,-1001],[1636,-1251],[347,-251],[1636,-1167],[2002,-1627],[597,-501],[-481,-2335],[-616,-3128],[-308,-1543],[-424,-1877],[-616,-2002],[-501,-1460],[-500,-1084],[-943,-1251],[-1079,-1085],[212,-2252],[0,-1793],[-38,-1126],[-231,-2336],[-328,-2711],[-231,-2335],[-173,-1877],[-38,-2419],[19,-1585],[38,-1084],[58,-1877],[77,-2002],[58,-1501],[385,-3337],[135,-1460],[154,-1793],[96,-1168],[135,-1877],[173,-1876],[116,-1794],[154,-1668],[96,-1084],[173,-1627],[347,-2419],[231,-1293],[231,-1376],[731,-1210],[1117,-792],[1405,-1043],[520,-375],[1117,-793],[1405,-1001],[905,-667],[924,-625],[924,-584],[655,-251],[981,-333],[674,-209],[597,-250],[1425,-626],[1598,-667],[693,-292],[1944,-625],[616,-376],[905,-292],[-1001,-6464],[-424,-2920],[-673,-4587],[-405,-2169],[-250,-1293],[-424,-2419],[-192,-1376],[-270,-2086],[-346,-2377],[-424,-2502],[-558,-3420],[-635,-3796],[-790,-4587],[-385,-2002],[-385,-2044],[-808,-4045],[-559,-2044],[-346,-751],[-558,-1334],[-424,-1001],[-2291,-4588],[-135,-292],[-2040,-4046],[-5410,-10802],[-2638,-5338],[-1309,-2544],[-1155,-2336],[-1713,-3503],[-732,-1710],[-731,-1501],[-1271,-2545],[-1694,-3503],[-135,-292],[-1078,-2210],[-2099,-4296],[-1809,-3670],[-674,-1335],[-924,-2127],[-1251,-2794],[-1733,-4254],[-1098,-2670],[-1001,-2419],[-827,-1918],[-1233,-3003],[-1251,-3170],[-905,-2585],[-135,-376],[-1135,-3003],[-674,-1626],[-1733,-4505],[-135,-375],[-1328,-3587],[-1540,-4212],[-2022,-5756],[-1925,-5505],[-1925,-5380],[-1309,-3628],[-1848,-5297],[-1136,-3253],[-1020,-3128],[-193,-584],[-674,-1919],[-250,-625],[-693,-1543],[-347,-543],[-982,-1501],[-1405,-2336],[-1656,-2877],[-365,-709],[-578,-1252],[-1386,-3795],[-2176,-6089],[-423,-1126],[-674,-1794],[-866,-2585],[-578,-668],[-905,584],[-1482,1585],[-751,667],[-943,751],[-1040,709],[-828,376],[-1039,125],[-713,-42],[-577,-125],[-809,-292],[-904,-417],[-732,-793],[-616,-959],[-443,-709],[-885,-1126],[-713,-709],[-1232,-1251],[-385,-459],[-847,-1084],[-1348,-1418],[-770,-626],[-847,-459],[-539,-125],[-808,42],[-655,167],[-751,333],[-539,376],[-1309,792],[-963,250],[-750,167],[-771,0],[-1193,-125],[-1059,-375],[-655,-376],[-1001,-750],[-539,-501],[-789,-834],[-39,-2336],[-115,-4879],[-39,-834],[-231,-4838],[-192,-4546],[-116,-1460],[-134,-1919],[-20,-1167],[0,-4088],[97,-1751],[192,-2503],[58,-709],[231,-2377],[77,-918],[38,-1709],[39,-2128],[-39,-2585],[-96,-6798],[597,-251],[751,0],[1001,-375],[1001,-876],[674,-751],[731,-959],[770,-959],[1117,-1460],[2310,-2544],[1406,-1501],[789,-1085],[616,-1084],[558,-1251],[597,-1502],[462,-1710],[328,-2043],[134,-1544],[116,-1126],[250,-2043],[173,-1418],[308,-2044],[482,-3128],[154,-917],[269,-2419],[39,-1919],[-20,-2252],[-96,-2211],[-154,-1084],[-443,-1585],[-770,-2877],[-616,-2211],[-385,-1209],[-577,-1293],[-1136,-1794],[-1136,-1793],[-751,-1585],[-404,-1084],[-270,-1502],[-250,-2252],[-212,-1793],[-346,-2336],[-174,-709],[-1135,-2878],[-462,-1042],[-828,-1794],[-385,-709],[-616,-1001],[-597,-1209],[-635,-1752],[-674,-2043],[-559,-2127],[-231,-2044],[-288,-2461],[-366,-1585],[-886,-2294],[-154,-375],[-712,-1877],[-327,-1084],[-443,-1793],[-501,-2419],[-366,-1335],[-558,-1835],[-385,-1418],[-520,-2211],[-288,-1376],[-289,-1501],[-501,-2753],[-520,-2169],[-673,-625],[-1406,2419],[-654,1084],[-385,626],[-1406,2294],[-597,917],[-442,626],[-713,1084],[-2560,3795],[-2772,4254],[-1502,2211],[-347,542],[-2310,3879],[-1578,2627],[-2272,3962],[-1444,2503],[-250,417],[-790,1376],[-1001,1794],[-1752,3002],[-751,1460],[-654,1126],[-1001,1293],[-655,-1918],[-539,-2253],[-192,-2043],[77,-4296],[19,-834],[212,-3045],[269,-2877],[347,-3921],[115,-1793],[-77,-2294],[-269,-1585],[-732,-1793],[-481,-459],[-693,-334],[-655,-83],[-1636,167],[-693,-209],[-963,-751],[-462,-834],[-539,-1668],[-847,-3712],[-385,-1877],[-443,-2419],[-77,-417],[-751,-4379],[-77,-500],[-558,-3337],[-308,-1877],[-154,-1042],[-481,-1877],[-501,-1043],[-404,-751],[-655,-1167],[-539,-918],[-1347,-2377],[-2599,-4171],[-1271,-1626],[-539,-709],[-558,-1001],[-482,-1835],[-96,-2378],[-173,-2294],[-347,-2460],[-57,-626],[-174,-2252],[-77,-1418],[-57,-2085],[-116,-1835],[-135,-1085],[-597,-4588],[-173,-2043],[-212,-1835],[-269,-1627],[-1271,-6506],[-539,-3420],[-346,-2169],[-482,-3044],[-192,-1293],[-404,-2795],[-154,-1835],[-328,-2335],[-462,-2127],[-443,-2294],[-404,-2252],[-192,-2503],[-58,-834],[-308,-4462],[-116,-1252],[-365,-3711],[-174,-2503],[-77,-1209],[-250,-3128],[-173,-1627],[-231,-1501],[-231,-1627],[-270,-1918],[-423,-2211],[-405,-1585],[-327,-959],[-558,-1585],[-1059,-3503],[-424,-1502],[-288,-1251],[-193,-1209],[-212,-1502],[-173,-1668],[-19,-2669],[173,-1085],[366,-1334],[577,-1710],[867,-2002],[1405,-3587],[404,-2419],[-269,-2252],[-443,-1960],[-154,-1377],[-231,-2252],[-289,-1876],[-289,-1168],[-500,-1710],[-558,-2044],[-501,-2169],[-327,-2210],[-424,-3670],[-366,-3295],[-288,-3128],[-135,-2002],[0,-1668],[77,-1585],[231,-2544],[327,-4004],[173,-3795],[193,-2127],[173,-1335],[385,-2544],[270,-1710],[115,-2044],[116,-3962],[58,-3753],[-39,-2586],[0,-2461],[39,-2085],[38,-3670],[77,-3879],[19,-1293],[-134,-4129],[-97,-1460],[-365,-3295],[-270,-2544],[-192,-2585],[-39,-1126],[39,-1961],[77,-1793],[231,-4588],[192,-4796],[0,-1210],[-77,-1918],[-173,-2628],[-289,-2544],[-308,-2836],[-347,-2919],[-481,-3587],[-616,-1918],[-1790,-3254],[-751,-1292],[-886,-3337],[-2445,2294],[-1020,792],[-1271,1210],[-385,-1794],[-192,-1668],[-963,167],[-1367,959],[-1001,292],[-751,876],[-827,667],[-944,668],[-1155,1167],[-693,-2252],[-2291,-6631],[-308,-1210],[-193,-2168],[-154,-2336],[-481,-1668],[-1540,-5005],[-847,-417],[-1174,42],[-905,-292],[-674,-376],[-847,-250],[-1406,-751],[-847,-667],[-481,-292],[-2349,-584],[-1559,-375],[-250,-42],[-1598,-375],[-1155,-42],[-713,42],[-1232,42],[-674,-751],[-847,42],[-1136,-251],[-712,125],[-231,-2085],[-731,-1668],[-135,-1627],[-462,-2419],[-251,-1710],[-38,-2210],[-58,-2294],[-135,-1919],[-346,-2001],[-886,-2336],[58,918],[347,2168],[57,1543],[-269,1335],[-520,1877],[-539,834],[-1213,792],[-4120,543],[-4890,2377],[-5005,1793],[-944,834],[-1347,1794],[-462,1042],[-924,751],[-1098,-1084],[-596,-1293],[-1002,-1293],[-5005,1251],[-1733,459],[-885,500],[-5641,3837],[-8663,5923],[-2118,1376],[-327,209],[-2137,1376],[-2484,3420],[-4004,3462],[-2734,1292],[-1502,126],[-2060,-126],[-1155,-333],[-847,-542],[-635,-793],[-674,-125],[-1617,4463],[-866,1293],[-308,1876],[-1098,626],[-6199,-751],[-2464,-1960],[-4678,-3045],[-1848,-583],[-6065,2085],[-5679,1877],[-1810,1876],[-4986,6882],[-5140,7424],[-2060,1960],[-1021,584],[-3811,0],[-1040,0],[-2310,0],[-5372,125],[-1174,-167],[-1425,-1042],[-3985,-2545],[-924,-709]],[[652465,993451],[-1906,-9509],[-2445,-17225],[346,-2377],[1001,-2211],[674,-208],[616,-918],[597,-1042],[366,-834],[1097,-3546],[635,-2127],[289,-375],[1329,-792],[712,-334],[173,-2002],[-327,-792],[-751,-2002],[-501,-1293],[-500,-1293],[-635,-1543],[-385,-959],[-655,-1252],[-481,-834],[-847,-1293],[-616,-917],[-944,-1126],[-731,-584],[-828,-542],[-943,-1210],[-771,-1126],[-519,-834],[-770,-1168],[-905,-1334],[-636,-1127],[-596,-1459],[-347,-1085],[-500,-1751],[-347,-1085],[-462,-1585],[-193,-750],[-1020,-4046],[-366,-1418],[-597,-2169],[-385,-1209],[-462,-1460],[-269,-959],[-558,-1877],[-578,-2002],[-501,-1668],[-558,-1710],[-385,-1210],[-674,-2168],[-327,-1085],[-404,-1376],[-308,-1084],[-385,-1335],[-251,-959],[-423,-1585],[-289,-1460],[-1540,-7924],[-347,-1835],[-231,-1168],[-327,-1501],[-462,-1961],[-366,-1459],[-712,-2753],[-501,-1877],[-269,-1126],[-347,-1626],[-596,-2169],[-405,-1210],[-481,-1376],[-539,-1376],[-481,-1293],[-366,-1043],[-462,-1501],[-482,-1710],[-442,-1502],[-270,-959],[-462,-1543],[-616,-1877],[-289,-709],[-500,-1501],[-520,-1627],[-443,-1418],[-385,-1334],[-539,-1585],[-366,-1126],[-443,-1460],[-423,-1418],[-462,-1835],[-712,-2753],[-385,-1460],[-328,-1126],[-423,-1626],[-385,-2044],[-251,-1585],[-442,-3378],[-251,-1960],[616,-918],[636,-167],[1193,-291],[1098,-167],[1097,-42],[751,0],[885,0],[1021,-125],[828,-250],[596,-417],[809,-960],[558,-458],[713,-292],[616,-251],[712,-250],[501,-208],[693,-334],[635,-334],[1155,-500],[866,-209],[578,0],[789,0],[982,501],[963,792],[539,459],[770,667],[693,668],[751,667],[616,459],[924,584],[1020,542],[751,292],[655,208],[1328,334],[597,167],[828,375],[1020,584],[346,167],[1194,625],[924,501],[578,250],[693,209],[1675,417],[712,167],[1925,417],[655,208],[712,334],[1059,417],[905,42],[481,-42],[963,-125],[885,-125],[732,-42],[866,-167],[520,-167],[809,-125],[1193,375],[635,501],[848,917],[654,751],[770,793],[847,834],[1406,1376],[596,-4588],[559,-5004],[308,-2920],[289,-2627],[462,-4338],[134,-1501],[308,-2086],[174,-1501],[19,-1376],[-424,-2920],[-1039,-3545],[-1001,-3962],[-770,-2669],[2810,-3629],[2657,-7173],[193,-1961],[-713,-2585],[-423,-1418],[-481,-1669],[-559,-1626],[-1001,-2878],[-693,-1877],[-3138,-8842],[-866,-2502],[-674,-1918],[-693,-1919],[-443,-1335],[-481,-1418],[-597,-1668],[-501,-1376],[-693,-1960],[-308,-1585],[-173,-1752],[-96,-1084],[-174,-1877],[-231,-2002],[-442,-2836],[-501,-2961],[-327,-2252],[-366,-2127],[-173,-1168],[-328,-2085],[-211,-1210],[-443,-1752],[-289,-667],[-577,-1376],[-366,-751],[-1637,-3545],[-635,-1293],[-905,-1793],[-982,-1919],[39,-1877],[2329,-250],[-19,-2502],[-327,-1752],[-481,-2210],[-251,-1502],[-231,-1334],[-577,-3796],[-482,-3378],[-481,-2169],[-654,-1042],[-925,-5839],[-96,-1335],[-366,-3587],[-327,-3086],[-712,-6464],[5333,-1836],[-39,-1001],[308,-2335],[154,-1710],[-173,-2669],[-270,-3504],[-134,-1543],[-501,-4879],[-578,-6674],[597,-41],[713,-84],[1174,459],[866,-334],[578,-1584],[96,-1418],[-77,-1418],[-250,-2253],[154,-1793],[-39,-2085],[20,-2586],[0,-2252],[-231,-1168],[-405,-1919],[-635,-1960],[-58,-1960],[212,-1209],[58,-1544],[-886,-1209],[173,-2502],[154,-5214],[58,-1293],[597,-10635],[250,-2294],[924,-6256],[482,-1835],[558,-1168],[847,-1543],[404,-1418],[251,-1918],[134,-1085],[77,-1793],[-77,-1793],[39,-1877],[-308,-1001],[-636,-1835],[-231,-1335],[-462,-2127],[-308,-1043],[-385,-1376],[-519,-1668],[-482,-2294],[-38,-1835],[-289,-2127],[192,-1502],[-442,-2210],[-289,-1335],[250,-2419],[-674,-1710],[-616,-1793],[-558,-1585],[-270,-1460],[97,-1167],[192,-1835],[20,-1293],[-174,-1585],[-539,-1627],[-616,-2002],[289,-1668],[-212,-1209],[-423,-1585],[57,-1418],[116,-2503],[-250,-1710],[38,-1751],[-154,-1502],[-847,-1293],[-982,-625],[-385,-1043],[-520,-1460],[-558,-1042],[-558,-918],[-809,-1793],[-250,-1293],[-231,-1377],[-270,-1709],[-115,-1419],[-19,-1876],[77,-1377],[134,-2252],[97,-2043],[57,-1377],[58,-1293],[0,-1793],[-173,-1668],[-327,-1752],[-385,417],[-1714,1919],[-616,709],[-616,542],[-1020,667],[-944,375],[-789,209],[-674,209],[-943,250],[-1117,333],[-366,-1418],[-635,-1793],[-577,-1543],[-347,-1335],[-270,-1084],[-770,-1752],[-365,-1251],[-231,-1418],[-308,-2169],[-347,-2252],[-443,-2961],[-212,-1376],[-250,-1418],[-308,-2086],[-577,-2252],[-578,-1752],[-539,-1042],[-520,-668],[-847,-1418],[-289,-1292],[-134,-1293],[-39,-1502],[481,-2127],[251,-2544],[192,-2210],[19,-1835],[-327,-1794],[-443,-1668],[-288,-1126],[-405,-2211],[20,-1835],[77,-1626],[-58,-1418],[-462,-2044],[-732,-1168],[-731,-1126],[-501,-1835],[-308,-1251],[-462,-1668],[-424,-1126],[-269,-2336],[-116,-1627],[-154,-1626],[-423,-3921],[-173,-1626],[-193,-1460],[-173,-1626],[-366,-3462],[-173,-1627],[-328,-2877],[-192,-1835],[-250,-1752],[-231,-2002],[-116,-1418],[-173,-1418],[-135,-1293],[-231,-1918],[-135,-1252],[-250,-2294],[-308,-2502],[-616,-5589],[-578,-5088],[-134,-1251],[-597,-4880],[-173,-1585],[-154,-1626],[-193,-1835],[-154,-1668],[-96,-1252],[-154,-1626],[-2426,-22272],[-501,-1710],[-385,-2043],[58,-1668],[212,-1752],[58,-1460],[154,-1585],[289,-2377],[269,-1752],[693,-41],[5352,-2878],[5506,-3128],[4563,-2586],[1424,-751]],[[385730,730783],[2233,-1126],[4871,-2461],[2330,-1168],[635,9301],[1347,19936],[39,2377],[77,1168],[289,1835],[250,1043],[366,1918],[327,1710],[404,2294],[193,1168],[327,1459],[289,1460],[385,2044],[231,1918],[212,2127],[173,1627],[173,1418],[174,1251],[365,2044],[193,1418],[289,2252],[327,1835],[424,2169],[211,1835],[154,1126],[289,1460],[327,1501],[424,1668],[308,1377],[404,1543],[250,1084],[366,1794],[289,1418],[289,1251],[712,625],[2137,-1710],[789,-625],[848,-834],[1713,-2294],[1040,-1377],[577,-792],[1174,-709],[732,2169],[578,1751],[500,1460],[751,125],[924,-1084],[1040,-250],[1193,-2586],[462,-876],[520,-792],[1521,-1877],[924,-1210],[2214,-3211],[443,-626],[616,-750],[905,-1001],[-328,-1752],[-519,-2252],[4947,-4213],[578,-458],[3350,-2753],[558,-459],[924,-709],[751,-1334],[655,-1627],[693,-709],[596,-500],[924,-501],[1059,-459],[751,-417],[751,-625],[963,-751],[596,-667],[539,-1210],[539,-1168],[617,-1334],[981,-1502],[770,-959],[443,-542],[732,-834],[1078,-960],[789,-542],[1001,-542],[424,-292],[2830,-2085],[1136,-834],[885,-668],[790,-583],[500,-334],[2195,-1502],[2791,-1918],[424,-292],[1386,-1001],[655,-459],[770,-500],[500,-334],[732,-542],[1020,-542],[2561,-1126],[2310,-1001],[1136,-459],[943,-375],[1117,-459],[443,-167],[981,-417],[9107,-3712],[134,2878],[77,1626],[39,1335],[96,1918],[135,2044],[154,1919],[58,709],[288,4003],[193,2211],[289,2461],[211,2001],[154,1794],[174,1168],[250,1584],[270,1544],[269,1626],[173,1043],[482,2169],[442,1710],[366,1376],[424,1710],[308,1209],[308,1252],[346,1418],[482,2085],[365,1585],[289,1251],[404,1543],[309,1084],[462,1752],[712,2794],[462,1794],[346,1251],[520,1835],[597,2002],[308,1084],[347,1669],[462,1960],[250,1168],[346,1876],[270,1544],[366,2210],[250,1418],[-250,1502],[-578,500],[19,1835],[251,2377],[269,2711],[135,1293],[943,8842],[1155,-584],[540,-125],[19,334],[58,3253],[38,709],[347,5297],[269,3753],[39,584],[192,2961],[173,2127],[212,2503],[270,2627],[134,1794],[308,1376],[501,2210],[250,1460],[212,1293],[308,1501],[462,1794],[173,1001],[366,1626],[501,2002],[115,501],[559,3503],[346,2169],[385,2294],[308,2168],[116,2044],[192,4755],[77,2460],[116,2878],[115,3253],[39,542],[-308,2252],[385,4964],[192,1668],[539,7006],[482,5756],[173,1543],[346,4212],[2311,0],[96,1335],[-193,2836],[-154,2711],[-115,2085],[-116,1377],[-134,1960],[-636,6506],[-135,1376],[-19,2711],[-192,2253],[-212,2377],[-116,1877],[-404,5046],[-115,1877],[-97,1710],[-77,2210],[-134,2086],[-193,3086],[-192,2085],[-174,1669],[-192,2460],[-19,1251],[-135,1919],[-135,2252],[-154,2336],[-250,2210],[-77,1001],[-154,2377],[6064,292],[2695,251],[1425,41],[1694,-83],[173,5380],[7913,-83],[19425,-1585],[135,-1335],[135,-1418],[1366,-1251],[886,0],[1425,-84],[1848,-41],[1578,0],[1175,0],[3138,167],[1810,125],[2098,-42],[2118,-42],[3022,0],[3004,0],[3022,292],[1213,-41],[2272,-1544],[3831,-83],[4293,-209],[1136,-542],[2137,-1793],[1001,1335],[712,1000],[1175,626],[1443,0],[1772,-167],[2676,-125],[1578,-83],[3812,-251],[1386,-125],[1040,-584],[770,-458],[770,83],[809,667],[577,501],[866,0],[1059,0],[2080,83],[404,-41],[905,-417],[693,-584],[520,-751],[519,-959],[732,-1460],[943,-918],[770,84],[1675,208],[1829,292],[1309,251],[1617,166],[655,84],[886,1084],[500,918],[943,1001],[732,208],[1790,-125],[1502,-167],[2041,-208],[1059,-125],[1501,-167],[1868,-209],[288,-42],[1271,-166],[789,-42],[790,-83],[828,125],[539,375],[789,751],[1059,792],[828,209],[1290,41],[1713,42],[1117,292]],[[205822,584476],[-1541,-8550],[-943,-1668],[-866,-1043],[-578,-792],[-616,-1376],[-308,-668],[-674,-1126],[-635,-876],[-847,-1543],[-905,-1459],[-539,-1377],[-520,-834],[-616,-1001],[-654,-1418],[-674,-917],[-732,-1418],[-770,-1168],[-693,-876],[-770,-1919],[-905,-1001],[-982,-1084],[-327,-876],[-597,-876],[-905,-1292],[-770,-1085],[-520,-959],[-904,-1793],[-405,-751],[-442,-834],[-636,-918],[-924,-1293],[-789,-1543],[-539,-959],[-501,-1376],[-789,-793],[-539,-751],[-558,-1084],[-694,-1376],[-481,-626],[-905,-1585],[-827,-1459],[-828,-584],[-443,-1377],[-732,-1126],[-885,-1668],[-732,-876],[-616,-1001],[-866,-1376],[-597,-584],[-789,-1251],[-693,-959],[-674,-960],[-751,-1001],[-616,-917],[-404,-709],[-828,-876],[-462,-626],[-616,-876],[-693,-1042],[-616,-876],[-501,-792],[-635,-876],[-559,-751],[-635,-876],[-616,-876],[-770,-1209],[-751,-1043],[-885,-1126],[-443,-626],[-1078,-667],[-347,1543],[-231,1752],[-308,2252],[-346,2336],[-309,2168],[-192,1335],[-385,2669],[-39,251],[-346,2419],[-347,2293],[-288,2002],[-308,2336],[-347,2210],[-655,1919],[-1116,-584],[-1155,-167],[-886,-292],[-789,-208],[-1117,-251],[-327,-83]],[[147450,528506],[-96,1793],[-366,2962],[-539,4295],[-58,709],[-173,2670],[-39,1501],[0,1501],[-712,1502],[-347,1168],[-442,1751],[-1021,376],[-558,625],[-481,1543],[-751,1418],[-212,1418],[366,1502],[-558,1418],[-1021,1043],[-808,250],[-867,1543],[-192,2085],[404,1377],[289,1334],[96,1335],[-269,1793],[-97,834],[77,1961],[77,1209],[20,2002],[-58,1376],[-327,1752],[-77,1460],[-366,1418],[-462,2085],[192,1168],[424,1209],[-19,2086],[-212,1376],[-173,2169],[-174,1459],[-269,1502],[-482,2210],[0,1752],[58,2085],[-346,1502],[-77,2210],[-193,2419],[-423,2127],[-308,1085],[19,2502],[38,1585],[20,2586],[-58,1334],[-212,2544],[-481,1418],[-559,1752],[-115,1043],[-77,1710],[-96,1084],[231,1668],[442,709],[636,1710],[-19,1460],[19,1251],[481,1210],[481,959],[405,876],[596,1334],[501,1252],[327,1126],[443,1585],[366,1334],[539,1919],[385,1710],[481,2419],[270,1293],[327,1376],[347,1376],[-520,1543],[-481,1043],[-424,1293],[-520,1752],[-346,1584],[-135,2461],[38,1251],[328,1710],[-385,626],[-578,1084],[-366,751],[-885,918],[-963,1418],[-366,1960],[193,1668],[115,1668],[231,2211],[405,1710],[327,1710],[-116,1501],[328,2044],[192,1668],[135,1585],[19,1043],[20,2001],[-270,2461],[77,1084],[135,2211],[212,1043],[1347,-84],[212,793],[38,4045],[-77,2377],[-38,8634],[-39,375],[-134,8717],[-154,5505],[577,12929],[250,9134],[135,792],[77,3629],[0,1376],[97,1919],[77,2418],[115,1877],[173,2544],[231,2378],[77,1668],[-211,1460],[-116,1501],[58,3879],[38,1793],[39,1543],[58,2002],[38,1377],[-77,2585],[19,2169],[270,1335],[1097,750],[693,709],[713,376],[943,1084],[1020,1210],[770,1418],[770,2002],[-19,1668],[-96,1626],[-347,1085],[135,1668],[-481,1502],[597,1835],[539,1418],[616,1042],[366,2294],[154,2503],[654,1668],[-96,2294],[115,1543],[-192,1710],[-578,1293],[-539,83],[-1001,-334],[-635,1168],[0,1460],[885,1960],[674,1335],[4139,5839],[3928,-7257],[1251,-2503],[1887,-3628],[1944,-3545],[1483,-2628],[481,-876],[1328,-2252],[693,-1042],[616,-960],[655,-917],[1309,-1752],[1329,-1668],[673,-792],[790,-835],[808,-834],[809,-750],[828,-709],[827,-668],[732,-500],[732,-501],[731,-459],[1483,-792],[750,-334],[751,-333],[751,-250],[770,-209],[770,-167],[770,-83],[770,-42],[751,83],[866,167],[848,334],[827,375],[847,459],[828,542],[809,584],[693,542],[693,626],[674,667],[1347,1377],[655,750],[751,876],[712,918],[712,959],[694,1001],[2772,5005],[0,41],[2580,5964],[500,1418],[501,1460],[924,2920],[500,1751],[385,1251],[405,1544],[404,1584],[366,1627],[327,1710],[327,1668],[289,1752],[270,1710],[231,1793],[192,1710],[193,1710],[154,1752],[288,3503],[270,3504],[231,3503],[96,1752],[193,3628],[154,3629],[135,3711],[96,3754],[38,1877],[0,1835],[-19,1835],[-38,1835],[-116,3670],[-192,3671],[-116,1876],[-250,3712],[-770,10469],[-347,5046],[-154,2419],[-58,959],[-173,3337],[-115,3295],[-39,3294],[0,1627],[39,1668],[77,1835],[115,1877],[173,1835],[231,1752],[251,1752],[308,1710],[346,1668],[385,1585],[385,1376],[405,1335],[442,1251],[1001,2335],[1945,2962],[693,1084],[1848,1376],[828,501],[866,458],[867,334],[1752,459],[847,83],[847,0],[866,-83],[847,-125],[847,-167],[867,-167],[847,-292],[1636,-625],[828,-376],[1636,-834],[1175,-625],[1251,-710],[1636,-1000],[1656,-1085],[1656,-1168],[2464,-1710],[2445,-1751],[3254,-2503],[1559,-1376],[2291,-2169],[3253,-3169],[578,-584],[2272,-2252],[2271,-2378],[2234,-2460],[1463,-1710],[712,-918],[693,-1001],[2946,-4504],[385,-626],[712,-1209],[655,-1126],[2137,-3629],[1501,-3128],[578,-1168],[712,-1459],[982,-2169],[1059,-2503],[520,-1292],[481,-1335],[481,-1335],[462,-1459],[424,-1502],[423,-1543],[385,-1585],[366,-1543],[347,-1627],[308,-1626],[269,-1627],[251,-1626],[211,-1668],[193,-1710],[154,-1669],[135,-1710],[115,-1543],[58,-1543],[38,-1543],[20,-1543],[-20,-1585],[-77,-1835],[-115,-1835],[-154,-1794],[-173,-1626],[-193,-1627],[-231,-1626],[-173,-1168],[-328,-2044],[-269,-1626],[-308,-1669],[-616,-3086],[-19,-167],[-693,-3169],[-366,-1585],[-385,-1543],[-443,-1627],[-462,-1585],[-462,-1585],[-982,-3128],[-327,-1001],[-1675,-5129],[-1560,-4546],[-1578,-4421],[-2715,-7257],[-1675,-4296],[-558,-1418],[-1136,-2753],[-1367,-3920],[3639,-4922],[1444,-1376],[1059,-917],[577,-501],[1791,-1501],[96,-84],[2329,-1960],[1386,-1126],[2099,-1793],[481,-417],[924,-793],[1078,-917],[1579,-1293],[1097,-960],[1579,-1334],[2253,-1877],[924,-792]],[[294322,252617],[-1771,83],[-22967,1085],[385,-1210],[654,-1418],[193,-2085],[654,-2294],[674,-751],[636,-2794],[558,-2044],[751,-876],[442,-375],[1002,-667],[365,-751],[559,-2252],[134,-4129],[-2656,-17600],[-3812,-15515],[-1675,-4171],[-3427,-10009],[-5005,-9218],[-3196,-6130],[-2465,-5547],[-1135,-2044],[-3947,-6006],[-2869,-3587],[-635,626],[19,1960],[-211,751],[-1849,-1335],[-866,334],[-577,1418],[-1695,1001],[-789,-667],[-1001,-42],[-886,-834],[-500,-1335],[-154,-1501],[-77,-1293],[-1078,-792],[-944,83],[-981,-209],[-2561,-1251],[-2137,-1501],[-1771,-1293],[-1887,-876],[-500,-83],[-867,1167],[-1136,876],[-1193,167],[-1117,0],[-1270,-584],[-770,-876],[-2214,-1543],[-462,-83],[-771,167],[-1694,-167],[-2002,-668],[-962,-709],[-751,-250],[-4101,-2544],[-2291,-1460],[-962,-792],[-771,250],[-808,1794],[-674,959],[-481,292],[-1309,41],[-1618,209],[-442,-667],[-58,-2294],[-366,-667],[-2945,-876],[-2465,167],[-3407,-334],[-1925,-1043],[-3196,-667],[-1444,-167],[-1097,-375],[-867,-417],[-1136,-1043],[-1116,-1043],[-1868,-792],[-962,-542],[-2214,-1961],[-385,-1459],[-674,-542],[-905,-1001],[-500,-1210],[-482,-1752],[-558,-4838],[-212,-2293],[-885,-334],[-848,0],[-1039,834],[-96,334],[96,6631],[-270,3754],[-558,2544],[-616,1710],[-1001,542],[-905,-1710],[-154,-1919],[-1020,-667],[-2118,417],[-1059,-709],[-558,-333],[-1271,41],[-616,-709],[-500,-1793],[-2291,-4129],[-424,-667],[-866,-84],[-1078,417],[-1078,1460],[-443,1084],[-135,1961],[-347,3169],[-423,4463],[-250,2669],[-578,584],[-905,-1126],[-38,-6048],[-328,-1584],[-693,-84],[-827,501],[-424,2794],[-404,2044],[-1040,-834],[-96,-1418],[-77,-1961],[-289,-2002],[-808,-1584],[-1021,-960],[-539,-333],[-982,-459],[-1559,-334],[-1059,-459],[-558,0],[-1232,-1584],[-1098,-543],[-19,1877],[-308,1085],[-963,292],[-423,-1210],[-404,-1126],[-597,-1043],[-482,-1001],[-1001,-167],[-1039,251],[-790,-42],[-635,-584],[-1020,1335],[-1021,959],[-654,334],[-712,625],[-828,-167],[-828,-1710],[-712,-125],[-1560,-500],[-1655,-918],[-809,-792],[-616,-292],[-809,584],[-654,1084],[-963,1293],[-1193,84],[-982,-1127],[-944,-1501],[-770,-584],[-500,1210],[-1117,-918],[-808,-1627],[-1002,-1418],[-693,126],[-1482,83],[-2946,-500],[-712,-334],[-635,-459],[-636,-1877],[-250,-2002],[-577,-584],[-693,501],[-347,1168],[-770,876],[-924,-1377],[-751,-500],[-635,-250],[-578,-1085],[-866,-292],[-712,2002],[-867,1126],[-712,417],[-866,-542],[19,-2461],[-635,-2210],[-944,-2586],[-866,-2502],[-443,-3295],[-289,-1543],[-1174,-1001],[-982,83],[-520,834],[-443,2086],[-134,3253],[-97,2210],[-462,2378],[-442,1751],[-790,0],[-770,-917],[-539,-2294],[-885,-334],[-1156,-500],[-712,-793],[-693,-625],[-1001,-1460],[-308,-1210],[-501,-917],[-1289,-584],[-1945,-626],[-770,-1251],[-424,-1751],[-577,-1001],[-481,-417],[-732,-251],[-847,-167],[-635,126],[-674,1501],[77,4755],[-1059,709],[-558,-459],[-751,-918],[-982,-1209],[-1829,-292],[-3369,500],[-1656,542],[-750,626],[-462,2044],[77,7006],[-77,1669],[-540,2168],[-2079,835],[-770,-1377],[-443,-5714],[-693,-1710],[-577,-583],[-616,-292],[-674,584],[-1097,959],[-1040,-751],[-366,-1335],[-192,-2544],[-905,-750],[-693,333],[-1925,1669],[-732,834],[-1059,-292],[-597,-1377],[-674,-2711],[-712,-2752],[-577,-1919],[-732,-792],[-597,-292],[-808,208],[-1059,251],[-905,-251],[-462,-542],[-943,-1167],[-924,-1961],[-809,-375],[-1656,292],[-1097,1626],[-578,2211],[-211,9259],[-405,250],[-1136,42],[-731,-793],[-3465,-1877],[-2811,334],[-539,-83],[-39,459],[-1559,18058],[-2002,24274],[-405,2419],[-250,1668],[-2079,25483],[-231,2836],[-3388,39996],[-732,8800],[-963,11720],[-19,83],[-751,10093],[-654,8759],[-578,7716],[-327,4462],[-154,2002],[-289,3128],[-173,1960],[-193,2544],[-674,10802],[-173,2211],[-558,4879],[-173,2002],[-443,5839],[-173,2211],[-308,3420],[-174,1960],[-192,2377],[-96,1251],[-39,1627],[289,12345],[19,1126],[366,11011],[77,2127],[38,1126],[154,4296],[39,1668],[212,5046],[57,1001],[193,3629],[96,1835],[154,2586],[39,5505],[115,2627],[77,2419],[193,4797],[38,1334],[96,1835],[77,1877],[154,4505],[155,4921],[38,1293],[270,7215],[57,1835],[58,1502],[96,1960],[77,2002],[97,2127],[173,3628],[135,3003],[57,1460],[77,1877],[77,2502],[58,1835],[347,8550],[134,2586],[77,1585],[-57,1126],[-328,2127],[-269,1585],[-154,1584],[-135,2002],[116,1210],[385,1710],[211,1334],[154,1710],[-288,2294],[577,1835],[674,960],[443,959],[173,1418],[-38,1960],[57,1335],[501,1376],[597,751],[596,1835],[636,1334],[308,584],[462,1460],[269,2210],[-115,1460],[-58,1960],[674,1335],[732,1793],[250,2211],[308,1501],[481,1585],[520,1376],[250,2211],[39,1335],[231,1626],[-58,2336],[0,2294],[366,1418],[520,1543],[365,1042],[674,1585],[231,2419],[77,1543],[19,1585],[-57,1335],[38,1418],[96,2085],[251,2544],[173,2086],[212,1292],[539,1919],[712,1585],[501,2335],[308,1627],[250,1418],[96,1293],[-96,2002],[-135,1460],[135,1209],[1020,334],[578,-1210],[520,-1460],[982,751],[962,-500],[751,-501],[654,-625],[828,-417],[905,-1168],[828,0],[751,1376],[558,667],[963,-41],[712,-42],[693,1043],[462,625],[847,-417],[385,-417],[905,-459],[1078,1252],[539,1376],[674,876],[1040,917],[712,209],[847,-542],[655,-1001],[250,-1460],[635,-2085],[462,-751],[520,-1502],[481,-2127],[790,292],[539,-1543],[-308,-1543],[-58,-2461],[19,-2210],[-38,-1627],[173,-1126],[308,-1710],[135,-1918],[404,-1794],[443,-1334],[366,-1293],[327,-1168],[423,-2002],[39,-1293],[-578,-1585],[-115,-1459],[154,-1919],[269,-1710],[790,-1918],[404,-1502],[616,-1293],[501,-834],[673,-1626],[617,-1877],[404,-1960],[327,-1001],[308,-1585],[193,-1418],[731,-1710],[462,334],[886,542],[1020,709],[886,542],[770,417],[751,500],[1020,626],[1155,667],[135,2211],[-212,1835],[-192,1793],[-231,2169],[-174,1627],[-231,2043],[-96,1418],[-58,1585],[58,2085],[77,2545],[77,1668],[404,2043],[405,1168],[596,1585],[347,1043],[424,1126],[654,1376],[501,1210],[346,1084],[616,2127],[847,1168],[674,333],[539,334],[520,959],[616,1627],[366,-709],[712,-1585],[404,-1293],[116,-1501],[-193,-1168],[-327,-1376],[-366,-1835],[-250,-1210],[-289,-1460],[-269,-1835],[520,-2169],[827,-1000],[1001,-1335],[617,-918],[808,-500],[674,-42],[751,84],[751,125],[981,-334],[424,-1043],[250,-1543],[154,-2335],[116,-1794],[173,-1877],[231,-1626],[231,-2085],[154,-1335],[212,-1543],[154,-1335],[77,-2544],[38,-1543],[231,-1084],[424,-1252],[462,-750],[789,-709],[732,-626],[635,-542],[732,-1001],[558,-876],[809,-834],[500,-501],[770,-792],[482,-542],[808,-834],[520,-584],[732,-667],[770,-835],[847,-1209],[962,-1335],[847,-83],[809,-1001],[616,-1418],[693,-1502],[501,-1042],[654,-2211],[481,-1334],[732,-1668],[424,-1836],[539,-1584],[924,-126],[828,1168],[885,1752],[886,292],[500,167],[828,458],[616,1544],[847,583],[616,-291],[790,458],[1020,876],[578,501],[789,1293],[423,959],[655,1543],[462,1293],[674,2085],[481,1460],[520,1501],[693,1335],[385,876],[462,1418],[347,1209],[346,1585],[-173,1877],[-39,1293],[154,1418],[193,1293],[96,1793],[-19,2169],[308,2419],[327,1418],[847,709],[963,-334],[731,1168],[1059,542],[616,501],[597,876],[424,625],[712,459],[597,417],[693,1168],[1059,1793],[616,1043],[770,584],[1001,41],[732,-125],[1078,292],[616,-584],[866,-542],[732,84],[654,500],[828,125],[597,-250],[1039,-542],[636,-292],[635,-292],[2079,-1043],[751,-333],[1136,-376],[77,1293],[674,4212],[366,2461],[673,4213],[308,2127],[174,1251],[288,1918],[443,2002],[347,1251],[404,1460],[250,918],[616,1209],[1040,834],[963,876],[808,626],[1020,750],[578,584],[597,626],[789,792],[578,417],[1078,793],[866,667],[655,542],[751,668],[1020,875],[423,292],[1117,501],[847,208],[597,209]],[[652465,993451],[2907,459],[5929,-501],[2407,-1751],[1655,-1043],[1252,-876],[616,-459],[847,-625],[828,-626],[519,-333],[1252,-835],[751,-625],[1039,-751],[1540,-1043],[11089,-8758],[10088,-8592],[4043,-3419],[2811,-2336],[15575,-12053],[4293,-3295],[17885,-14139],[250,-208],[7951,-7007],[8028,-7841],[6161,-5755],[1213,125],[21446,-18434],[13919,-12137]]],"bbox":[100.44445,13.47842,100.96388,13.71819],"transform":{"scale":[5.194305194305192e-7,2.397702397702398e-7],"translate":[100.44445,13.47842]}}