{"type":"Topology","objects":{"districts":{"type":"GeometryCollection","geometries":[{"type":"Polygon","arcs":[[0,1,2,3,4]],"properties":{"CODE":"1201","PARENT":"12","NAME_TH":"เมืองนนทบุรี","NAME_EN":"Mueang Nonthaburi","NAME_CN":"Mueang Nonthaburi","COLOR_IDX":2}},{"type":"Polygon","arcs":[[-2,5,6]],"properties":{"CODE":"1202","PARENT":"12","NAME_TH":"บางกรวย","NAME_EN":"Bang Kruai","NAME_CN":"Bang Kruai","COLOR_IDX":1}},{"type":"Polygon","arcs":[[-3,-7,7,8,9]],"properties":{"CODE":"1203","PARENT":"12","NAME_TH":"บางใหญ่","NAME_EN":"Bang Yai","NAME_CN":"Bang Yai","COLOR_IDX":3}},{"type":"Polygon","arcs":[[-4,-10,10,11,12]],"properties":{"CODE":"1204","PARENT":"12","NAME_TH":"บางบัวทอง","NAME_EN":"Bang Bua Thong","NAME_CN":"Bang Bua Thong","COLOR_IDX":1}},{"type":"Polygon","arcs":[[-11,-9,13]],"properties":{"CODE":"1205","PARENT":"12","NAME_TH":"ไทรน้อย","NAME_EN":"Sai Noi","NAME_CN":"Sai Noi","COLOR_IDX":0}},{"type":"Polygon","arcs":[[-5,-13,14]],"properties":{"CODE":"1206","PARENT":"12","NAME_TH":"ปากเกร็ด","NAME_EN":"Pak Kret","NAME_CN":"Pak Kret","COLOR_IDX":0}}]}},"arcs":[[[943366,252725],[-4916,-18302],[-558,-2049],[-327,-1252],[-5310,-19669],[-295,-512],[-917,-3615],[-721,-2761],[-754,-2789],[-1508,-5636],[-1049,-3785],[-491,-2107],[-1541,-5294],[-1573,-6006],[-1802,-6148],[-984,-484],[-917,-341],[-1377,-399],[-1638,-597],[-1016,-313],[-1147,-484],[-1180,-513],[-1705,-683],[-458,-171],[-2458,-882],[-1934,-797],[-1246,-484],[-950,-313],[-1639,-854],[-1016,-768],[-753,-427],[-1377,-342],[-1049,-484],[-885,-341],[-1376,-626],[-1508,-1110],[-917,-854],[-1475,-1196],[-820,-484],[-1081,-597],[-1344,-1025],[-918,-854],[-721,-825],[-1540,-940],[-1344,-1195],[-917,-683],[-1082,-1053],[-1344,-712],[-983,-598],[-1081,-911],[-1115,-967],[-1573,-1110],[-1245,-1196],[-983,-740],[-1049,-825],[-1344,-996],[-655,-484],[-1115,-883],[-1016,-768],[-2327,-1850],[-688,-513],[-1770,-1167],[-688,-512],[-1278,-996],[-1115,-712],[-622,-484],[-1377,-1195],[-1245,-854],[-951,-541],[-1016,-711],[-721,-684],[-819,-797],[-1409,-910],[-1016,-1224],[-787,-513],[-1507,-1138],[-984,-797],[-1179,-740],[-1344,-1082],[-820,-740],[-1311,-1053],[-884,-598],[-1246,-854],[-1081,-967],[-1442,-1224],[-1934,-1139],[-819,-512],[-1246,-854],[-852,-740],[-1213,-911],[-688,-427],[-1311,-683],[-1049,-740],[-196,-1053],[33,-1053],[-984,-1566],[-1016,-654],[-1409,-313],[-1803,-712],[-819,-313],[-1344,-456],[-884,-370],[-623,-1138],[98,-1679],[-1966,-399],[-656,1025],[-590,1053],[-590,484],[-1278,370],[-1639,227],[-786,-1650],[-623,-1110],[-1409,170],[-1803,769],[-1671,-968],[360,-939],[623,-712],[1573,-427],[525,-854],[-918,-1053],[-918,-484],[-1540,-284],[-1180,-228],[-983,-598],[-1508,-740],[-1180,-996],[-98,-911],[66,-1451],[-787,-1224],[-1213,-1395],[-426,-1110],[-721,-1509],[-557,-854],[-393,-939],[0,-1138],[262,-769],[787,-1736],[557,-1309],[2065,-4241]],[[803028,77392],[-328,113],[-6063,2477],[-1672,711],[-1147,570],[-1114,597],[-1049,655],[-950,626],[-918,683],[-885,683],[-852,740],[-787,740],[-950,1025],[-4195,-2078],[-2721,-1309],[-1016,-512],[-1179,-769],[-1508,-1138],[-688,-484],[-1147,-797],[-1147,-769],[-787,-569],[-1147,-911],[-852,-654],[-852,-684],[-885,-882],[-1213,-1110],[-1081,-797],[-721,-655],[-1213,-1195],[-1442,-1309],[-1147,-1054],[-754,-683],[-721,-626],[-1114,-996],[-557,-484],[-1639,-1480],[-1606,-1566],[-885,-1024],[-557,-712],[-1147,-1081],[-2196,-1879],[-262,228],[-1311,1224],[-754,854],[-983,1053],[-525,1309],[-491,1167],[-852,1252],[-1279,1139],[-819,1594],[-1409,1765],[-164,967],[-229,1224],[-623,1139],[-787,1252],[99,797],[-361,1366],[-131,1025],[-262,939],[-394,1253],[-196,1024],[65,797],[197,1367],[197,1024],[-1246,883],[-1409,170],[-524,769],[-1246,1879],[-754,853],[-688,655],[-1475,1110],[-1409,199],[-1344,228],[-1048,114],[-1246,256],[-1180,256],[-1343,313],[-1082,257],[-1377,313],[-2130,1480],[328,1053],[-1573,284],[-1541,598],[-1048,541],[-1115,-85],[-1081,1423],[491,1423],[525,854],[360,882],[-885,911],[-426,683],[-1016,1167],[-786,1537],[393,1281],[524,1537],[197,598],[229,1338],[-65,1366],[-1508,28],[-1737,0],[-1671,86],[-1704,57],[-1049,740],[0,882],[-33,968],[-33,1480],[-33,1651],[-98,1565],[-295,1736],[-1770,-313],[-983,-142],[-1212,57],[-1213,114],[-1082,171],[-1671,740],[-721,199],[-1082,825],[-1638,-398],[-1803,1451],[-819,-939],[-1049,-1281],[-983,-967],[-918,-712],[-1278,-854],[-852,-285],[-951,-683],[-917,-398],[-1410,-939],[-1966,-1481],[-754,-540],[-1376,170],[-1410,-1252],[-262,-1281],[-918,-1053],[-1409,-1195],[-885,-797],[-1311,-1025],[-885,-740],[-1966,-1736],[-164,-143],[-1868,-1821],[-1442,1138],[-1966,1395],[-3966,2448],[-393,227],[-2098,1167],[-2261,1253],[-885,541],[-1049,654],[-918,626],[-819,456],[-2622,1480],[-2687,1452],[-1442,654],[-132,57],[-2785,996],[-951,313],[-1180,370],[-4096,826],[-787,114],[-2163,114],[-5178,-285],[-1049,-171],[-1344,-199],[-2163,-313],[-426,-57],[-6030,-626],[-4097,-541],[-164,-29],[-2655,-455],[-1835,-341],[-3114,-797],[-950,-257],[-1671,-455],[-1279,-342],[-1081,-427],[-1606,-626],[-2229,-854],[-1376,-540],[-983,-257],[-2426,-569],[-2818,-655],[-787,-170],[-1704,-143],[-3114,114],[-1048,86],[-1016,199],[-5965,1793],[-5277,1566],[-1573,569],[-1835,711],[-984,399],[-2982,1252],[-1540,683],[-4818,2647],[-2032,1054],[-721,341],[-1442,655],[-1016,341],[-1868,570],[-1672,768],[-885,427],[-1245,598],[-1114,768],[-853,598],[-1278,968]],[[541360,127914],[3507,2590],[2819,2078],[2327,1252],[13470,6063],[1507,740],[6522,5436],[197,143],[13306,8795],[1180,797],[1344,854],[9242,1764],[98,3074],[-491,114],[-7079,1879],[262,1423],[819,4725],[688,3985],[33,199],[-1835,1879],[-3474,3614],[3179,-57],[1540,2619],[1901,-57],[1442,-57],[393,1224],[-426,1167],[-426,996],[-393,712],[-1180,882],[-819,712],[-918,1480],[-557,996],[-983,1736],[-918,1651],[-688,1395],[5670,4753],[8226,9365],[-688,1451],[262,1054],[1016,597],[1180,996],[1409,769],[885,342],[1508,427],[1409,398],[1180,228],[-131,1224],[-197,1565],[-131,1281],[-33,655],[-164,1707],[-164,854],[-295,1053]],[[607891,223436],[1410,513],[1671,996],[1114,114],[2065,228],[1409,170],[-393,1594],[-1507,370],[-951,968],[-852,1110],[-1082,1053],[-852,1537],[-229,1338],[754,712],[164,1707],[-558,1480],[918,883],[-1147,1025],[66,1679],[1048,1224],[131,1765],[-1179,768],[-885,598],[-328,1281],[229,740],[-98,1110],[295,1423],[295,1252],[-229,740],[950,1082],[1213,370],[-295,1480],[295,1110],[131,797],[-426,1594],[-197,968],[-426,911],[-918,1366],[-1048,882],[-656,1025],[-295,1708],[-360,1594],[950,455],[1311,512],[1016,797],[1147,655],[885,1537],[590,911],[-66,1081],[328,1452],[-131,911],[33,1309],[459,1025],[360,797],[164,1110],[-131,1167],[-164,1224],[-262,1736],[-164,1252],[65,570]],[[613528,285202],[984,-57],[1212,171],[1016,199],[1180,199],[1999,455],[1508,-170],[1147,-285],[1180,85],[918,200],[1704,398],[1049,114],[1311,171],[1835,199],[1147,171],[1475,227],[1114,200],[1049,199],[1245,228],[2000,284],[1081,29],[1901,114],[1934,341],[983,484],[1049,626],[1442,1110],[1442,655],[1770,939],[786,370],[1737,826],[1573,626],[1213,427],[1475,341],[1802,-170],[1410,-57],[1671,-342],[1082,-228],[2032,143],[1802,-171],[721,626],[7178,-228],[1442,-1167],[3015,-455],[1016,-370],[1180,-342],[917,-113],[1279,-86],[1769,-57],[1574,171],[1278,-28],[917,28],[1443,313],[1212,399],[1082,455],[1606,455],[1409,-370],[950,-227],[2098,-399],[1802,-370],[1049,-199],[1049,-256],[1016,-569],[688,-655],[623,-1082],[-656,-1565],[1082,-883],[1803,-113],[1507,-399],[1114,-455],[951,-399],[1081,-512],[1180,-797],[-229,-939],[426,-1139],[1966,-541],[2295,-711],[917,-626],[1246,-883],[852,-654],[917,-655],[1606,-1167],[1475,-769],[1311,-540],[2491,-1167],[1508,1451],[327,313],[1049,1053],[557,541],[951,968],[852,939],[852,968],[819,968],[820,968],[1540,1935],[819,996],[590,740],[984,1253],[753,1024],[984,1424],[458,626],[721,1110],[820,1309],[524,882],[656,1082],[590,1082],[589,1110],[492,1110],[492,1622],[3638,-57],[2294,0],[4097,342],[3670,256],[787,57],[1966,114],[1901,85],[1180,171],[1213,455],[1573,712],[1671,-171],[1901,-541],[1344,-341],[950,-199],[1082,-171],[1180,-342],[1475,-825],[1769,114],[1246,-285],[983,-911],[819,-711],[1672,-456],[819,-882],[393,-626],[1246,-911],[2065,-199],[1671,-86],[1147,-711],[1246,-1139],[1179,-1366],[1442,-427],[1246,-285],[1639,-313],[2359,-569],[754,-171],[2688,-598],[1999,-427],[5735,-1508],[951,-313],[1376,-342],[885,-171],[1377,-227],[1868,-399],[1901,-284],[1474,-769],[1541,-484],[885,-114],[9045,-1764],[4195,-854],[1967,-541],[852,-285],[1508,-398],[1081,-228],[1049,-228],[1081,-199],[1082,-284],[2655,-740],[917,-257],[1639,-455],[2753,-740],[721,-199],[1475,-370],[1475,-313],[1966,-484],[1868,-513],[1246,-398],[721,-199],[1999,-399],[1573,-427],[754,-171],[1540,-341],[1180,-143],[1704,200],[885,0],[1639,-86],[1376,-256],[4425,-1081],[1802,-399],[1934,-512],[1868,-484],[1377,-370],[1573,-427],[459,-142],[1540,-399],[1901,-512],[2655,-854],[1638,-569],[1967,-684],[1770,-540],[262,-86],[2753,-854],[1114,-455],[1868,-712],[1868,-626],[1115,-284],[1442,-257],[1999,-313],[1376,-256],[1639,-427],[1213,-171],[1966,-284],[2983,-313],[1573,-171],[1540,-171],[1573,-285],[1410,-256],[1474,-398],[1475,-1139],[820,-683],[753,-569],[951,-569],[852,-826],[426,-768],[721,-854],[524,-655],[1311,-797],[1213,-57],[1868,-142],[951,-114]],[[803028,77392],[2130,-655],[2720,-541],[2196,-512],[1671,-313],[1082,-228],[2392,-655],[2622,-768],[1836,-541],[1769,-569],[1311,-427],[1770,-598],[1278,-484],[984,-512],[885,-569],[950,-712],[-1442,-1167],[-1377,-1082],[-590,-455],[-1474,-1110],[-5179,-4127],[-3375,-2647],[-2917,-2277],[-2393,-1851],[-4064,-3187],[-4195,-3331],[-1802,-1394],[-3474,-2818],[-2360,-1907],[-1672,-1309],[-1376,-1111],[-1082,-853],[-1343,-997],[-918,-768],[-1573,-1139],[-1409,-911],[-1443,-797],[-1114,-569],[-1442,-626],[-1180,-455],[-1540,-541],[-590,-199],[-1508,-484],[-786,-228],[-1901,-598],[-3441,-1081],[-7112,-2192],[-33,0],[-2655,-854],[-9111,-2875],[-4064,-1281],[-6555,-2049],[-6489,-2021],[-5932,-1793],[-6129,-1935],[-3605,-1167],[-9144,-2676],[-7210,-2306],[-3671,-1223],[-2982,-911],[-1442,-456],[-1868,-597],[-525,-171],[-1737,-456],[-4129,-939],[-1049,-199],[-1344,-256],[-3539,-655],[-3507,-683],[-4982,-996],[-1639,-313],[-1442,-285],[394,1167],[295,626],[852,1509],[1671,2448],[918,1337],[1835,2477],[525,683],[852,911],[1409,1508],[852,996],[820,1082],[426,740],[491,1082],[-1278,683],[-8062,3216],[-1541,598],[-4588,1821],[-2524,997],[-4424,427],[-4097,825],[-3081,626],[-8259,996],[-9308,399],[-1900,114],[-4851,370],[-33,0],[-3310,228],[-1442,85],[-2098,85],[-557,0],[-4064,313],[-3769,313],[-983,114],[-2261,114],[-1705,86],[-1081,57],[-1409,56],[-1672,86],[-1639,57],[-1212,28],[-1541,114],[-2032,171],[-1474,85],[-5146,427],[-3769,114],[-885,28],[-1999,86],[-2327,142],[-1901,143],[-1212,85],[-8915,683],[-6358,427],[-459,28],[-3343,0],[-1573,0],[-5441,257],[-4358,455],[-7768,427],[-819,57],[-3015,142],[-1541,86],[-3736,85],[-688,28],[-1442,86],[-4425,341],[-1442,57],[-1049,57],[-1114,57],[-3835,171],[-3080,228],[-426,28],[-2327,199],[-1180,57],[-1475,57],[-4523,143],[-721,28],[-459,28],[-1704,114],[-1311,57],[-1081,29],[-2065,28],[-2196,57],[-1245,57],[-1377,85],[-2065,86],[-2228,57],[-754,0],[-3671,28],[-1016,29],[-1638,57],[-1803,113],[-2425,200],[-787,57],[-1409,85],[-2983,142],[-3441,143],[-1540,57],[-2557,56],[-426,0],[-2228,29],[-689,0],[-1802,0],[-1934,57],[-1507,85],[-1180,57],[-3245,57],[-1114,0],[-590,57],[-1901,171],[-1442,85],[-2327,57],[-885,0],[-7145,171],[-1081,0],[-1704,0],[-2622,85],[-426,0],[-2557,86],[-1704,28],[-2753,29],[-2425,85],[-5408,256],[-4490,114],[-3277,114],[-5572,85],[-3179,114],[-3048,86],[-3933,142],[-1081,57],[-8554,256],[-3442,28],[-852,29],[-3310,0],[-1737,28],[-3081,29],[-524,28],[-2655,143],[-721,28],[-13568,399],[-8751,142],[-2458,57],[-4687,85],[-7603,171],[-6916,313],[-7013,199],[-10193,228],[-5244,114],[-7112,171],[-6030,57],[-6358,113],[-7735,200],[-590,0],[-6522,199],[-4260,228],[-1869,113],[-4653,143],[-3966,28],[-5998,143],[-1147,56],[-3867,114],[-6555,143],[-1016,57],[-2982,199],[-689,28],[-4490,228],[-5440,285],[-492,853],[-1442,2790],[-1835,3131],[-230,398],[-1114,1850],[-2097,3558],[-2655,5238],[-1672,3131],[-2064,3927],[-1934,3587],[-1770,3045],[-2851,5295],[-2589,4696],[-1999,3416],[-1016,2191],[-1836,3473],[-950,1878]],[[186058,95750],[917,200],[2032,626],[1574,455],[6030,1879],[2819,854],[2589,797],[1704,512],[3867,1110],[2884,797],[2721,769],[1769,455],[623,57],[1573,-86],[3409,-227],[2032,-143],[2523,-142],[2721,-171],[4752,-170],[1507,56],[2327,29],[951,57],[1147,142],[1704,-28],[1278,-29],[1442,0],[1573,-28],[1049,28],[1344,86],[1311,114],[983,0],[1672,0],[1638,56],[1901,-56],[787,-57],[2294,-57],[2819,-143],[1147,-199],[885,-285],[1868,-711],[1540,-199],[1508,-57],[2490,0],[1344,0],[918,-29],[3376,-28],[3965,-29],[1409,29],[132,-1110],[393,-1879],[426,-2135],[393,-1935],[295,-1480],[295,-1537],[361,-1423],[131,-456],[393,-1537],[426,-1565],[525,-1907],[294,-1110],[295,-1794],[295,-1537],[426,-1195],[3409,256],[262,29],[11176,910],[11373,0],[5833,-284],[6293,-797],[1934,-256],[7046,-911],[2261,-370],[2655,-655],[5080,-1110],[1540,-57],[1148,-28],[1048,284],[3343,3274],[1967,1423],[2392,1138],[2720,854],[1410,427],[786,256],[1672,513],[1737,597],[3802,940],[3048,768],[1966,513],[524,142],[1836,484],[1475,398],[1769,541],[1147,370],[1148,370],[983,342],[983,398],[885,484],[1245,683],[951,569],[1999,1167],[65,29],[3606,2220],[1507,882],[1180,712],[623,598],[721,1138],[655,512],[1475,627],[1246,540],[852,342],[1180,484],[1016,370],[1343,512],[1377,484],[983,370],[983,342],[1278,427],[852,284],[2590,797],[983,313],[1475,370],[1606,86],[1769,-342],[2131,-598],[1835,-142],[1573,199],[1147,342],[1049,398],[885,314],[524,2077],[3016,5124],[622,569],[6621,2590],[3113,1167],[1344,399],[754,313],[1311,484],[753,370],[1410,512],[1245,569],[2065,854],[688,-939],[688,-1253],[525,-683],[655,-1024],[688,-1367],[787,-1081],[983,-1594],[820,-1139],[557,-797],[655,-1081],[623,-1082],[688,-1309],[852,-1366],[656,-940],[557,-854],[852,-1309],[459,-911],[393,-768],[1246,-1338],[1507,655],[918,398],[1081,683],[1705,883],[1212,654],[1049,456],[1442,740],[2360,1081],[688,342],[2229,1053],[1507,712],[1115,512],[983,455],[918,484],[1179,655],[1311,683],[1016,427],[1705,1025],[1507,740],[1016,370],[1147,370],[1606,-86],[1508,-398],[1278,455],[1475,541],[950,228],[1639,284],[1082,29],[1114,626],[819,484],[590,854],[852,1281],[1541,626],[1343,683],[852,911],[1148,854],[1081,171],[787,1309],[721,541],[1606,199],[1114,626],[1180,740],[655,1252],[721,1253],[918,455],[1082,598],[950,512],[1344,313],[1737,143],[1901,284],[1343,1253],[328,1195],[1147,826],[1639,569],[360,1025],[1377,512],[819,342],[1475,-399],[1016,-1281],[1442,427],[328,1537],[1081,996],[1049,-1309],[1901,-2391],[1245,-1451],[492,-627],[1311,-1394],[983,-911]],[[186058,95750],[-1213,2306],[-623,1110],[-590,996],[-1114,1993],[-852,1508],[-1278,2192],[-459,797],[-1803,3387],[-1769,3188],[-1442,2590],[-1279,2391],[-2818,5266],[-2393,4497],[-1376,2334],[-164,284],[-4588,8255],[-2196,4041],[-2852,5380],[-1900,3558],[-558,968],[-3441,6034],[-4031,7400],[-918,1708],[-393,769],[-2884,5351],[-1639,2846],[-1147,2021],[-1934,3757],[-3080,5550],[-1279,1993],[-2425,4725],[-3244,5949],[-1442,2675],[-2524,4810],[-2065,3957],[-655,1252],[-1344,2306],[-1901,3244],[-1966,3558],[-2491,4498],[-1278,2305],[-1868,3501]],[[110842,233000],[1442,455],[2687,1139],[4752,1708],[7604,15911],[1573,3302],[2261,-228],[4490,-939],[3212,-854],[885,-228],[1999,-456],[4425,-939],[4359,-854],[3179,-341],[2523,-712],[2852,-854],[1376,-114],[2262,-170],[164,-29],[3310,228],[3769,-285],[2654,-57],[1967,-85],[1671,-171],[3114,228],[4392,284],[3703,627],[2688,370],[4391,427],[66,1224],[65,1793],[361,5152],[-98,4212],[-33,1651],[131,4497],[164,1907],[327,2533],[328,143],[6063,1366],[984,228],[2392,-143],[2294,-313],[3015,143],[1016,-1850],[853,-1964],[524,-1765],[262,-939],[0,-1680],[557,-256],[1606,-683],[688,-285],[3081,-654],[1344,-86],[2655,-227],[1606,-228],[1278,-171],[3113,-370],[3147,114],[2392,199],[1934,0],[1606,256],[98,4156],[1606,28],[2687,29],[3507,171],[2983,142],[8619,-256]],[[257767,268437],[5736,-399],[4424,-284],[1114,-86],[2196,-142],[24548,-1679],[9209,-627],[5998,-10332],[15142,-57],[3080,5124],[99,284],[-721,2277],[-394,7657],[0,427],[99,2049],[1049,9792],[884,8396],[590,2961],[164,313],[1115,2960],[1605,3529],[689,1338],[2327,5351],[721,3757],[131,427],[3441,7742],[1311,3729],[262,740],[1475,3643],[1147,3871],[262,940],[820,2760],[3834,9934],[-33,1537],[-32,1822],[8849,256],[4195,-598],[0,-3102],[32,-1736],[99,-6348],[3113,-6803],[328,-1053],[361,-2818],[163,-284],[1148,-2619],[721,-1594],[2163,-1651],[2458,-1964],[1147,-1394],[2327,-2163],[885,-484],[5932,-2733],[5211,-398],[33,-29],[15829,-1281],[12454,-967],[17961,-13264],[1147,-854],[1999,-1480],[983,-1452],[1114,-1622],[5998,-8938],[1213,-1764],[1081,-399],[1344,-1167],[1409,-1338],[1737,-939],[1311,-285],[1868,-455],[1705,-655],[1179,-540],[1442,-541],[1738,-570],[1343,-1764],[4654,-5978],[10062,2078],[786,171],[1934,427],[13929,-7970],[623,-341],[8980,-4839],[983,-427],[1704,-427],[3278,-854],[3342,-626],[525,-1138],[-2950,-1908],[-655,-398],[1212,-1366],[1574,-2107],[65,-540],[164,-1566],[-361,-1451],[197,-1367],[6129,-370],[393,-3444],[-3703,-199],[753,-2647],[-295,-1452],[-1507,-654],[-951,-1196],[263,-1423],[1278,-57],[1442,-114],[1901,-227],[1638,-342],[1115,-342],[1507,-483],[1213,-143],[1114,-1081],[-164,-1651],[-622,-1196],[426,-1423],[1245,-1053],[1016,-683],[754,-968],[1671,-740],[1311,-626],[1344,-598],[1672,-1081],[1048,-1167],[918,-399],[1377,-740],[1179,-1025],[2032,-370],[1311,-284],[885,-200],[1115,-483],[917,1167],[787,1508],[524,1281],[557,939],[426,797],[656,1224],[557,939],[459,854],[852,1253],[656,711],[1147,1310],[1343,1280],[984,883],[688,683],[1049,911],[1048,768],[1508,1139],[1376,854],[1475,882],[1475,797],[1442,712],[1213,540],[1409,513],[1868,541],[1278,370],[853,227],[1671,513],[1147,370],[1606,512],[1245,342],[1541,341],[1114,199],[1999,200],[1311,28],[1180,0],[1803,-28],[1737,-86],[2032,-256],[950,-171],[1475,-313],[2753,-711],[1966,-598],[1737,-626],[1737,-911],[1246,-911],[623,-484],[1212,-1025],[721,-797],[885,-939],[623,-825],[655,-1025],[361,-740],[557,-1195],[524,-1424]],[[257767,268437],[-164,1622],[-98,1082],[164,1195],[229,1765],[361,1537],[262,2789],[-229,2221],[-99,740],[-1606,4668],[-885,1992],[-163,398],[-1803,3985],[-1803,4042],[-1737,3928],[-8554,19156],[-622,1679],[-590,1480],[-7735,20038],[-459,1765],[-2228,8511],[-197,654],[-6063,22685],[-295,1167],[918,598],[2130,1594],[229,171],[1901,1395],[983,740],[1213,626],[819,455],[852,883],[918,654],[3999,2818],[4031,2960],[3179,2363],[2655,1992],[1737,1366],[65,57],[2261,1793],[1311,1167],[263,228],[1868,1651],[1606,1452],[4654,4468],[2261,2277],[2098,2221],[524,540],[819,968],[1115,1082],[917,854],[1147,1138],[1606,1793],[820,968],[688,769],[1081,1110],[426,455],[1574,1765],[1311,1451],[426,484],[1245,1423],[492,541],[1704,1907],[393,456],[1344,1565],[426,513],[1278,1423],[1344,1423],[688,683],[688,740],[1016,1195],[951,1139],[1507,1708],[426,484],[1770,2021],[426,512],[3278,3615],[3965,4468],[6653,7515],[-12716,7059],[-688,370],[-7014,3899],[2819,4099],[393,569],[1475,1993],[229,313],[2229,3102],[2196,3046],[229,341],[1672,2363],[2851,4041],[393,513],[1016,1565],[787,1025],[328,2021],[32,284],[427,3815],[131,1195],[65,1594],[66,655],[196,1565],[66,1338],[229,1281],[328,2789],[98,1139],[99,1764],[262,2021],[164,1395],[164,1537],[229,1736],[361,3359],[65,598],[131,1508],[0,712],[33,1935],[0,883],[33,1167],[0,1337],[-66,1794],[-295,3899],[-32,512],[-164,3331],[-33,626],[-66,1793],[-164,3216],[-32,655],[-99,1423],[-164,1423],[-65,1708],[0,825],[-66,1139],[-163,1252],[-230,1480],[-295,1737],[-524,1679],[-459,826],[-1049,1679],[-721,1281],[-590,1110],[-590,1366],[-393,825],[-557,854],[-623,1082],[-754,1423],[-917,1622],[-525,940],[-622,1053],[-689,1281],[-590,1024],[-557,883],[-557,996],[-590,1082],[-590,1024],[-1147,1936],[-2065,3444],[-327,598],[-3606,6290],[1508,797],[1704,854],[656,370],[6063,3302],[5473,2988],[2589,1395],[2032,1167]],[[305879,602083],[1475,655],[918,-1111],[754,-996],[819,-939],[2425,-2619],[262,-284],[2164,-2277],[262,-285],[1901,-2049],[1769,-1936],[328,-313],[1868,-1907],[492,-512],[1606,-1737],[557,-569],[918,-797],[1409,-854],[1213,-597],[1835,-1025],[1770,-939],[721,-399],[1212,-711],[852,-399],[1279,-626],[983,-342],[1507,-398],[1082,-256],[1704,-342],[1541,-284],[2327,-342],[1966,-199],[1606,-114],[1770,-256],[1212,-228],[1574,-256],[1999,-342],[1278,-256],[1213,-285],[852,-142],[1442,-256],[1114,-228],[1770,-284],[1934,-342],[1868,-341],[426,-86],[3244,-626],[951,-171],[1770,-427],[1016,-284],[1147,-285],[1573,-285],[1081,-227],[1049,-200],[2819,-512],[1147,-228],[3277,-654],[754,-171],[1278,-256],[1737,-342],[688,-142],[1836,-313],[1245,-171],[1475,-256],[1082,-171],[1343,-256],[721,-114],[2360,-484],[1245,-228],[1541,-256]],[[402235,566219],[1409,-284],[1803,-342],[491,-85],[2327,-427],[3114,-570],[2032,-341],[1737,-256],[1835,-456],[1114,-256],[2196,-427],[361,-57],[1933,-398],[1082,-228],[1737,-285],[1573,-341],[1639,-342],[1114,-142],[1311,-171],[1770,-313],[852,-199],[1704,-512],[1311,-484],[918,-370],[1311,-627],[983,-540],[1540,-1025],[1180,-683],[1377,-1338],[1475,-911],[1212,-370],[1803,-57],[1344,-85],[1048,142],[1180,0],[885,-114],[1475,-199],[1311,-142],[1540,-86],[1410,-113],[917,-29],[1475,29],[1999,341],[1704,484],[1344,512],[1442,854],[1573,940],[1148,483],[1737,541],[3703,854],[1966,456],[1377,284],[1966,256],[1475,0],[1639,-28],[786,-57],[2295,-199],[753,-86],[2459,-313],[655,-85],[1409,-256],[1180,-200],[1803,-341],[1245,-256],[1049,-427],[852,-427],[983,-484],[1246,-484],[753,-285],[2917,-1252],[918,-370],[1409,-1110],[951,-683],[1212,-712],[1541,-882],[1475,-1053],[884,-683],[1311,-968],[787,-740],[688,-854],[590,-1053],[-328,-1281],[-983,-996],[525,-911],[1081,-1139],[1147,-711],[754,-399],[1082,-455],[1048,-342],[2131,-683],[1507,-512],[852,-399],[852,-768],[951,-1139],[1278,-1451],[623,-683],[1311,-1281],[2491,-2107],[295,-256],[2425,-1992],[1180,-996],[950,-712],[1508,-1195],[950,-997],[492,-683],[754,-939],[1048,-1281],[918,-1480],[623,-1480],[98,-825],[0,-997],[918,-711],[1835,-143],[1606,-85],[819,-455],[1082,-797],[1016,-712],[1245,-1025],[820,-797],[721,-768],[885,-1252],[327,-797],[689,-1196],[524,-740],[1114,-1309],[885,-797],[1377,-1224],[557,-456],[1180,-853],[1180,-854],[1310,-854],[1016,-598],[853,-484],[1245,-598],[1213,-1138],[393,-1025],[197,-711],[327,-1167],[295,-968],[820,-1566],[721,-853],[819,-854],[918,-1025],[819,-1195],[590,-797],[918,-1054],[1016,-910],[1868,-1310],[1376,-1252],[1147,-626],[1737,-911],[1082,-854],[1016,-1025],[819,-1053],[623,-996],[852,-968],[754,-626],[1180,-825],[1114,-769],[950,-740],[1180,-1053],[754,-797],[983,-1366],[689,-997],[786,-853],[1311,-826],[754,-398],[1606,-598],[1180,-370],[1573,-911],[360,-939],[-786,-1395],[2294,-1366],[1475,-826],[2753,-1508],[557,-313],[4162,-2135],[361,-199],[2032,-996],[1606,-797],[164,-1224],[-623,-854],[-623,-883],[-688,-1081],[-426,-740],[-623,-1025],[-491,-854],[-1311,-2163],[-623,-1110],[-721,-1139],[-819,-1423],[-1180,-2078],[-885,-1594],[-1573,-2334],[-459,-967],[-525,-1082],[-786,-1281],[-492,-882],[-1147,-1907],[-623,-1082],[-721,-1337],[-1311,-2192],[-1507,-2391],[-1016,-1622],[-787,-1253],[-1311,-1935],[-590,-911],[-917,-1395],[-656,-968],[-1081,-1565],[-1016,-1480],[-295,-541],[-918,-1309],[-1245,-1907],[-197,-257],[-1409,-2049],[-1180,-1736],[0,-29],[-1147,-1707],[-787,-1196],[-1901,-2761],[-393,-569],[-721,-996],[-1245,-1936],[-623,-825],[-688,-1196],[-623,-1053],[-688,-1309],[-426,-996],[-459,-1053],[-492,-1424],[-262,-939],[-229,-882],[-164,-1139],[-99,-882],[-196,-2619],[-33,-1480],[-66,-1366],[-65,-1566],[11503,-626],[1738,-57],[2392,-370],[2098,-427],[2130,-341],[2491,-456],[1442,-227],[1835,-57],[983,-1082],[-459,-1423],[-491,-1395],[-459,-1195],[-623,-1623],[-262,-711],[-393,-1224],[-328,-882],[-360,-1054],[-492,-1309],[-393,-1138],[-557,-1537],[-1016,-2676],[-230,-740],[-885,-2306],[-1180,-3187],[-557,-1452],[-950,-2647],[-852,-2277],[-164,-427],[-623,-1623],[-1376,-3586],[-656,-1935],[-1573,-4640],[-819,-2305],[-295,-797],[-197,-1167],[-557,-1708],[-492,-1338],[-590,-1509],[-524,-1337],[-623,-1367],[-524,-1138],[-426,-911],[-426,-854],[-361,-854],[-393,-1167],[1901,-683],[1343,-398],[885,-256],[1246,-399],[1442,-484],[950,-284],[1737,-598],[1213,-370],[1671,-199],[1508,-257],[1868,-483],[1475,-171],[1737,142],[950,142],[2000,143],[1474,142],[1672,28],[983,0],[1803,-199],[-33,-1594],[98,-882],[262,-911],[295,-968],[230,-1394],[229,-1224],[721,-1594],[525,-1452],[360,-1622],[230,-1253],[327,-1394],[623,-2932],[131,-484],[230,-740],[262,-1537],[196,-939],[230,-1053],[295,-1310],[328,-1081],[294,-740]],[[110842,233000],[-361,712],[-3048,5465],[-1147,2077],[-1213,2277],[-229,399],[-754,1452],[-1114,1907],[-2393,4155],[-2654,4981],[-33,57],[-2393,4327],[-2228,3928],[-2917,5778],[-721,1394],[-983,1452],[-1672,3046],[-3867,7115],[-5932,10816],[-4720,8511],[-917,1708],[-2655,5009],[-4130,7543],[-2327,4383],[-3867,6974],[-1704,2846],[-656,1139],[-721,1508],[-1442,2704],[-1573,2761],[-459,769],[-2589,4981],[-2917,5038],[-1638,2789],[-1410,1850],[-1081,1395],[-721,711],[-918,797],[-1114,826],[-1967,1366],[-2097,1480],[-1541,854],[-1606,882],[-2589,1338],[-2196,1082],[-1376,740],[-1016,541],[-983,540],[-1934,940],[-2491,1281],[-2228,1024],[-4359,2363],[-3343,1821],[229,427],[918,1509],[393,683],[3310,4753],[197,285],[1245,1793],[1705,2420],[1802,2533],[2262,3102],[688,883],[852,1195],[1311,1936],[2065,2931],[2392,3188],[2327,3245],[1180,1622],[2196,2562],[1802,1936],[2000,1907],[393,284],[1770,1395],[1245,939],[1803,1452],[2359,2220],[1246,968],[1999,1622],[1508,1338],[852,768],[1966,1708],[3376,2761],[2261,1879],[820,711],[1212,1139],[820,768],[2195,1964],[2917,2562],[2491,2135],[197,199],[2491,2220],[2851,2647],[2556,2533],[2458,2591],[1442,1821],[853,1053],[2490,2904],[295,370],[2393,2874],[491,598],[3769,4668],[361,456],[918,1167],[2359,3045],[1311,1537],[3245,3843],[2753,3586],[164,228],[1409,1878],[2360,2989],[1278,1622],[4654,6035],[3933,4981],[262,341],[-983,569],[-3441,1993],[-1672,996],[-2163,1224],[-2065,1224],[-2589,1509],[-1770,1024],[-1933,1167],[-2098,1196],[-1606,910],[-1639,940],[-1671,911],[-1934,1081],[-1147,655],[-852,541],[-1770,1053],[-1442,882],[-1278,797],[-2065,1110],[-2654,1537],[-2032,1139],[-394,284],[-1278,940],[-1081,740],[-2426,1707],[-1114,883],[-1409,1138],[-2327,1794],[-2294,1878],[-1967,1594],[-1475,1196],[-1802,1508],[-820,712],[-2261,1878],[-1737,1509],[-2556,2135],[-2852,2390],[-1704,1395],[-1704,1423],[-1901,1680],[-623,540],[-1245,968],[-2294,1879],[-1770,1537],[-1278,1081],[-1082,1025],[-1507,1395],[-2098,2191],[-426,541],[-1245,1480],[-1377,1822],[-590,712],[-1573,1850],[-2196,2647],[-1344,2021],[-622,1024],[-623,1053],[-426,883],[-557,1053],[-951,1822],[-262,711],[-459,1139],[-688,1707],[-557,1111],[-361,1309],[-262,1053],[-328,1053],[-229,854],[-590,825],[-1147,1196],[-1311,1138],[-1770,1395],[-33,29],[-1933,1309],[-1573,1138],[-1574,1025],[-2326,1338],[-787,484],[-1770,1138],[-1835,1139],[-1770,1053],[1377,1025],[2195,1594],[820,740],[819,711],[4523,4355],[-5604,7714],[2032,1707],[6849,5807],[3015,2761],[-2523,1480],[-197,142],[-2491,1737],[7178,23652],[1999,6575],[1180,3985],[328,1310],[1114,3017],[557,1651],[361,1195],[229,683],[7833,484],[1344,29],[1639,113],[-2950,12866],[8324,-12496],[787,-1224],[983,-1167],[1672,86],[-1508,2419],[-918,1594],[-1605,3330],[-984,1936],[-262,711],[-819,2306],[-2098,5892],[-1868,5294],[-1147,3245],[-3343,6489],[-3736,8397],[-2327,4782],[-2753,4639],[-4064,7173],[-66,114],[-622,5067],[-99,597],[-622,2790],[-1049,4440],[-1475,6746],[-1442,6603],[-885,3843],[-164,654],[-328,1651],[-1212,4981],[-525,1737],[-229,1679],[-393,1423],[-394,2021],[-393,1992],[-65,1708],[1606,996],[1966,1224],[1147,854],[1835,1623],[2360,2362],[2130,2249],[689,540],[1409,1025],[2229,1452],[1769,1053],[984,569],[1671,1338],[787,882],[950,1110],[393,826],[885,1252],[1180,1167],[721,626],[885,655],[951,1281],[-66,1224],[-197,825],[-32,968],[32,1480],[0,1082],[33,967],[-426,1566],[-328,1167],[-196,882],[-33,1310],[590,540],[1245,627],[951,284],[1147,484],[1049,712],[786,711],[819,1110],[295,683],[689,1680],[360,996],[787,2078],[557,1366],[918,1935],[1212,3274],[295,1024],[393,1082],[656,1281],[459,1081],[459,1509],[164,769],[294,1252],[132,968],[262,1451],[98,968],[262,1793],[295,1651],[197,911],[295,1651],[164,1594],[65,1480],[66,1110],[33,1565],[32,968],[66,1167],[33,1736],[65,1281],[131,1509],[33,1081],[0,1053],[0,826],[0,1025],[0,1537],[-33,1650],[66,1082],[33,1167],[32,826],[33,1451],[-33,1053],[-32,1452],[-33,1565],[0,1224],[-33,1737],[-33,1110],[66,1366],[33,1138],[-197,883],[-131,1024],[65,1708],[230,1452],[-66,1423],[-98,882],[98,1310],[164,1195],[164,826],[131,2761],[-98,853],[131,1167],[295,2534],[262,2903],[328,2989],[196,1821],[197,2476],[164,1908],[721,6461],[0,199],[950,9051],[1541,13947],[196,2505],[427,2761],[360,2562],[361,2561],[491,3046],[262,1850],[853,6176],[131,427],[5506,3558],[1966,1253],[98,57],[5244,3358],[2753,1737],[3999,2675],[4850,3444],[8259,5921],[1999,1508],[1508,1082],[3310,2476],[1803,1338],[3343,2561],[1638,1651],[3802,3871],[4261,3757],[2327,997],[1475,427],[1212,427],[1868,711],[1508,86],[2065,28],[2523,-85],[721,-200],[2819,-996],[2720,-1309],[20582,-8283],[25564,-12268],[4982,-2248],[688,-285],[10160,-4525],[6423,-371],[492,0],[5735,-227],[3868,-114],[6260,-228],[163,0],[7670,-284],[98,-29],[8652,-626],[983,-142],[2032,-997],[3343,-2561],[3802,-2619],[7505,-7173],[3966,-4326],[3409,-3757],[2031,-3302],[5474,-8283],[4457,-6746],[66,-113],[-99,-370],[-754,-2647],[-557,-2107],[-327,-1252],[-427,-1423],[-327,-1110],[-328,-1253],[-361,-1224],[-491,-1878],[-197,-626],[-393,-1196],[-328,-1025],[-295,-1138],[-393,-1623],[-590,-2447],[-360,-1367],[-164,-967],[-230,-1537],[-65,-655],[-295,-2818],[-230,-1366],[-459,-2334],[-327,-1708],[-131,-939],[-394,-2989],[-98,-825],[-98,-996],[0,-399],[-33,-2220],[0,-342],[0,-4298],[0,-711],[-98,-1537],[-132,-883],[-131,-967],[-229,-997],[-262,-939],[-459,-1281],[-361,-1565],[-426,-1423],[-327,-1452],[-394,-1480],[-229,-768],[-492,-1253],[-327,-882],[-1574,-3928],[-262,-683],[-1868,-4868],[-164,-426],[-1507,-4099],[-263,-683],[-2130,-5209],[-229,-626],[-492,-1139],[-393,-882],[-656,-1196],[-458,-797],[-1016,-1850],[-394,-854],[-426,-1024],[-524,-1338],[-951,-2192],[-164,-370],[-2326,-5180],[-492,-1139],[-623,-1366],[-262,-598],[-459,-1252],[-557,-2248],[-131,-456],[-983,-3472],[-394,-1253],[-983,-3928],[-295,-1195],[-426,-1936],[-393,-1764],[-164,-655],[-426,-1651],[-295,-1338],[-295,-1081],[-2130,-7515],[-492,-1992],[-885,-3643],[-491,-1793],[-164,-1167],[-328,-2818],[0,-171],[-229,-2533],[-263,-3558],[-32,-570],[-131,-2077],[-132,-2277],[-65,-1196],[-66,-1964],[-65,-2334],[0,-2106],[0,-2135],[98,-1252],[295,-1395],[492,-2305],[32,-200],[656,-2590],[131,-768],[229,-1281],[787,-3643],[393,-1509],[263,-1110],[917,-3757],[0,-57],[721,-2875],[230,-825],[327,-1167],[1180,-4071],[623,-1565],[492,-1423],[491,-1310],[393,-996],[426,-1281],[459,-1252],[557,-1423],[558,-1224],[196,-456],[1278,-3130],[590,-1509],[492,-1281],[393,-1138],[230,-684],[491,-1280],[361,-940],[655,-1679],[459,-1224],[459,-1138],[918,-1594],[1278,-1794],[983,-1480],[1540,-2647],[558,-1024],[655,-1196],[852,-1537],[656,-1195],[262,-513],[655,-1281],[263,-512],[786,-1338],[492,-996],[1311,-2334],[917,-1537],[885,-1651],[885,-1480],[754,-1338],[459,-825],[754,-1252],[557,-997],[688,-1337],[590,-1338],[328,-826],[459,-1053],[721,-1594],[393,-1053],[328,-768],[426,-1224],[458,-1167],[492,-1623],[590,-1280],[623,-1566],[557,-1224],[328,-598],[983,-1679],[721,-1252],[590,-1053],[688,-1054],[459,-711],[1606,-2790],[328,-597],[1442,-2192],[360,-598],[1049,-1793],[786,-1309],[623,-1139],[721,-1423],[623,-996],[721,-1139],[754,-1224],[983,-1508],[262,-399],[1868,-2761],[951,-1394],[1016,-1566],[360,-540],[820,-1196],[360,-512],[950,-1452],[951,-1508],[360,-541],[689,-1053],[557,-854],[1016,-1423],[918,-1509],[1016,-1537],[852,-1395],[983,-1423],[1049,-1395],[950,-1394],[688,-1053],[689,-1054],[917,-1195],[623,-939],[1147,-1480],[754,-1167],[328,-570],[917,-1651],[2720,-4127],[1180,-1622]],[[402235,566219],[229,854],[459,1480],[361,968],[458,1082],[164,939],[-524,1451],[-885,797],[-1180,1139],[-1147,854],[-983,626],[-1082,712],[-1835,1110],[-688,541],[-885,711],[-1278,968],[-1082,825],[-852,740],[-721,655],[-1049,1139],[-1016,540],[-491,1708],[1704,-256],[1770,-256],[1311,-313],[2326,-513],[2164,-512],[1638,-313],[623,-171],[1835,-427],[1475,-341],[1541,-342],[1966,-427],[4228,-996],[754,-171],[2359,-484],[721,-142],[5015,-1167],[1409,-313],[1704,-342],[1868,-398],[2131,-456],[1901,-455],[950,-256],[1966,-484],[1836,-342],[1802,-370],[820,-199],[1245,-285],[1377,-341],[2228,-456],[1573,-341],[2131,-541],[524,-142],[1737,-399],[328,-85],[3539,-769],[1672,-427],[1671,-370],[2163,-426],[1934,-427],[1246,-285],[1802,-484],[3605,-825],[885,-200],[1180,-227],[1606,-342],[5801,-1281],[787,-171],[1704,-398],[1835,-455],[1704,-342],[1803,-398],[2524,-598],[1737,-399],[4752,-1053],[393,-114],[1999,-484],[656,-142],[1704,-341],[1245,-314],[984,-256],[1442,-370],[1180,-284],[983,-228],[1999,-427],[1508,-256],[786,-171],[5047,-1224],[1541,-313],[917,-199],[1147,-256],[1803,-427],[1770,-427],[1180,-199],[1901,-399],[1638,-398],[1705,-456],[1999,-484],[1409,-284],[1475,-313],[1081,-257],[1574,-313],[1769,-398],[2393,-513],[4097,-882],[1835,-427],[3572,-768],[1082,-228],[1278,-228],[6129,-1110],[1966,-341],[1868,-342],[2426,-484],[1966,-370],[1278,-285],[1213,-341],[819,-427],[1541,-882],[1737,-968],[557,-313],[1212,-655],[1705,-968],[1245,-740],[1311,-1110],[1213,-797],[1343,-882],[721,-512],[1082,-769],[1475,-939],[2589,-1680],[557,-370],[1180,-825],[950,-598],[984,-654],[3179,-2078],[360,-256],[4752,-3245],[1639,-1053],[361,-256],[3867,-2448],[360,-256],[2655,-1765],[1606,-1082],[1606,-1110],[787,-598],[1114,-740],[3638,-2277],[1343,-882],[1639,-968],[3343,-2021],[623,-398],[1802,-1110],[689,-456],[1180,-740],[2130,-1309],[1901,1822],[1901,2163],[655,683],[819,712],[1442,626],[754,626],[1049,882],[1409,626],[1836,399],[1016,-29],[1966,57],[2720,29],[984,85],[1147,143],[2261,483],[3867,940],[1606,256],[1934,28],[1803,-142],[1671,-427],[2786,-1110],[5375,-2305],[1966,-1310],[1180,-1195],[1147,-996],[951,-712],[1016,-740],[1114,-854],[655,-512],[1573,-1167],[525,-427],[1278,-1025],[721,-598],[1213,-996],[1343,-1025],[558,-398],[1311,-996],[1114,-940],[1245,-996],[1115,-882],[1048,-854],[1377,-1195],[918,-854],[917,-883],[983,-967],[918,-797],[1147,-797],[623,-456],[1278,-996],[1114,-825],[590,-399],[1377,-683],[1049,-455],[721,-541],[1081,-1025],[1114,-1138],[820,-826],[1081,-825],[1115,-883],[852,-768],[1212,-1139],[558,-597],[1179,-1281],[1869,-1993],[1212,-1024],[1344,-1111],[1213,-1024],[1179,-1224],[1115,-1452],[688,-882],[1114,-1139],[1115,-1081],[1180,-1082],[1310,-1110],[2590,-2419],[1245,-1196],[1409,-1110],[1016,-569],[787,-455],[1081,-570],[1705,-939],[655,-655],[918,-1480],[491,-1081],[590,-1708],[361,-968],[328,-882],[786,-1253],[1213,-825],[852,-712],[1081,-1167],[754,-939],[-688,-1309],[-1376,-797],[-1803,-740],[393,-1196],[1147,-1366],[525,-1167],[1442,-1309],[1049,-854],[852,-854],[1081,-797],[656,-342],[1311,-654],[1081,-370],[1016,-313],[1409,-1310],[721,-1081],[1180,-541],[1672,455],[1147,-28],[1016,-1196],[1147,-313],[1704,0],[1704,541],[885,-740],[1410,-455],[1311,-513],[-33,-967],[1540,-541],[1016,-86],[1999,-313],[1311,-882],[1705,-57],[1507,-1025],[459,-683],[1049,-740],[819,-370],[1180,-455],[1082,-513],[1278,-1081],[917,-996],[754,-513],[1115,-370],[3015,-854],[1442,2562],[623,1082],[622,1053],[656,1053],[721,996],[786,968],[885,911],[951,882],[983,825],[1016,826],[1049,768],[2195,1537],[1115,740],[1114,712],[1082,626],[1081,626],[1082,598],[1114,541],[885,427],[1868,768],[1114,399],[1115,370],[1147,313],[1737,427],[1278,228],[1573,256],[1442,199],[1442,171],[1541,142],[1376,114],[1442,114],[1475,85],[2655,57],[2720,0],[3540,-142],[6718,-313],[5211,-313],[197,0],[4687,-256],[3015,-143],[688,0],[1704,0],[7538,143],[2655,199],[1311,114],[1344,142],[1311,142],[1802,285],[1114,199],[1115,256],[1114,256],[1114,285],[1246,313],[2458,769],[1245,427],[1213,427],[1213,455],[1179,455],[1148,484],[1114,513],[1114,540],[1114,570],[3442,1907],[1180,711],[1179,712],[1115,768],[1016,826],[754,683],[721,740],[1179,1309],[1115,1253],[1966,2277],[1278,1537],[623,882],[590,883],[590,939],[524,996],[492,968],[492,1138],[458,1110],[426,1139],[328,1167],[361,1708],[164,1167],[131,1508],[0,1395],[-33,1053],[6063,-114],[1180,-284],[1508,-598],[917,-569],[-131,-1139],[-1311,-797],[-295,-939],[1049,-1281],[492,-1167],[1376,57],[1540,1138],[1344,285],[1377,455],[1507,-797],[-688,-1309],[623,-996],[754,-512],[1048,-427],[1377,797],[1606,85],[262,-1195],[1081,-740],[2065,170],[983,114],[2065,0],[1606,-114],[1967,-313],[1245,-825],[1639,-285],[1212,-142],[1377,-513],[1016,-341],[1606,-85],[1278,-342],[983,-427],[951,-398],[1179,-399],[1475,114],[1213,541],[1442,-1082],[918,-1252],[1507,911],[99,626],[622,1195],[1705,-541],[852,-882],[557,-598],[786,-1110],[1705,-854],[1606,-284],[1966,-228],[1409,712],[1377,683],[1180,341],[1212,285],[1967,114],[1114,-57],[1737,-513],[262,-1195],[787,-455],[1376,-370],[459,-740],[1606,142],[1868,626],[1180,-598],[1508,313],[1016,200],[1868,170],[721,769],[1573,854],[1245,256],[1508,285],[1311,-370],[1999,-342],[262,1423],[1770,911],[885,85],[-98,-341],[-3933,-14687],[-8456,-30684],[-491,-1821],[-2917,-10845],[-6162,-22742],[-2491,-9307],[-983,-3587],[-2851,-10559],[-2327,-8653],[-525,-1708],[-1048,-3928],[-623,-2249],[-656,-2476],[-426,-1565],[-458,-1680],[-230,-882],[-623,-2249],[-655,-2533],[-623,-2220],[-1049,-3786],[-524,-1964],[-590,-2134],[-754,-2761],[-819,-2875],[-524,-1936],[-230,-768],[-590,-2192],[-491,-1878],[-328,-1196],[-557,-2106],[-197,-797],[-196,-882],[-6555,-24365],[-1442,-5351],[-1344,-5266],[-1311,-4867],[-1377,-5095],[-1179,-4241]]],"bbox":[100.26243,13.78892,100.56755,14.14025],"transform":{"scale":[3.051203051203074e-7,3.5133035133035213e-7],"translate":[100.26243,13.78892]}}