{"type":"Topology","objects":{"districts":{"type":"GeometryCollection","geometries":[{"type":"Polygon","arcs":[[0,1,2,3,4,5]],"properties":{"CODE":"1301","PARENT":"13","NAME_TH":"เมืองปทุมธานี","NAME_EN":"Mueang Pathum Thani","NAME_CN":"Mueang Pathum Thani","COLOR_IDX":2}},{"type":"Polygon","arcs":[[6,-6,7,8,9]],"properties":{"CODE":"1302","PARENT":"13","NAME_TH":"คลองหลวง","NAME_EN":"Khlong Luang","NAME_CN":"Khlong Luang","COLOR_IDX":1}},{"type":"Polygon","arcs":[[-1,-7,10,11,12]],"properties":{"CODE":"1303","PARENT":"13","NAME_TH":"ธัญบุรี","NAME_EN":"Thanyaburi","NAME_CN":"Thanyaburi","COLOR_IDX":3}},{"type":"Polygon","arcs":[[-11,-10,13]],"properties":{"CODE":"1304","PARENT":"13","NAME_TH":"หนองเสือ","NAME_EN":"Nong Suea","NAME_CN":"Nong Suea","COLOR_IDX":0}},{"type":"Polygon","arcs":[[14,-4,15]],"properties":{"CODE":"1305","PARENT":"13","NAME_TH":"ลาดหลุมแก้ว","NAME_EN":"Lat Lum Kaeo","NAME_CN":"Lat Lum Kaeo","COLOR_IDX":3}},{"type":"Polygon","arcs":[[-2,-13,16]],"properties":{"CODE":"1306","PARENT":"13","NAME_TH":"ลำลูกกา","NAME_EN":"Lam Luk Ka","NAME_CN":"Lam Luk Ka","COLOR_IDX":0}},{"type":"Polygon","arcs":[[-8,-5,-15,17]],"properties":{"CODE":"1307","PARENT":"13","NAME_TH":"สามโคก","NAME_EN":"Sam Khok","NAME_CN":"Sam Khok","COLOR_IDX":0}}]}},"arcs":[[[435175,219287],[420,-5506],[322,-5089],[597,-7953],[161,-2057],[290,-4144],[113,-1557],[516,-7647],[420,-5700],[322,-4366],[629,-8481],[516,-6868],[16,-417],[177,-2364],[613,-9705],[500,-6785],[145,-1946],[65,-946]],[[440997,137756],[48,-667],[97,-1363],[355,-4977],[96,-1335],[565,-7508],[355,-4643],[387,-5673],[241,-3671],[81,-1140],[65,-751],[112,-1835]],[[443399,104193],[-3644,-695],[65,-918],[290,-2697],[97,-1223],[161,-2336],[16,-195],[226,-3059],[129,-1251],[32,-500],[145,-1446],[97,-1113],[193,-2336],[81,-945],[97,-1223],[113,-1919],[129,-1279],[177,-1808],[-580,-1390],[-1210,806],[-693,501],[-1452,1084],[-1322,1029],[-419,362],[-758,611],[-839,1029],[-693,473],[-1016,806],[-919,723],[-1677,1252],[-1306,1001],[-855,667],[-3644,2725],[-3145,2336],[-1402,1168],[-242,167],[-2935,1557],[-984,500],[-758,334],[-661,195],[-629,222],[-1000,417],[-4434,1863],[-113,56],[-1725,612],[-5564,2169],[-1193,445],[-3660,1473],[-936,362],[-774,334],[-612,333],[-726,278],[-581,167],[-516,195],[-499,361],[-726,278],[-484,-472],[-596,-306],[-500,-528],[-871,-751],[-419,-390],[-839,-723],[-677,-695],[-500,-500],[-774,-612],[-323,-306],[-693,-751],[-855,-806],[-580,-612],[-613,-612],[-774,-417],[-580,-333],[-97,-751],[-436,-84],[-870,-889],[-129,-1391],[-984,334],[-645,361],[-742,-278],[-613,-250],[-774,-834],[-354,-751],[-919,-167],[-500,-194],[-742,-306],[-581,584],[-919,-612],[-790,-139],[-226,723],[-677,361],[-387,445],[-129,1168],[-855,501],[-548,55],[-967,-111],[-597,-278],[-581,-334],[-677,-667],[-693,-695],[-968,222],[-790,278],[-838,834],[-387,1085],[-274,584],[-420,862],[-838,528],[-307,-1168],[-48,-611],[-742,-890],[-451,1223],[-710,1057],[-596,-528],[-726,-112],[-581,390],[-467,389],[-484,417],[-629,334],[-790,83],[-500,334],[-677,500],[-597,139],[-806,279],[-613,806],[-967,306],[-791,111],[-1015,0],[-484,-111],[-1016,-167],[-532,723],[-129,1168],[-790,-84],[-678,-778],[-516,417],[-371,500],[-306,974],[339,1279],[-742,778],[-677,-444],[-661,-279],[-758,-1112],[-678,-55],[-241,1140],[-517,1251],[146,918],[645,778],[64,1112],[-451,557],[-742,584],[-581,278],[-2983,111],[16,-1029],[0,-1363],[-64,-1473],[-81,-1140],[-177,-1669],[-161,-1140],[-210,-1112],[-226,-1085],[-242,-1112],[-242,-945],[-258,-974],[-290,-917],[-290,-862],[-307,-862],[-628,-1502],[-968,-2224],[-548,-1224],[-581,-1279],[-354,-723],[-371,-667],[-500,-807],[-549,-751],[-580,-695],[-581,-695],[-1693,-1863],[-548,-556],[-548,-529],[-548,-500],[-565,-473],[-580,-445],[-597,-445],[-597,-417],[-612,-417],[-1210,-751],[-613,-306],[-548,-278],[-548,-250],[-548,-250],[-549,-195],[-887,-278],[-645,-139],[-661,-139],[-645,-111],[-1306,-195],[-3709,-139],[-838,0],[-339,0],[-1483,139],[-2306,250],[-97,0],[-2564,306],[-3306,306],[-1741,139],[-1339,0],[-1306,-55],[-725,-84],[-710,-111],[-677,-111],[-758,-139],[-710,-167],[-709,-195],[-774,-250],[-629,-222],[-855,-418],[-564,-305],[-548,-362],[-549,-389],[-919,-751],[-435,-417],[-548,-528],[-533,-584],[-532,-612],[-532,-612],[-548,-695],[-548,-723],[-1081,-1502],[-516,-750],[-500,-807],[-483,-806],[-468,-862],[-435,-890],[-387,-946],[-355,-973],[-323,-1029],[-306,-1029],[-306,-1056],[-710,-2503],[-1484,834],[-548,362],[-371,500],[-451,974],[-629,1056],[-532,501],[-581,445],[-403,361],[-516,723],[-226,668],[-741,1001],[-839,55],[-645,862],[-984,306],[-499,84],[-758,528],[16,945],[-645,501],[-694,445],[-435,723],[-839,-529],[-838,0],[-564,306],[-500,1168],[-565,28],[-822,-445],[-581,528],[-354,1057],[-694,1279],[-500,306],[-532,362],[-645,639],[-322,334],[-532,778],[-420,835],[-516,834],[-709,1279],[-258,1140],[-565,1335],[-193,1168],[887,723],[677,778],[339,1279],[-371,918],[-532,1140],[-420,695],[-596,807],[-387,1223],[-162,862],[-177,946],[-290,1668],[-242,1057],[-452,1446],[-322,639],[-839,918],[-532,556],[-387,445],[-500,556],[-693,1085],[-613,1168],[-1274,2363],[-645,1085],[-580,1056],[-548,1057],[-549,1112],[-338,862],[-549,1418],[-580,1196],[-597,1001],[-661,1085],[-597,1001],[-919,1946],[-580,1252],[-274,583],[-597,1113],[-419,751],[-549,862],[-532,806],[-403,806],[-548,1113],[-532,1001],[-355,528],[-516,445],[-677,667],[-290,390],[-549,806],[-629,973],[-306,445],[-564,779],[-452,778],[-484,946],[-451,862],[-452,834],[-677,1168],[-516,834],[-548,862],[-613,973],[-548,918],[-645,973],[-274,390],[-662,1001],[-596,973],[-355,584],[-629,1001],[-258,417],[-774,1140],[-322,501],[-549,834],[-500,723],[-467,695],[-565,973],[-580,1168],[-968,1279],[-2644,2253],[-1371,1084],[-822,417],[-887,139]],[[210791,152466],[-145,1585],[-145,1697],[-65,639],[-290,2169],[-113,890],[-64,1474],[-146,862],[-161,1334],[-145,1057],[403,1502],[806,862],[549,584],[612,695],[726,834],[693,445],[581,584],[484,445],[516,528],[451,612],[16,1390],[-32,946],[258,1279],[210,806],[806,167],[629,28],[645,195],[548,333],[145,1140],[-242,1279],[-274,2364],[-274,1613],[-274,1362],[-290,1724],[919,501],[451,167],[565,556],[-81,1474],[-435,1195],[-258,835],[-387,834],[-194,695],[-209,1168],[-129,1084],[145,1335],[451,1085],[258,750],[210,1168],[435,1363],[323,1001],[209,640],[355,889],[597,1140],[548,1029],[307,918],[161,918],[161,1446],[32,917],[0,1224],[-80,806],[0,1224],[0,778],[-81,1224],[-48,834],[-16,945],[16,779],[0,1223],[16,1168],[48,1224],[97,1501],[113,1168],[113,1140],[96,1029],[81,946],[-597,1140],[-6159,5283],[-1242,1057],[-2983,2558],[-1903,1863],[-6015,5868],[-4644,4755],[-758,528],[-645,445],[-726,500],[-1144,779],[-2065,1251],[-2467,1585],[-1499,1029],[-420,1474],[65,1251],[32,612],[113,1446],[81,1029],[161,1891],[161,1640],[161,1446],[49,584],[484,3754],[112,751],[355,1974],[242,1001],[274,1502],[-274,1029],[290,917],[468,1335],[193,473],[500,1307],[258,556],[355,890],[468,1223],[548,1363],[677,1696],[49,111],[677,1752],[645,1557],[97,223],[500,1362],[387,1001],[338,807],[484,1362],[355,862],[741,1947],[565,1390],[484,1224],[693,1807],[468,1112],[580,1530],[290,751],[565,1446],[500,1279],[419,1112],[387,945],[339,807],[709,-278],[468,-501],[403,-445],[1225,-1390],[678,-695],[338,-334],[629,-612],[323,-333],[1806,-1863],[1967,-2114],[2032,-2085],[613,-556],[903,-696],[1177,-862],[742,-472],[1064,-862],[596,-473],[2274,-1891],[226,-222],[2403,-2197],[467,-473],[1516,-1474],[564,-528],[758,-723],[3806,-3671],[564,-500],[387,-362],[2209,-2141],[3806,-3670],[1064,-946],[581,-556],[822,-695],[581,-473],[725,-611],[662,-612],[677,-473],[371,306],[1596,6034],[403,1196],[1097,1863],[16,28],[1242,1891],[322,417],[435,834],[791,2836],[64,250],[790,2920],[677,2670],[113,417],[758,2753],[645,2419],[355,1335],[387,1251],[693,2002],[194,306],[226,834],[806,2976],[64,250],[791,3031],[822,2947],[48,195],[742,2753],[49,195],[709,2669],[419,1418],[291,946],[387,1251],[790,2725],[129,473],[758,2447],[677,2419],[693,2614],[194,695],[935,3393],[-903,973],[-1758,1807],[-596,1446],[-420,918],[-548,806],[274,946],[323,1140],[951,2892],[855,2669],[97,250],[870,2587],[97,305],[710,2281],[758,2558],[274,834],[725,2030]],[[266020,363995],[903,-973],[1790,-1891],[1274,-1418],[597,-584],[774,-751],[613,-695],[451,-473],[435,-445],[581,-584],[726,-751],[645,-778],[854,-862],[613,-640],[355,-417],[548,-528],[806,-807],[645,-695],[355,-389],[661,-695],[436,-390],[822,-862],[629,-611],[774,-1001],[468,-418],[790,-806],[564,-667],[645,-695],[403,-445],[936,-918],[645,-667],[709,-807],[548,-612],[516,-528],[532,-556],[371,-417],[516,-501],[549,-611],[564,-584],[532,-529],[371,-417],[677,-751],[871,-862],[468,-500],[677,-723],[532,-556],[613,-723],[403,-334],[532,-695],[742,-751],[758,-779],[758,-806],[870,-806],[597,-584],[548,-612],[1016,-1112],[581,-640],[484,-528],[499,-473],[629,-723],[855,-862],[387,-445],[806,-667],[3112,-251],[1484,-111],[1274,0],[226,-28],[1048,-111],[919,-167],[564,-27],[516,0],[839,-167],[661,-195],[371,-28],[806,-111],[597,-83],[580,-112],[952,-55],[419,-28],[629,-139],[1016,-83],[774,-84],[629,250],[870,696],[549,556],[806,695],[645,473],[822,-223],[532,-250],[710,-779],[532,-111],[1000,-250],[484,-223],[983,-222],[549,-139],[628,55],[646,0],[419,-139],[613,-361],[354,-223],[742,-444],[613,-362],[435,-139],[613,-334],[967,-389],[678,-334],[387,-584],[1419,-667],[2048,5005],[645,1474],[725,1668],[597,1419],[2064,3781],[81,139],[1048,1724],[516,751],[516,668],[532,667],[532,640],[2371,2669],[387,445],[1080,1335],[516,695],[516,695],[516,751],[468,751],[467,778],[452,807],[419,834],[306,639],[565,1363],[435,1224],[355,1140],[177,695],[226,973],[3580,-2642],[516,-389],[1774,-1474],[693,-528],[1306,-1112],[484,-390],[661,-556],[597,-500],[596,-501],[597,-528],[839,-668],[790,-639],[903,-723],[564,-389],[839,-278],[725,-84],[855,28],[629,195],[919,389],[903,361],[871,751],[387,417],[854,668],[855,500],[1081,417],[951,362],[629,111],[774,0],[1564,-111],[871,28],[1080,222],[1435,222],[565,112],[596,139],[790,278],[952,-111],[726,1028],[725,612],[629,-445],[984,-528],[854,334],[516,83],[597,278],[451,250],[758,723],[565,751],[854,751],[791,556],[645,667],[403,862],[629,640],[596,223],[565,834],[548,361],[597,918],[419,751],[532,945],[306,528],[468,807],[468,806],[290,501],[596,806],[484,918],[436,695],[354,973],[597,1168],[452,1279],[322,1001],[226,556],[709,2364],[339,1307],[451,695],[129,1391],[-48,1890],[-16,418],[-177,1946],[-97,1140],[-49,862],[33,1390],[225,1307],[129,1724],[33,1057],[-49,1613],[-48,1168],[129,1029],[258,1779],[32,1085],[-113,1585],[-64,1057],[-49,1084],[-16,834],[49,1446],[129,1307],[96,1001],[17,1057],[-162,1168],[-290,1140],[161,1335],[226,1668],[210,1029],[225,695],[-96,1112],[-468,1502],[274,1057],[274,1557],[65,1056],[-178,1474],[-306,973],[-339,1391],[-258,1696],[81,1001],[-16,1001],[-226,751],[-129,945],[-113,974],[-145,1001],[-161,1084],[-48,751],[-65,1418],[-161,1001],[-258,1196],[-145,1307],[-129,834],[-145,1418],[-258,1168],[-323,1613],[-597,973],[-451,1530],[597,333],[741,250],[452,195],[613,278],[709,306],[710,223],[370,0],[694,83],[435,167],[1419,445]],[[415470,438991],[903,-9872],[887,-10177],[258,-2781],[548,-5923],[855,-9454],[16,-195],[484,-5200],[0,-28],[210,-4059],[242,-3393],[322,-3059],[274,-3086],[694,-7508],[193,-2086],[210,-1918],[161,-1530],[306,-2030],[194,-1140],[209,-1140],[307,-2808],[854,-7592],[275,-2252],[903,-7286],[403,-3531],[209,-1863],[597,-5172],[742,-6313],[387,-3336],[306,-2642],[806,-6590],[291,-3031],[258,-3337],[16,-111],[129,-1863],[467,-6758],[452,-5950],[597,-8621],[354,-4866],[533,-7313],[290,-4338],[97,-1390],[467,-6201],[49,-612],[387,-5561],[483,-6591],[484,-6562],[371,-5256],[48,-751],[387,-5394],[178,-2558],[64,-1001],[436,-6285],[112,-1390]],[[683651,357043],[-145,-111],[-17044,-14321],[-1177,-1001],[-1935,-1640],[-6112,-5200],[-11207,-9566],[-16,0],[-1097,-945],[-113,-84],[-4902,-3337],[-1435,-1001],[-258,-194],[-2709,-1891],[-2322,-1808],[-16,0],[-5451,-4199],[-11255,-8536],[-6547,-4950],[-17883,-9037],[-1613,-1140],[-2725,-1975],[-5966,-4310],[-8063,-5812],[-209,-166],[-1452,-1029],[-1806,-1307],[-790,-584],[-2483,-1780],[-3886,-1501],[-2145,-807],[-1322,-500],[-4870,-1863],[-6112,-2336],[-5321,-2030],[-7257,-2753],[-3305,-1251],[-1564,-584],[-5677,-1919],[-4160,-1390],[-2628,-918],[-97,-28],[-1484,-528],[-8740,-3865],[-8223,-3615],[-15174,-5840],[-597,-222],[-12175,-4644],[-28509,-11679],[-8499,-3559]],[[415470,438991],[-32,333],[-403,4672],[-387,4115],[-81,974],[-322,3615],[-678,7341],[-467,5200],[-500,5672],[-532,5701],[-500,5506],[-226,2752],[-177,2447],[-371,5339],[-339,4978],[-161,2586],[-145,1974],[-274,3838],[-387,6201],[-258,3781],[-355,5173],[-452,6534],[-387,5784],[-419,6201],[-516,7286],[-355,5283],[-532,7869],[-532,7592],[-403,5839],[-451,6590],[-146,2030],[-354,4950],[-210,1529],[-161,1919]],[[403957,590595],[484,139],[499,501],[726,500],[516,-28],[726,-222],[645,-195],[790,390],[661,139],[758,55],[500,28],[613,139],[693,417],[548,362],[871,723],[387,917],[403,1001],[532,890],[774,834],[371,306],[710,389],[967,418],[694,250],[580,361],[1129,612],[306,195],[903,556],[145,111],[920,501],[661,139],[693,-56],[484,-139],[854,-111],[1307,0],[387,28],[1177,27],[854,56],[629,250],[403,390],[920,917],[548,501],[693,584],[645,667],[565,473],[403,417],[629,612],[854,584],[355,723],[548,1056],[581,501],[693,306],[661,278],[662,167],[790,27],[532,-83],[532,-139],[629,-389],[500,-112],[613,251],[806,778],[516,612],[983,1418],[1016,-1418],[371,-528],[758,-1001],[629,-779],[564,-806],[355,-668],[710,-973],[580,-862],[436,-1057],[387,-862],[822,-1168],[580,-917],[549,-862],[564,-1001],[2129,-3504],[2273,-3698],[645,-28],[1387,28],[1210,0],[1096,27],[3499,28],[0,1001],[-32,2308],[0,3143],[0,55],[-48,8565],[-33,1891],[-16,2975],[-32,9482],[0,3532],[16,3031],[-16,3170],[161,139],[500,445],[2919,2725],[4321,3865],[4290,3837],[3838,3476],[2338,2141],[209,195],[1129,1029],[936,834],[2773,2475],[3515,3198],[3935,3531],[1806,1641],[3403,3059],[2322,2030],[4434,4004],[4580,4226],[629,584],[3934,3615],[1032,918],[210,195],[3773,3281],[4209,3809],[4370,4005],[4773,4393],[5999,5395],[2176,1946],[3887,3476],[4692,4366],[1290,1168],[3322,3003],[4160,3837],[4693,4255],[5063,4616],[4531,4087],[210,195],[3032,2753],[1080,1057],[1274,1084],[1484,1335],[483,445],[420,361],[774,668],[1322,1028],[1629,1307],[2886,2364],[1419,1168],[1355,1112],[112,84],[2081,1724],[2176,1724],[1307,1029],[1274,1028],[1273,1057],[3435,2809],[532,445],[4419,3781],[4499,3615],[4676,3671],[2161,1696],[2580,2002],[4596,3726],[596,473],[49,56],[3805,2975],[4467,3754],[4209,3504],[580,500],[4435,3698],[4982,4144],[3306,2725],[2516,2030],[935,778],[516,417],[3241,2698],[3016,2475],[451,389],[194,139],[2580,2224],[4321,3421],[2903,2391],[2918,2392],[2145,1779],[839,695],[2822,2364],[225,195]],[[683006,820004],[0,-1502],[-64,-4616],[48,-2808],[0,-835],[-16,-6729],[65,-1529],[48,-4171],[97,-4060],[0,-2586],[48,-6201],[-80,-4811],[0,-3031],[32,-1585],[-16,-1084],[16,-1530],[-16,-1056],[32,-835],[48,-1195],[33,-612],[32,-1335],[-16,-1279],[-16,-1084],[-33,-2225],[33,-1557],[-33,-4394],[0,-2141],[16,-3365],[0,-1946],[-16,-528],[-16,-1863],[0,-3004],[32,-7897],[17,-2419],[-49,-1390],[-16,-1502],[32,-4894],[-32,-1947],[-32,-6701],[-16,-2113],[64,-6507],[-32,-1891],[48,-6062],[-16,-3615],[32,-2086],[-16,-194],[-16,-2976],[0,-1167],[-32,-2281],[0,-2169],[0,-2391],[32,-1279],[0,-4338],[0,-2419],[49,-2809],[0,-2391],[0,-1029],[32,-2836],[-16,-1724],[-16,-2642],[32,-1418],[-16,-1780],[-16,-3643],[0,-3225],[48,-1613],[-16,-1029],[64,-1613],[-16,-1557],[16,-4227],[49,-1168],[0,-2586],[-16,-3837],[16,-1251],[-65,-1196],[49,-4755],[16,-2336],[0,-6618],[16,-2836],[0,-1947],[16,-4143],[0,-723],[0,-1112],[16,-1724],[0,-807],[-32,-1084],[-81,-1224],[16,-1140],[16,-1084],[33,-1001],[-16,-1418],[0,-1029],[0,-1057],[16,-1084],[0,-918],[-16,-3893],[32,-1641],[-16,-2057],[0,-1641],[16,-1363],[16,-2002],[16,-1724],[16,-1724],[16,-2920],[-48,-1640],[-65,-2058],[0,-1668],[33,-1279],[0,-1474],[16,-1752],[0,-1696],[32,-3309],[-48,-1836],[0,-1612],[48,-2169],[0,-696],[-16,-3670],[-16,-4811],[48,-1529],[0,-1724],[16,-3559],[16,-779],[-16,-1112],[0,-1752],[-16,-3643],[32,-1084],[-16,-1474],[16,-1446],[-64,-1085],[32,-917],[65,-1196],[-16,-1057],[-65,-1779],[16,-1335],[49,-4088],[0,-1724],[-33,-2447],[-16,-1752],[49,-1946],[-17,-890],[-48,-1668],[97,-1613],[-16,-2197],[-49,-1446],[49,-2002],[16,-1947],[-32,-2141],[16,-1084],[64,-1502],[-32,-1640],[0,-2531],[0,-5533],[-16,-2725],[32,-2531],[0,-3504],[-16,-1668],[32,-3114],[16,-3671],[-16,-667],[-16,-3226],[16,-2141],[0,-1251],[16,-1919],[16,-1224],[-64,-1279],[48,-2197],[16,-1140],[-64,-4504],[0,-1419],[32,-3531],[16,-3365],[-16,-2030],[65,-5978],[32,-2169],[32,-5144],[-48,-2003],[-16,-5978],[-49,-1418],[33,-3560],[16,-2224],[16,-2002],[32,-2586],[-16,-2169],[-32,-3031],[-16,-751],[0,-1363],[16,-3309],[-33,-1974],[65,-5255],[0,-1752],[-16,-3198],[0,-6813],[-16,-1529],[-33,-3003],[-64,-4728],[48,-1307],[-16,-2335],[32,-1613],[0,-1057]],[[683651,357043],[597,306],[4564,2558],[983,556],[1242,779],[1612,1057],[1823,1112],[3724,2141],[2645,1641],[806,445],[661,389],[936,695],[1999,1196],[1468,862],[1886,1112],[65,0],[2354,1307],[3016,1641],[3144,1779],[2999,1780],[678,417],[709,501],[694,639],[4660,2586],[1983,1140],[1193,723],[3645,2253],[2967,1779],[1887,1057],[548,250],[725,334],[2919,1668],[2145,1252],[1112,723],[226,139],[1097,612],[1822,1028],[2370,1446],[2355,1335],[2096,1224],[919,556],[226,139],[290,139],[16,28],[1323,723],[2160,1279],[1532,890],[1145,695],[935,584],[1113,639],[2000,1252],[1902,1195],[2210,1279],[838,501],[1032,584],[855,473],[629,389],[500,361],[1128,696],[1435,778],[694,362],[1129,639],[1257,695],[1339,779],[1822,1085],[1596,917],[1903,1196],[1048,639],[1016,529],[274,167],[3338,1918],[2419,1363],[4983,3114],[548,334],[1500,918],[1306,806],[2274,1446],[1822,1084],[2209,1307],[1451,890],[65,28],[2048,1307],[758,445],[757,445],[2274,1362],[2096,1252],[2500,1557],[1564,973],[1693,1001],[1064,640],[1339,778],[145,84],[1774,945],[209,111],[1113,751],[468,306],[870,556],[2935,1835],[3500,2114],[3886,2391],[983,612],[2564,1557],[1145,695],[694,417],[1064,640],[3402,2058],[2371,1446],[3128,1891],[1080,667],[984,584],[178,111],[2209,1307],[48,28],[1774,1057],[5563,3475],[2999,1863],[3467,2142],[3016,1863],[1741,1056],[1887,1140],[887,557],[113,83],[5241,3198],[3209,1946],[3063,1919],[4999,2920],[3080,1668],[1580,918],[2451,1474],[2548,1529],[1097,640],[371,222],[3902,2391],[903,557],[4338,2530],[1886,1084],[2048,1280],[1419,889],[4032,2447],[1064,640],[3451,2086],[4112,2502]],[[939271,509843],[209,-6507],[113,-2669],[226,-7981],[97,-2725],[129,-6646],[193,-6340],[113,-3670],[49,-4894],[32,-1975],[16,-194],[210,-2670],[32,-3364],[-49,-3087],[-32,-5895],[-16,-3393],[-32,-7146],[-49,-3337],[-32,-8537],[0,-4755],[0,-1390]],[[940480,422668],[-2967,-1863],[-4805,-2670],[-9208,-5450],[-1000,-584],[-6869,-4254],[-1967,-1196],[-3580,-2252],[-6499,-3810],[-10159,-6229],[-7014,-4199],[-1097,-667],[-6337,-3865],[-6756,-4004],[-8112,-5033],[-3773,-2281],[-5144,-3086],[-4096,-2531],[-3451,-2141],[-3886,-2419],[-7579,-4533],[-6756,-4226],[-6466,-3560],[-7870,-4921],[-4402,-2614],[-3048,-1808],[-7304,-4365],[-5983,-3727],[-4789,-2669],[-6063,-3671],[-6596,-4004],[-3596,-2113],[-2967,-1724],[-8836,-5172],[-5483,-3254],[-5628,-2836],[-4354,-2392],[-5966,-3142],[-1661,-973],[-258,-139],[-7982,-4644],[-10111,-5978],[-1580,-946],[-10417,-6034],[-6208,-3782],[-1951,-1195],[-12933,-7703],[-3386,-2113],[-23382,-17519],[-16867,-12652],[-17802,-13347],[-17,0],[-10320,-7592],[-371,-278],[-11239,-8370],[-1758,-1334],[-1903,-1419],[-5337,-3837],[-790,-556],[-4322,-3087],[-10288,-7396],[-5499,-2308],[-516,-223],[-6337,-2363],[-10352,-4338],[-6225,-2392],[-4531,-1752],[-10610,-3392],[-5628,-2030],[-21769,-8787],[-21254,-8704],[-16270,-6507],[-178,-55],[-28832,-11818],[-193,-84]],[[683006,820004],[49,27],[2709,2197],[3789,3170],[726,584],[2112,1696],[3548,2865],[3564,2975],[3854,3226],[3660,3003],[4112,3364],[3677,3003],[1822,1502],[1967,1613],[919,751],[6015,4922],[193,139],[1968,1585],[5321,4310],[5805,4810],[6821,5590],[2081,1724],[7901,6395],[177,139],[532,529],[14820,12151],[967,807],[6837,5617],[2242,1807],[3773,3059],[3193,2614],[387,361],[855,779],[532,584],[1435,1084],[822,640],[645,473],[952,723],[4579,3642],[3048,2531],[1580,1335],[581,472],[1774,1474],[2177,1780],[306,278],[645,584],[871,695],[516,417],[935,723],[1419,1112],[2693,2253],[6111,4977],[1371,1140],[1435,1196],[3870,3226],[1532,1251],[194,167],[4999,4032],[4370,3587],[451,361],[4402,3615],[258,223],[5402,4449],[6160,5033],[6499,5367],[5047,4171],[5241,4338],[4612,3781],[4241,3504],[790,668],[4902,4004],[6466,5311],[774,639],[1145,890],[516,417],[1000,835],[2838,2308],[1999,1668],[678,473],[338,250],[0,-751],[33,-7118],[-17,-2781],[0,-6006],[17,-3449],[0,-3142],[16,-1529],[-49,-5506],[0,-556],[16,-3420],[0,-2086],[-48,-6173],[0,-1668],[16,-1085],[81,-5673],[-32,-2836],[32,-4477],[-16,-3476],[16,-6785],[-49,-1390],[0,-1835],[17,-3059],[32,-3059],[0,-361],[16,-1474],[32,-4477],[-32,-1919],[16,-778],[32,-2753],[903,0],[629,278],[8111,6701],[4612,3810],[3354,2753],[6757,5533],[3838,3115],[1225,1001],[2096,1724],[5032,4171],[1612,1307],[3693,3031],[645,500],[516,445],[1709,1391],[1419,1223],[2693,2169],[3919,3226],[129,83],[3999,3281],[3741,3087],[3418,2781],[1145,917],[3790,3003],[4402,3588],[3386,2780],[3274,2670],[338,278],[1629,1362],[1064,835],[871,723],[1484,1251],[1580,1307],[1516,1279],[1628,1307],[49,56],[4821,3893],[1258,1056],[484,-1251],[322,-1085],[226,-695],[-161,-1585],[-436,-472],[-725,-1029],[-549,-1168],[-290,-695],[-242,-835],[-113,-806],[-241,-1474],[-226,-1140],[-210,-1418],[-64,-1168],[96,-1279],[275,-2225],[161,-1501],[177,-1363],[274,-778],[468,-918],[-65,-890],[-258,-862],[226,-1168],[419,-306],[323,-1001],[-419,-778],[-33,-1641],[65,-1279],[-129,-890],[-145,-890],[-532,-1418],[-403,-973],[-339,-1279],[-306,-1029],[-484,-556],[-758,-28],[-468,-139],[-838,-640],[80,-1195],[242,-751],[323,-1168],[274,-1668],[403,-946],[355,-556],[322,-806],[-661,-1196],[-467,-556],[-613,-1085],[-323,-1056],[-338,-1168],[-549,-1140],[-564,-1141],[-290,-1056],[-49,-1113],[113,-1223],[129,-751],[49,-1196],[-404,-1418],[-580,-806],[-968,139],[-677,-528],[-177,-1057],[532,-1307],[355,-1084],[-65,-1196],[-209,-862],[-162,-1029],[-145,-918],[-48,-917],[145,-1530],[161,-1029],[307,-1251],[354,-695],[371,-1279],[178,-1502],[-146,-1474],[129,-1918],[-16,-1252],[-16,-1529],[65,-1418],[96,-1251],[113,-1113],[145,-1056],[113,-1307],[-129,-1307],[-32,-1029],[-16,-973],[-32,-1891],[0,-918],[-323,-890],[-1209,-1084],[-516,-473],[-371,-528],[-581,-584],[-935,-695],[-2370,-2086],[-2500,-2058],[-4047,-3253],[-3209,-2753],[-5692,-4672],[-2500,-2029],[-4870,-3893],[-3628,-2920],[-4644,-3921],[-3257,-2725],[-3822,-3115],[-3951,-3253],[-2661,-2113],[-1354,-1057],[-306,-640],[-17,-2196],[17,-2364],[-17,-5061],[17,-10706],[-17,-9899],[0,-1112],[33,-2086],[-49,-2530],[-32,-5005],[-16,-3115],[0,-2252],[-32,-5756],[-16,-5145],[-33,-5116],[49,-5228],[-33,-5088],[17,-5562],[-33,-6979],[16,-7536],[-48,-8092],[-32,-11874],[-32,-1696],[-33,-5923],[-16,-7313],[-16,-7480],[-32,-10595],[0,-4032],[0,-7591],[-16,-2781],[0,-10956],[-16,-4087],[-33,-6257],[0,-5395],[0,-1891],[-32,-7396],[0,-862],[-16,-1474],[0,-2225],[-32,-6395],[-33,-5117],[49,-8592],[-16,-5923],[32,-11985],[0,-167],[-65,-2169],[-32,-2614],[-64,-7758],[-16,-1446],[-17,-2725],[-96,-9538],[0,-5227],[32,-6062],[0,-6146],[16,-5172],[32,-11095],[162,-6145],[209,-7814],[81,-5339],[97,-4366],[419,-16128]],[[145612,550525],[0,-667],[16,-1252],[33,-3559],[32,-3643],[48,-4477],[16,-2391],[16,-2030],[33,-4254],[16,-1391],[16,-2085],[32,-2948],[0,-389],[16,-1919],[145,-695],[323,-1752],[258,-1390],[193,-779],[387,-973],[791,-2030],[354,-890],[323,-584],[871,-1529],[774,-1363],[322,-556],[645,-1140],[823,-806],[693,-696],[774,-778],[597,-584],[709,-695],[1419,-1391],[2242,-1752],[903,-611],[516,-334],[870,-500],[742,-473],[532,-334],[758,-500],[2338,-1363],[403,-250],[903,-584],[2951,-1891],[162,-83],[806,-501],[709,-473],[871,-611],[919,-557],[371,-222],[1274,-806],[484,-334],[580,-445],[694,-445],[596,-306],[1016,-556],[323,-195],[629,-417],[564,-361],[484,-334],[500,-306],[580,-334],[1984,-1279],[371,-222],[1290,-779],[645,-361],[693,-417],[387,-251],[1371,-862],[806,-556],[1000,-751],[677,-556],[1338,-1140],[758,-667],[532,-389],[807,-612],[677,-612],[452,-334],[580,-445],[500,-444],[693,-473],[903,-612],[823,-639],[1096,-807],[1194,-890],[1096,-862],[839,-667],[1370,-1168],[968,-806],[951,-779],[1113,-918],[1209,-1112],[597,-473],[564,-472],[887,-779],[823,-723],[757,-723],[823,-640],[564,-611],[677,-695],[629,-529],[952,-723],[790,-639],[2499,-2141],[1371,-1141],[839,-695],[483,-584],[1226,-1112],[613,-640],[645,-806],[967,-1112],[1387,-1641],[1016,-1335],[161,-222],[726,-1001],[612,-723],[645,-779],[952,-1473],[1096,-1558],[1210,-1390],[903,-1224],[1129,-1724],[419,-584],[871,-973],[645,-806],[1080,-1502],[919,-1307],[645,-890],[403,-556],[629,-1112],[484,-779],[1290,-2252],[452,-862],[435,-834],[451,-751],[468,-1029],[564,-834],[420,-779],[709,-1612],[242,-723],[516,-1502],[435,-918],[694,-889],[661,-612],[323,-529],[532,-806],[677,-918],[-1838,-2892],[-210,-333],[-1322,-2225],[-984,-1668],[-1306,-2253],[-129,-667],[-903,-2447],[-710,-1946],[-580,-1446],[-1709,-4032],[354,-418],[549,-556],[564,-611],[968,-1029],[1112,-1307],[677,-723],[742,-834],[532,-584],[371,-362],[597,-779],[500,-500],[467,-528],[516,-529],[791,-778],[532,-612],[790,-890],[806,-1029],[629,-639],[516,-584],[371,-362],[645,-639],[629,-668],[532,-528],[790,-751],[564,-667],[549,-584],[548,-612],[838,-834],[775,-890],[1064,-1029],[725,-806],[339,-334],[726,-778],[967,-1002],[629,-778],[290,-334],[694,-639],[580,-612],[903,-918],[903,-973]],[[210791,152466],[-951,-27],[-791,-251],[-1902,-917],[-1113,-473],[-564,-139],[-484,-84],[-1339,-27],[-967,-56],[-500,28],[-903,-389],[-693,-612],[-516,-862],[-371,-612],[-710,-612],[-403,-695],[-323,-667],[-935,-2114],[-935,-1779],[-1048,1279],[-581,723],[-338,445],[-887,1084],[-307,390],[-1644,1974],[-807,945],[-661,862],[-1790,2225],[-548,723],[-387,584],[-790,1084],[-790,1057],[-1306,1724],[-178,250],[-1903,2392],[-177,250],[-806,1029],[-2338,3170],[-178,250],[-1564,2030],[-484,640],[-467,583],[-581,807],[-274,361],[-1274,1641],[-726,918],[-532,750],[-354,501],[-662,862],[-596,779],[-645,1084],[-613,723],[-839,945],[-596,640],[-274,306],[-855,945],[-758,862],[-403,417],[-597,334],[-629,278],[-967,362],[-1193,472],[-919,334],[-968,334],[-3015,1084],[-629,223],[-532,222],[-1758,751],[-903,417],[-2016,862],[-1177,501],[-871,389],[-774,306],[-532,250],[-726,306],[-693,278],[-984,473],[-838,445],[-806,389],[-936,389],[-580,195],[-871,417],[-887,417],[-564,250],[-452,195],[-758,306],[-2483,1196],[-387,166],[-742,251],[-983,417],[-484,222],[-581,278],[-709,362],[-484,250],[-613,306],[-838,334],[-323,139],[-983,472],[-194,112],[-2338,1029],[-855,389],[-1241,584],[-887,389],[-839,334],[-903,445],[-838,389],[-387,167],[-2854,1251],[-791,334],[-580,222],[-436,195],[-1773,806],[-887,473],[-613,278],[-951,417],[-1065,417],[-822,362],[-822,417],[-1742,751],[-161,83],[-855,389],[-258,140],[-1048,528],[-774,334],[-1097,444],[-677,334],[-613,278],[-403,195],[-887,361],[-903,334],[-967,473],[-468,250],[-935,445],[-1048,445],[-919,389],[-839,334],[-693,306],[-2467,1140],[-355,139],[-1161,473],[-371,166],[-2080,974],[-968,417],[-758,333],[-725,334],[-903,417],[-307,167],[-806,306],[-1064,500],[-1145,501],[-645,306],[-871,250],[-839,250],[242,-1668],[500,-528],[516,-1113],[355,-639],[419,-723],[532,-807],[629,-945],[436,-695],[338,-529],[903,-1084],[532,-695],[484,-612],[565,-834],[580,-1112],[436,-779],[258,-1418],[-81,-918],[-226,-1057],[-177,-945],[-226,-1446],[-113,-834],[-758,250],[-613,223],[-1161,472],[-354,112],[-661,250],[-533,167],[-725,250],[-613,167],[-903,306],[-339,139],[-854,333],[-629,251],[-371,166],[-1613,640],[-564,222],[-1387,501],[-516,195],[-532,222],[-774,278],[-564,278],[-500,278],[-871,417],[-468,167],[-1596,612],[-210,83],[-919,334],[-951,334],[-871,278],[-548,222],[-710,251],[-419,139],[-597,278],[-629,250],[-983,334],[-774,250],[-597,222],[-871,251],[-790,111],[-967,195],[-1145,333],[-758,278],[-839,334],[-532,250],[-742,390],[-483,333],[-629,612],[-419,389],[-597,695],[-355,390],[-871,917],[-903,1001],[-596,584],[-694,835],[-451,778],[-274,556],[-790,1697],[-242,500],[-919,1863],[-162,306],[-870,1891],[-936,2002],[-129,278],[-1064,2225],[-129,278],[-1193,2558],[-403,918],[-371,973],[-452,1084],[-725,-639],[-581,1585],[-1338,4032],[-452,1613],[-161,556],[-371,1140],[-564,1446],[-307,917],[-451,1168],[-339,1029],[-339,1029],[-467,1363],[-516,1362],[-484,1391],[-419,1362],[-500,1502],[-452,1473],[-500,1391],[-274,834],[-338,1029],[-178,528],[-467,1474],[-468,1418],[-177,501],[-403,1168],[-178,528],[-500,1529],[-467,1363],[-920,2697],[-129,389],[-483,1474],[-371,1196],[-355,1112],[-306,973],[-355,1391],[-306,1112],[-387,1279],[-516,1752],[-178,584],[-709,2141],[-162,584],[-790,2725],[-226,695],[-338,1029],[-290,1029],[-355,1224],[-484,1640],[-161,584],[-274,1196],[-307,1529],[-290,1252],[-242,1585],[-226,1140],[-209,1195],[-161,751],[-194,1029],[-355,1557],[-225,1029],[-162,807],[-290,1306],[-339,1307],[-274,974],[-371,1223],[-225,807],[-371,1307],[-436,1445],[-435,1613],[-452,1502],[-645,2280],[-241,973],[-387,1307],[-129,501],[-323,1251],[-129,501],[-322,1168],[-420,1501],[-322,1168],[-274,1001],[-758,2586],[-484,1446],[-629,1752],[-451,1557],[-226,1112],[-226,1196],[-322,1641],[-178,917],[-242,1252],[-113,667],[-193,1112],[-242,1252],[-290,1473],[-629,3059],[-97,445],[-274,1196],[-274,1390],[-226,1224],[-210,1251],[-193,973],[-242,1279],[-242,1391],[-306,1529],[-581,3977],[-161,1140],[-113,806],[-355,2809],[0,55],[-451,3671],[-129,1084],[-194,1474],[-387,3559],[-112,1252],[-65,750],[-322,2531],[-17,195],[-241,2252],[-146,1362],[-48,1224],[0,2085],[0,2058],[32,2280],[33,1919],[32,1168],[64,2225],[65,2029],[16,557],[129,3475],[113,2475],[0,167],[161,2753],[81,1140],[242,1752],[435,3559],[242,1947],[1048,7341],[145,1057],[145,1306],[210,1613],[80,640],[194,1724],[210,1891],[145,1168],[483,3837],[194,1224],[484,3392],[64,445],[274,2197],[226,1223],[129,584],[307,1335],[241,1112],[1145,5061],[81,362],[468,2141],[258,1307],[209,1001],[194,834],[500,1807],[225,779],[323,1168],[193,862],[242,1112],[113,612],[1048,5089],[129,667],[742,4004],[81,417],[919,4755],[129,668],[774,3837],[161,862],[242,1224],[113,750],[193,1446],[162,1419],[209,1390],[178,1529],[225,1252],[129,917],[113,974],[65,945],[64,862],[49,1502],[0,695],[0,4199],[0,333],[16,2169],[0,390],[48,973],[48,806],[194,2920],[65,918],[161,1668],[226,2280],[112,1335],[146,2753],[32,639],[113,1502],[80,945],[178,1335],[290,2392],[193,1585],[146,1112],[161,1001],[193,1168],[97,612],[242,1835],[177,1196],[162,1223],[161,1085],[209,1390],[162,1223],[274,2058],[371,2586],[48,362],[435,-640],[1468,-1696],[129,-84],[984,-389],[225,-55],[2048,-501],[694,-167],[5208,-83],[3677,-56],[2596,-139],[3338,751],[2951,695],[1000,250],[3644,529],[2773,417],[4096,917],[7305,279],[12320,111],[5031,333],[1338,-194],[1984,-334],[3515,-695],[97,28],[2886,250],[11546,1001],[1210,-139],[1693,-195],[2080,251],[2902,-139],[49,-28],[4063,139],[1403,-28],[1564,56],[5483,-501],[2838,-222],[2516,-139],[209,-28],[984,-28],[1919,0],[3241,-111],[2209,-584],[774,-223],[597,-167],[1338,-417],[2645,-528],[2403,306],[661,83],[1338,195]],[[940480,422668],[0,-195],[0,-5255],[-32,-10400],[-48,-4143],[-49,-9705],[0,-3365],[-48,-11484],[-49,-1974],[33,-9260],[0,-1112],[0,-9928],[0,-1612],[-194,-10678],[32,-4978],[-48,-12986],[16,-4115],[-64,-8982],[-16,-4226],[16,-3643],[-81,-12458],[-32,-2864],[-32,-11373],[-17,-14043],[-32,-6951],[0,-529],[16,-4338],[-16,-2280],[-48,-7591],[-16,-9204],[-49,-8565],[-16,-6701],[0,-6174],[-16,-6701],[-16,-5923],[0,-4977],[-16,-3615],[0,-5284],[-16,-5283],[-16,-7063],[16,-2280],[0,-1029],[-16,-946],[-17,-1640],[-16,-4088],[-16,-6229],[-32,-8342],[-32,-8815],[-33,-2753],[-48,-2335],[16,-3003],[0,-3671],[0,-2364],[-16,-778],[48,-5756],[-48,-5339],[-97,-8370],[0,-1613],[0,-306],[-16,-3253],[-16,-3421],[0,-111],[-32,-1696],[0,-1112],[0,-779],[32,-3949],[-16,-1807],[-226,-2836],[-2531,-584],[-8708,-2002],[-1903,-390],[-1709,-361],[-339,-84],[-1919,-445],[-11529,-2780],[-2452,-501],[-80,0],[-3919,-778],[-6353,-1279],[-2870,-640],[-2451,-501],[-2193,-528],[-2871,-751],[-3773,-973],[-984,-250],[-8191,-2086],[-1290,-306],[-2919,-723],[-8982,-2224],[-3741,-2253],[-3080,-417],[-6515,-973],[-2096,-306],[-2757,-361],[-4209,-695],[-32,-28],[-5999,-1391],[-6321,-1446],[-1226,-222],[-1064,-222],[-322,-84],[-726,-250],[-1355,-278],[-2435,-584],[-161,0],[-387,-56],[-1500,-194],[-1338,-334],[-1758,-362],[-338,-55],[-935,-139],[-678,-84],[-2032,-472],[-886,-195],[-1355,-306],[-1596,-334],[-2451,-472],[-1161,-167],[-903,-195],[-1758,-278],[-565,-139],[-870,-222],[-1032,-167],[-307,-56],[-774,-167],[-403,-83],[-726,-139],[-661,-111],[-612,-139],[-758,-112],[-742,-194],[-419,-56],[-645,-111],[-903,-195],[-597,-111],[-968,-195],[-822,-194],[-451,-139],[-645,-112],[-871,-166],[-565,-84],[-499,-83],[-565,-56],[-1887,-306],[-822,-194],[-693,-251],[-1161,-250],[-597,-56],[-710,-166],[-387,-28],[-628,-56],[-1645,-306],[-2258,-361],[-2596,-417],[-2806,-473],[-3064,-556],[-1580,-250],[-838,-139],[-3000,-529],[-3805,-667],[-2064,-334],[-452,-83],[-2225,-390],[-1387,-278],[-1983,-306],[-2177,-444],[-2484,-362],[-16,-417],[-693,28],[-548,-445],[-791,-306],[-1918,-1029],[-1661,-945],[-1581,-835],[-1467,-806],[-1580,-862],[-1548,-834],[-1355,-723],[-1371,-807],[-3063,-1640],[-1113,-584],[-1500,-834],[-451,-195],[-710,-278],[-3999,-2280],[-13013,-7369],[-3048,-1669],[-8095,-4727],[-2048,-1251],[-1225,-751],[-4273,-2391],[-7434,-4394],[-629,-167],[-484,-139],[-1274,-111],[-1193,-111],[-742,-139],[-1128,-167],[-1661,83],[-839,-27],[-3241,-195],[-6853,-417],[-3983,-223],[-694,-27],[-1387,-84],[-2031,-111],[-452,-28],[-11965,-945],[-161,-28],[-9127,-334],[-5031,-194],[-226,0],[-1290,-56],[-468,-28],[-838,-139],[-1629,-111],[-4902,-362],[-5402,-139],[-6773,-333],[-5821,-278],[-258,-28],[-10594,-695],[-3241,-56],[-823,-56],[-629,0],[-806,-27],[-322,-28],[-936,-56],[-3160,-222],[-790,0],[-1726,-84],[-1000,-55],[-1177,-28],[-177,-28],[-194,0],[210,501],[468,1140],[403,1028],[48,1141],[-81,723],[-177,1140],[-113,1029],[-97,1056],[-80,1112],[-65,1252],[-64,1251],[97,1752],[177,1335],[177,890],[339,1362],[274,1335],[258,945],[564,1307],[371,1029],[49,1085],[48,889],[194,1113],[580,1390],[436,1029],[32,890],[-16,1223],[80,973],[129,1613],[145,1502],[210,1640],[81,807],[32,1223],[48,1085],[33,1501],[-17,1224],[-96,584],[-2177,-56],[-1016,-55],[-194,-28],[-2048,-56],[-1580,-55],[-129,-28],[-2403,-195],[-5627,-194],[-3935,-223],[-6644,-334],[-2789,-139],[-3290,-166],[-1693,-112],[-2080,-194],[-2935,-84],[-4241,167],[-1064,111],[-49,0],[-999,84],[-291,28],[-3047,166],[-387,28],[-2903,195],[-613,28],[-1612,166],[-2258,223],[-4757,278],[-935,56],[-871,55],[-2531,139],[-4628,390],[-2081,166],[-2789,223],[-258,28],[-2161,111],[-710,55],[-483,84],[-565,195],[-822,723],[-500,528],[-516,751],[-226,1056],[-16,1585],[48,3671],[81,2697],[81,2976],[64,2613],[-838,28],[-2242,167],[-3451,223],[-6272,472],[-1484,111],[-2983,223],[-3306,222],[-484,56],[-1951,167],[-1209,1084],[32,5868],[65,1084],[64,4227],[65,2085],[129,3810],[64,3976],[65,3699],[-16,806],[-178,1112],[-339,1446],[-322,862],[-339,751],[-661,1029],[-693,862],[-823,779],[-645,639],[-1128,779],[-3645,3170],[-580,528],[-5854,5200],[-419,362],[-1000,889],[-3160,2837],[-1355,-56],[-403,-28],[-774,-83],[177,-3142],[-1354,-195],[-5999,-584],[-226,-28]],[[145612,550525],[1693,-111],[968,167],[1177,-56],[1290,-83],[1000,-56],[2677,111],[1128,167],[1548,-83],[629,-28],[1032,55],[1323,112],[628,27],[3226,251],[1096,-195],[919,-167],[1403,-250],[1210,-139],[1999,-278],[435,-56],[1097,-139],[903,-111],[1322,-195],[3532,223],[371,28],[2580,750],[790,306],[1758,612],[1161,389],[1580,556],[887,501],[1725,556],[1387,417],[532,779],[306,445],[2032,1307],[1710,1029],[1564,862],[2402,194],[645,-194],[903,-306],[726,-84],[1338,-1474],[1742,-2224],[1613,-1557],[919,-1335],[419,-612],[984,-1251],[1354,-1224],[371,-333],[774,-695],[1032,-640],[968,-528],[709,-306],[822,-306],[1000,-306],[194,-56],[1903,-750],[935,-84],[2854,-278],[1258,-667],[693,-84],[1322,-194],[1984,-417],[726,-112],[1451,0],[854,0],[258,28],[1000,-111],[645,28],[839,139],[387,83],[1032,-167],[935,195],[1242,83],[1645,334],[1209,84],[355,27],[693,251],[968,361],[693,334],[903,556],[194,139],[1338,389],[661,167],[855,223],[532,139],[871,333],[564,223],[452,167],[919,305],[693,223],[564,167],[1145,389],[645,28],[758,361],[452,195],[1000,334],[935,472],[822,390],[968,445],[516,500],[758,695],[1322,584],[419,84],[1597,278],[274,139],[1193,723],[1274,834],[3015,2836],[420,445],[2612,2809],[1580,1279],[677,556],[1049,1168],[645,751],[1112,1279],[420,473],[1435,1668],[3338,4088],[1596,1918],[6015,8203],[2628,3588],[3790,5172],[274,417],[887,1223],[209,334],[694,862],[725,1251],[613,1363],[839,1168],[677,-2503],[145,-528],[968,-2725],[1532,-4644],[951,-2169],[81,-167],[757,-1529],[968,-1391],[177,-278],[2516,-3031],[1419,-1279],[855,-556],[1032,-667],[1886,-1724],[307,-306],[870,-807],[2081,-1863],[2128,-1807],[2580,-2114],[1097,-723],[2838,-1334],[1645,-779],[1322,-639],[3370,-1585],[532,-139],[49,83],[1467,2503],[1516,-529],[1064,-612],[1274,-834],[774,-472],[548,-306],[2290,-1057],[355,-556],[2757,-1752],[1387,-1251],[1048,-445],[887,-362],[693,-723],[791,-1390],[693,-1418],[822,-1113],[726,-278],[822,-667],[533,-361],[548,-668],[709,-612],[742,-1334],[435,-1168],[226,-1001],[210,-1530],[16,-1473],[564,166],[597,278],[951,167],[920,0],[-113,1446],[-194,1391],[-161,917],[-355,807],[-113,1195],[532,862],[662,779],[-33,1224],[242,862],[-48,1529],[-371,528],[-452,974],[-225,806],[-194,1251],[-113,1168],[-935,362],[-629,306],[-32,1390],[64,1057],[516,945],[516,-56],[645,139],[275,890],[596,84],[855,250],[306,1029],[484,751],[613,611],[629,501],[774,473],[790,444],[548,-111],[629,-278],[613,-361],[790,-779],[806,-1001],[645,-306],[403,-556],[549,-751],[499,-250],[629,-445],[903,250],[194,807],[226,1223],[129,723],[-65,1113],[97,1696],[387,695],[516,1168],[306,612],[371,750],[661,640],[581,945],[903,390],[580,55],[710,28],[758,84],[419,0],[951,139],[903,-251],[613,167],[903,111],[532,-111],[726,-250],[532,-195],[839,-139],[709,195],[500,194],[806,279],[678,194],[919,167],[967,-222],[516,-28],[565,-139],[629,-28],[580,0],[726,28],[532,55],[645,251],[467,305],[516,696],[533,1307],[596,1168],[581,889],[387,473],[564,612],[403,473],[549,778],[419,389],[790,779],[871,890],[580,806],[549,890],[225,362],[629,806],[436,640],[532,778],[790,445],[371,723],[612,612],[436,473],[580,667],[420,473],[661,83]]],"bbox":[100.33163,13.91625,100.95177,14.27587],"transform":{"scale":[6.201406201406122e-7,3.5962035962035927e-7],"translate":[100.33163,13.91625]}}