{"type":"Topology","objects":{"districts":{"type":"GeometryCollection","geometries":[{"type":"Polygon","arcs":[[0,1,2,3,4]],"properties":{"CODE":"1501","PARENT":"15","NAME_TH":"เมืองอ่างทอง","NAME_EN":"Mueang Ang Thong","NAME_CN":"Mueang Ang Thong","COLOR_IDX":3}},{"type":"Polygon","arcs":[[-5,5,6]],"properties":{"CODE":"1502","PARENT":"15","NAME_TH":"ไชโย","NAME_EN":"Chaiyo","NAME_CN":"Chaiyo","COLOR_IDX":2}},{"type":"Polygon","arcs":[[7,8,-2]],"properties":{"CODE":"1503","PARENT":"15","NAME_TH":"ป่าโมก","NAME_EN":"Pa Mok","NAME_CN":"Pa Mok","COLOR_IDX":1}},{"type":"Polygon","arcs":[[-6,-4,9,10,11,12,13]],"properties":{"CODE":"1504","PARENT":"15","NAME_TH":"โพธิ์ทอง","NAME_EN":"Pho Thong","NAME_CN":"Pho Thong","COLOR_IDX":1}},{"type":"Polygon","arcs":[[-13,14]],"properties":{"CODE":"1505","PARENT":"15","NAME_TH":"แสวงหา","NAME_EN":"Sawaeng Ha","NAME_CN":"Sawaeng Ha","COLOR_IDX":0}},{"type":"Polygon","arcs":[[-3,-9,15,16,-10]],"properties":{"CODE":"1506","PARENT":"15","NAME_TH":"วิเศษชัยชาญ","NAME_EN":"Wiset Chai Chan","NAME_CN":"Wiset Chai Chan","COLOR_IDX":0}},{"type":"Polygon","arcs":[[-17,17,-11]],"properties":{"CODE":"1507","PARENT":"15","NAME_TH":"สามโก้","NAME_EN":"Samko","NAME_CN":"Samko","COLOR_IDX":3}}]}},"arcs":[[[974589,491704],[-441,-633],[-2052,-1458],[-2273,-936],[-1168,-467],[-1168,-523],[-3156,-1816],[-4230,-2696],[-3693,-2477],[-3030,-2393],[-978,-771],[-1516,-1320],[-1420,-1624],[-442,-578],[-600,-1238],[-284,-1100],[-158,-1238],[-126,-606],[-31,-1183],[126,-1596],[0,-1430],[-126,-1596],[31,-1734],[-536,-797],[-695,-798],[-473,-1459],[1073,-357],[915,-275],[758,-1018],[316,-743],[-127,-1238],[1326,-1321],[63,-1623],[-284,-1156],[-537,-1403],[221,-1101],[-410,-1128],[-631,-550],[-1452,-1183],[-379,-1073],[-221,-1514],[253,-963],[-632,-1403],[-473,-523],[-442,-1238],[-32,-825],[474,-1458],[789,-936],[757,-908],[505,-1623],[127,-1651],[94,-660],[348,-2642],[978,-330],[1105,-660],[821,-1073],[221,-936],[126,-1183],[473,-990],[316,-853],[442,-1293],[631,-1486],[537,-908],[568,-991],[1262,-1238],[979,-798],[-979,-1513],[-1767,358],[-1168,-248],[-1357,-303],[-1010,-963],[-537,-963],[-221,-770],[-316,-990],[-63,-1019],[-505,-1348],[32,-1320],[-126,-1156],[-190,-990],[-63,-1404],[-410,-1375],[-190,-1486],[-94,-1156],[0,-798],[157,-1100],[221,-1018],[-631,-1624],[-95,-1128],[316,-880],[442,-1486],[347,-990],[600,-1321],[821,-1321],[978,-1706],[221,-1210],[-852,-1238],[-947,-633],[-1168,-1211],[-1010,-1183],[-505,-578],[-852,-1155],[-474,-688],[-189,-1321],[158,-1155],[94,-936],[0,-963],[-126,-1210],[-63,-1239],[-95,-1843],[-126,-1073],[-126,-1211],[-348,-1073],[-789,-770],[-663,-495],[-1546,-1046],[-1200,-715],[-852,-523],[-1483,-523],[-884,-137],[-1137,-221],[-757,-412],[-1105,-963],[-600,-716],[-1041,-1348],[-789,-880],[-379,-633],[-695,-853],[-1294,-523],[-1609,-165],[-1042,0],[-1610,138],[-1231,302],[-1136,276],[-1484,27],[-1262,83],[-1295,0],[-1420,-166],[-947,-55],[-1389,55],[-1862,-385],[-1136,-660],[-1610,-908],[-3125,-1926],[-1357,-1211],[-348,-908],[95,-1348],[253,-825],[663,-1376],[978,-1733],[789,-1156],[726,-1210],[947,-798],[1231,-303],[1042,-193],[1546,-137],[1358,-165],[1483,-220],[1294,-248],[1105,-220],[1862,220],[1263,-248],[852,-1403],[-252,-1155],[852,-908],[379,-771],[410,-853],[505,-1045],[126,-1376],[379,-825],[852,-1156],[1295,-303],[1262,-82],[1073,-28],[1010,-880],[663,-1458],[411,-826],[726,-1266],[757,-990],[852,-798],[632,-605],[947,-798],[442,-1348],[315,-1211],[789,-1623],[632,-578],[378,-1018],[348,-798],[1262,-605],[1010,-551],[947,-1238],[158,-963],[221,-935],[379,-743],[1389,-248],[1452,-165],[1010,-302],[1515,-688],[221,-1651],[-789,-1513],[-505,-881],[-221,-908],[347,-1431],[347,-1018],[284,-853],[284,-963],[-379,-1183],[-1420,-825],[-1042,-358],[-1515,-605],[-694,-770],[252,-1073],[1579,-771],[946,-247],[1074,-358],[789,-605],[442,-1349],[31,-908],[-284,-1073],[-694,-798],[-1042,-605],[-852,-275],[-1263,-1348],[663,-1211],[758,-880],[947,-633],[1231,-633],[947,-715],[883,-1046],[884,-550],[1358,82],[536,-1485],[-536,-633],[-569,-1073],[-473,-936],[-410,-908],[-442,-1238],[-253,-1541],[-158,-1100],[32,-853],[-379,-1293],[-442,-1624],[126,-1100],[632,-1541],[347,-770],[442,-1101],[284,-1018],[126,-1018],[-63,-1651],[-221,-715],[-568,-908],[-189,-1101],[315,-908]],[[950032,256816],[-3914,-522],[-1326,-165],[-1483,-83],[-1705,220],[-1515,385],[-1862,358],[-1263,55],[-1073,-275],[-1231,-633],[-600,-605],[-1357,-468],[-789,-963],[-505,-1623],[-316,-1404],[-662,-770],[-1358,-385],[-1546,-936],[-1736,-275],[-979,633],[-757,798],[-1642,743],[-1326,385],[-789,633],[-1136,963],[-1199,-193],[-758,-275],[-758,-908],[-126,-1458],[-410,-688],[-631,-908],[-695,-1100],[-884,-193],[-1231,-220],[-1262,-248],[-979,-550],[-1105,-138],[-1010,-1073],[-1104,-165],[-1010,-82],[-979,577],[-1357,0],[-821,331],[-1073,715],[-789,330],[-1263,330],[-1010,110],[-1515,1073],[473,991],[316,660],[410,1266],[253,1018],[95,770],[-127,1734],[-221,1210],[-220,1018],[-537,1459],[-505,935],[-505,963],[-600,1101],[-568,1238],[-631,1320],[-569,1349],[-883,1568],[-1736,715],[-1326,303],[-1010,165],[-1705,-193],[-1199,-852],[-695,-1156],[-378,-688],[-537,-1018],[-536,-1128],[-853,-1541],[-820,-1458],[-600,-1156],[-916,-853],[-1641,-357],[-1262,55],[-979,495],[-1547,963],[-820,385],[-1200,550],[-757,358],[-1200,550],[-1010,468],[-1515,716],[-2494,1155],[663,-2063],[1168,-2174],[1042,-1128],[915,-715],[-1957,-1541],[-11489,-8942],[-2526,1403],[-1704,-1651],[-1231,-1376],[-915,-1018],[-505,-743],[-379,-880],[-631,-1293],[-2273,-4072],[-884,-1569],[-852,-1293],[-1168,-1788],[-1010,-1486],[-537,-1211],[537,-907],[505,-1294],[252,-1403],[127,-660],[31,-1128],[-189,-1459],[-284,-935],[-442,-963],[-947,-1541],[-789,-743],[-379,-1403],[-15277,385],[-1831,55],[-5745,165],[-5113,358],[-2746,385],[-1358,193],[-1388,165],[-2620,468],[-1800,385],[-1609,440],[-1831,578],[-1200,385],[-978,330],[-1925,413],[-2305,605],[-2367,853],[-2872,1101],[-2620,633],[-2178,467],[-2904,606],[-3157,798],[-2998,825],[-3283,633],[-2494,550],[-947,330],[-1799,358],[-1452,303],[-1830,330],[-1042,247],[-947,166],[-1389,137],[-1862,138],[-1989,192],[-1041,220],[-1137,578],[-1546,358],[-1358,27],[-1767,-55],[-2873,-82],[-1673,-303],[-1104,-110],[-1579,0],[-1641,468],[-663,770],[-473,743],[-1073,1348],[-758,688],[-474,1101],[285,1375],[662,853],[758,413],[505,936],[95,770],[-632,963],[348,1706],[-32,1210],[-95,1101],[64,1321],[31,963],[347,1348],[632,908],[789,1210],[947,1156],[568,1101],[-190,1733],[-1830,825],[-6313,1926],[-3094,1376],[-7733,3082],[-1799,880],[-1736,495],[-1263,248],[-1136,110],[-1042,55],[-1010,-27],[-1105,-55],[-1073,0],[-1988,-83],[-1736,-110],[-1074,-55],[-1578,110],[-915,110],[-1894,165],[-1578,83],[-1515,467],[-947,633],[-1452,1101],[-1673,880],[-1642,798],[-852,385],[95,1514],[-663,963],[-1231,192],[-1389,495],[-1326,441],[-1704,688],[-1515,275],[-1326,577],[-884,138],[-1357,138],[-1515,330],[-1831,605],[-1389,468],[-1799,715],[-1515,661],[-1168,357]],[[672358,278002],[32,2394],[63,2641],[-32,991],[-31,1348],[0,1073],[-1358,-358],[-1672,-522],[-979,-606],[-884,-412],[-1199,-55],[-1452,-1046],[-1105,-468],[-915,413],[-947,990],[-789,688],[-1516,551],[-915,-55],[-1168,-138],[-1799,-193],[-915,-137],[-1800,-138],[-1167,83],[-1800,-55],[-978,-468],[-1073,193],[-1547,798],[-947,440],[-1199,743],[-1421,935],[-1483,688],[-979,1018],[537,991],[189,990],[158,1183],[63,1018],[-63,1101],[-631,1596],[-758,1100],[-726,770],[-694,936],[-916,1211],[-662,935],[-537,825],[-821,936],[-884,1101],[-694,963],[-473,577],[-853,743],[-1389,826],[-852,550],[-1168,825],[-1325,963],[-1358,1101],[-757,605],[-821,661],[-1136,880],[-979,688],[-947,605],[-789,468],[-1168,523],[-947,550],[-378,1596],[221,963],[220,1210],[-126,1128],[-379,963],[-441,1541],[31,963],[126,1266],[348,2201],[378,1431],[253,908],[410,1155],[505,1101],[411,1018],[315,1100],[284,1128],[127,743],[-64,1211],[-126,798],[-252,1348],[31,936],[253,1513],[-158,1100],[-221,826],[-410,1073],[189,825],[379,1459],[31,1458],[-599,1348],[-726,825],[-1105,1404],[-915,935],[-1011,743],[-599,1128],[0,1596],[663,880],[631,523],[757,1101],[505,1210],[537,688],[663,1266],[95,908],[-1137,1403],[-1136,0],[-1168,275],[-884,1293],[695,1238],[536,771],[-158,1430],[1042,936],[1010,-138],[1389,-275],[1831,-192],[884,-110],[1325,27],[1137,303],[883,550],[1137,358],[1168,440],[1010,440],[852,936],[568,688],[821,1128],[915,1375],[726,1018],[789,963],[916,1073],[378,551],[600,1183],[663,1458],[505,1046],[631,1320],[348,798],[505,826],[789,1348],[568,825],[852,1211],[379,1155],[158,826],[442,1128],[315,880],[411,1128],[252,1018],[189,1018],[253,1349],[442,1100],[379,963],[189,1376],[410,1541],[663,990],[505,853],[663,1018],[663,1403],[253,1018],[189,1211],[379,1018],[884,1046],[946,577],[1579,523],[1546,468],[979,247],[1294,936],[126,1623],[-63,688],[-189,1128],[-95,1431],[600,1266],[1420,1210],[1389,1073],[442,743],[221,1018],[221,1321],[95,880],[441,1156],[600,1155],[600,1018],[600,771],[536,743],[568,880],[663,1046],[758,1458],[568,1321],[-253,1403],[-410,1100],[-410,908],[-1073,936],[-1736,605],[-1042,440],[-916,110],[-1357,-27],[-1199,110],[-1831,330],[-1042,275],[-1231,578],[-568,633],[-600,853],[-915,1073],[-694,825],[-537,1046],[-379,1100],[-315,743],[-411,1018],[-1073,1431]],[[646696,451781],[-473,770],[-979,1321],[-726,1211],[-915,1486],[-632,907],[-662,963],[-663,1101],[-442,688],[-568,1266],[-916,852],[-1389,1129],[-852,632],[-947,633],[-378,1513],[31,1404],[316,1706],[379,1238],[347,935],[694,1541],[568,1183],[442,826],[379,880],[1136,2174],[916,1733],[820,1623],[789,1541],[632,1348],[726,1403],[505,1074],[473,907],[663,1184],[947,1871],[631,1265],[442,798],[916,1789],[947,1926],[726,1513],[473,908],[663,1265],[884,1596],[442,908],[789,1568],[820,1596],[726,1321],[726,1513],[853,1486],[599,1101],[853,1595],[852,1486],[536,908],[6345,2146],[2651,1266],[3252,1210],[3030,1239],[947,220],[1452,-55],[1988,-83],[1263,-110],[1673,-193],[1168,-165],[1262,-247],[1105,-83],[1641,-688],[916,-1018],[1894,0],[1420,-82],[1831,27],[1389,0],[1452,0],[1988,-110],[1452,-137],[1136,55],[947,302],[1294,468],[1042,138],[1547,165],[1168,578],[852,440],[1231,330],[1452,275],[852,413],[1263,495],[1420,330],[1263,330],[1073,276],[1578,908],[1042,412],[915,275],[726,1541],[1926,138],[1483,110],[1957,330],[852,-110],[947,-743],[379,-1073],[1641,-715],[2336,-358],[663,-110],[2967,-413],[1926,-275],[1799,-220],[600,-83],[14614,-4292],[3977,-1623]],[[758782,516797],[1926,1073],[1609,798],[1042,468],[1136,495],[1389,605],[2273,798],[126,55],[2462,963],[1894,908],[2557,1073],[1199,660],[1010,881],[632,275],[1609,578],[1736,302],[1074,221],[1420,687],[1831,1018],[1136,716],[1926,825],[1388,716],[1579,852],[789,-220],[1325,-467],[1231,-28],[1010,28],[1263,-28],[3977,330],[2778,220],[726,-495],[1073,-880],[1294,0],[1389,-110],[1010,-165],[1294,-83],[1042,0],[3472,28],[3598,110],[1200,55],[2052,-83],[1609,-137],[1957,-56],[1326,-55],[2210,-27],[1862,-248],[2083,-247],[3378,-358],[1262,-220],[1042,-220],[1420,-385],[884,-248],[1073,-303],[916,-302],[2746,-743],[3125,-798],[1925,-413],[1294,-358],[1926,-247],[1389,-303],[1073,-192],[1736,-358],[1041,-83],[537,-2724],[1578,-302],[1831,-193],[1231,28],[979,-413],[1041,-770],[884,-358],[1420,605],[1042,771],[1925,495],[1452,440],[1516,771],[1231,55],[1073,1018],[63,853],[726,1073],[1041,522],[1673,-412],[1515,-28],[1579,303],[1704,330],[1231,220],[1673,55],[916,-660],[946,-853],[1042,-661],[1421,-165],[915,138],[1105,138],[1231,-413],[473,-688],[1484,-605],[852,247],[1168,220],[1546,-990],[1011,-716],[694,-742],[1168,-303],[1262,-743],[348,-770],[347,-1293],[316,-963],[599,-1294],[979,-1100],[1041,-1183],[1326,-1183],[1641,-716],[1168,-330],[1705,-193],[1641,0],[1705,193],[2872,193],[1831,-55],[7386,1540],[5461,853],[3914,771],[1294,-578],[1010,-1046],[568,-605],[726,-770],[631,-716],[884,-908],[695,-715],[662,-715],[1105,-1156],[852,-908],[916,-990],[852,-716],[1484,-1045],[662,-1046],[1231,-1100],[1168,-441],[1736,-522],[1042,-221],[1042,-137],[1483,-220],[1957,55],[1105,-55],[1641,-413],[1200,-495],[726,-358],[1578,-688],[1105,-522],[1294,-908],[852,-771],[916,-1018],[789,-853],[568,-578],[820,-825]],[[758782,516797],[537,1210],[284,1074],[-32,687],[-473,1046],[-1073,1045],[-663,826],[-442,715],[-695,1183],[-473,798],[-600,963],[-884,1569],[-315,1155],[0,743],[31,1733],[63,1349],[127,963],[315,1018],[600,1623],[789,1211],[726,440],[1389,605],[1168,605],[757,523],[979,578],[2083,1376],[1231,577],[1831,-137],[2872,-358],[884,-165],[1073,-220],[1200,-303],[1483,-467],[1610,-578],[1642,-578],[662,-248],[1610,110],[789,826],[884,1513],[221,743],[347,1183],[411,1734],[252,1183],[-63,908],[-726,1375],[-537,908],[-662,1128],[-505,1431],[-95,1266],[95,908],[94,1018],[126,1100],[64,1238],[94,1349],[-31,1183],[0,1183],[63,633],[221,1155],[600,826],[1231,632],[1231,743],[789,1211],[-63,963],[0,880],[63,1734],[-63,1128],[94,1073],[190,963],[221,1321],[63,742],[-32,1101],[947,1431],[979,688],[1641,522],[1326,743],[-32,1128],[-126,1183],[-253,1184],[-221,1073],[-347,770],[-473,853],[-600,660],[-347,1018],[-726,1514],[-537,990],[-1546,963],[-1579,-413],[-1010,-330],[-1704,-550],[-1042,-275],[-1105,-220],[-978,770],[-221,1018],[0,825],[126,1018],[63,771],[253,1293],[221,798],[252,880],[600,1926],[347,1073],[221,881],[63,1266],[-221,963],[316,1375],[-1200,991],[-1451,522],[-2178,386],[-1231,192],[-1737,138],[-883,0],[-1515,-83],[-979,-55],[-1357,138],[-1578,192],[-1736,166],[-663,632],[-789,881],[-853,1348],[-757,715],[-1231,991],[126,1816],[410,908],[1137,1293],[789,605],[1483,-55],[1263,138],[1231,798],[852,688],[884,852],[631,523],[1137,963],[820,688],[979,881],[1294,1210],[473,853],[632,1293],[315,963],[-1168,1101],[-1957,82],[-1294,0],[-1641,-220],[-1105,-385],[-1262,-248],[-853,-165],[-1452,-192],[-1578,440],[-663,963],[-599,825],[-537,881],[-600,1045],[-694,1431],[-758,936],[-820,660],[-1295,605],[-1167,138],[-1610,55],[-1294,82],[-1452,83],[-884,193],[-1263,715],[-1010,660],[-884,523],[-1389,1156],[-757,825],[-884,1046],[-473,742],[-474,1018],[-126,1046],[158,1321],[315,908],[947,1073],[632,853],[1231,55],[1420,137],[1357,908],[284,1541],[-1262,550],[-1452,688],[-979,578],[-1104,798],[-979,660],[726,1101],[442,715],[758,1211],[568,1128],[599,1100],[569,991],[883,1265],[411,661],[-1137,1265],[-599,1101],[663,963],[536,880],[1042,826],[1136,110],[1610,880],[1799,-495],[600,1486],[-505,1018],[252,1706],[1168,1128],[1421,440],[1862,138],[1389,-413],[884,-605],[1104,-798],[853,-248],[1609,193],[821,688],[663,1073],[316,660],[-253,1266],[-505,495],[-537,1321],[-631,770],[-757,1238],[-537,688],[-1200,495],[-347,1403],[158,881],[663,1541],[1073,825],[884,605],[1199,798],[1074,1431],[631,743],[978,660],[695,853],[442,1403],[473,908],[411,936],[220,1541],[-63,1155],[-94,743],[-221,991],[-726,1293],[-347,1073],[-379,770],[-789,991],[-95,688],[-694,1183],[-506,825],[-599,1513],[505,1156],[1231,1238],[726,908],[315,743],[158,1183],[-126,1183],[-32,1046],[190,1513],[-442,1100],[-1168,523],[-789,495],[-884,606],[-1483,853],[-1295,908],[-1073,853],[-663,632],[-1199,1184],[-1231,1045],[-600,991],[-505,853],[-410,825],[-821,1321],[-473,825],[-600,1156],[-758,853],[-1641,467],[-1263,-165],[-947,-302],[-1420,220],[-789,770],[-474,826],[-536,1183],[-158,1183],[95,935],[347,826],[1263,715],[978,275],[1357,330],[1263,798],[316,1046],[-32,715],[-253,1128],[-284,1156],[-189,880],[-316,1128],[-378,798],[-1074,991],[-1957,385],[-1262,-413],[-1515,-110],[-1768,385],[-1010,413],[-1042,523],[-1483,743],[-1736,688],[-1137,1375],[-568,1293],[-726,1404],[-663,990],[-378,633],[-284,1211],[-95,1623],[-63,770],[-95,1679],[-95,1128],[-221,1706],[-63,798],[127,1210],[441,1458],[-252,1651],[-979,275],[95,1569],[190,633],[284,1375],[252,1651],[-757,1431],[-474,605],[-884,1018],[-663,771],[-1167,1018],[-1137,1155],[-600,660],[-694,936],[-568,1376],[-95,935],[-94,1348],[157,1211],[95,1045],[-32,991],[-220,1348],[-190,963],[-189,1101],[-221,1348],[-1200,358],[-1609,330],[-1200,357]],[[720431,791662],[1073,963],[758,221],[1483,577],[1421,551],[1325,908],[1642,935],[1483,853],[1263,-248],[568,-743],[1294,-990],[916,-358],[1136,-302],[1484,-331],[946,-82],[1673,303],[1074,302],[1104,303],[1579,358],[1988,275],[1894,137],[2778,358],[1862,0],[2020,-275],[1957,-330],[3472,-248],[1831,-165],[4103,303],[221,-28],[4861,-413],[3378,-137],[1862,0],[2146,220],[285,-1238],[220,-1706],[253,-2201],[505,-495],[2020,192],[695,0],[1483,413],[1547,165],[1957,-28],[1957,-302],[1357,-275],[758,-110],[1262,-83],[1326,-990],[2052,-1321],[1010,-660],[852,-413],[978,-330],[1737,-633],[1199,-220],[1673,275],[2273,358],[2840,-28],[1642,303],[2146,467],[1042,-275],[2399,-4457],[1231,-1651],[1231,-825],[442,-441],[1010,-1788],[284,-110],[1925,633],[979,247],[1483,-330],[2147,138],[3061,413],[726,-28],[1926,-248],[2841,-247],[1041,-138],[2494,-302],[1768,-110],[1641,-83],[694,55],[2336,0],[1926,-55],[599,-55],[1547,-248],[1420,-357],[1515,-248],[2494,-165],[2620,-193],[1799,-82],[821,27],[1199,165],[947,-1128],[1452,-853],[1263,-385],[189,-1155],[-757,-936],[63,-1348],[726,-743],[1452,-495],[726,-523],[473,-1073],[126,-963],[-126,-1183],[-568,-1706],[-821,-2036],[1421,-550],[1357,-28],[1326,110],[1420,165],[2083,83],[726,-1046],[537,-1678],[568,-1101],[537,-742],[1073,-1431],[1136,-1431],[63,-1376],[-221,-1293],[-189,-825],[-221,-963],[-347,-826],[-505,-1293],[-379,-935],[-158,-936],[663,-1431],[568,-632],[1200,-661],[1010,-220],[978,-165],[1326,0],[1168,55],[915,28],[1168,27],[1673,-192],[1200,-468],[1294,-578],[1073,-385],[1294,-275],[915,-28],[1894,-357],[884,-771],[316,-1045],[0,-1569],[-32,-1348],[158,-1376],[252,-1183],[-31,-1210],[-158,-1156],[0,-1266],[695,-908],[1231,-495],[1167,716],[695,412],[1389,138],[1231,-413],[1799,-495],[1768,-633],[1167,-468],[1326,-660],[758,-413],[1483,-688],[1484,-165],[852,83],[1326,55],[1736,-248],[1136,-357],[1547,-716],[1041,-550],[1673,-715],[1547,-606],[852,-412],[1200,-908],[726,-551],[852,-1073],[1105,-522],[1483,-276],[884,-137],[1578,55],[1294,55],[2431,55],[1578,-358],[695,-1155],[1515,-1101],[1894,-82],[4513,963],[2936,715],[2683,770],[884,385],[1704,963],[2241,1294],[979,330],[1325,137],[1295,-27],[1294,-1073],[31,-1706],[126,-825],[285,-1266],[789,-853],[1483,-578],[505,-413],[316,-1293],[221,-1513],[189,-1101],[474,-1430],[726,-1486],[1073,-1899],[1042,-1871],[694,-1320],[568,-1073],[1989,-3550],[631,-1128],[600,-1650],[536,-1541],[632,-1128],[442,-716],[568,-880],[726,-1128],[883,-1073],[537,-551],[1073,-990],[1073,-908],[853,-660],[1136,-798],[1231,-1321],[694,-770],[821,-771],[1136,-935],[1074,-661],[1578,-908],[757,-935],[316,-1623],[-1262,-1293],[-1295,-578],[-883,-606],[-1137,-908],[-1073,-935],[-852,-440],[-1231,137],[-1137,578],[-1199,550],[-1357,-275],[-1673,-1265],[-221,-138],[-4577,-2999],[-1799,-1266],[-916,-908],[-378,-1238],[-853,-3026],[-1609,-2311],[-1863,-1981],[-315,-826],[-95,-963],[63,-1321],[410,-880],[2210,-1706],[2367,-2311],[2431,-2366],[1988,-1761],[4482,-3577],[5682,-3990],[3441,-1843],[-1010,-1513],[-442,-1293],[-127,-798],[-63,-1376],[0,-1568],[-315,-1871],[-411,-1514],[-63,-1513],[63,-1128],[32,-853],[126,-1348],[95,-1568],[379,-1046],[789,-880],[1168,-1376],[505,-1458],[663,-1211],[505,-743],[757,-1541],[347,-1128],[537,-1128],[284,-688],[-95,-2091],[-284,-1375],[-315,-881],[-695,-743],[-1262,-357],[-316,-1046],[631,-963],[726,-2146],[442,-715],[789,-661],[1484,-412],[1578,-771],[1199,-413],[1168,-192],[1074,-963],[631,-1568],[95,-1376],[568,-771],[1168,-1293],[1388,-1128],[1263,-1210],[-663,-826],[-1041,-1348],[-3504,-1376],[-411,-82],[-5050,82],[-5366,28],[-631,-28],[-1515,-165],[-3599,-825],[-947,-138],[-2335,-605],[947,-1486],[126,-550],[158,-2972],[63,-605],[410,-2008],[190,-936],[157,-1156],[0,-1265],[-94,-1513],[-95,-578],[-758,-2532],[-473,-1320],[-600,-1458],[-94,-221],[-884,-2201],[-663,-2338],[-568,-2614],[-95,-1238],[158,-606],[442,-1073],[663,-1045],[789,-1348],[631,-1459],[221,-1265],[-158,-853],[-473,-1376],[-695,-770],[-1578,-936],[-789,-688],[-1294,-1320],[-442,-963],[410,-1624],[916,-1018],[852,-550],[852,-440],[1389,-578],[1042,-275],[1546,-413],[1642,-688],[1073,-412],[820,-991],[474,-1073],[316,-908],[347,-1156],[315,-1595],[505,-1018],[916,-1404],[126,-1018],[-410,-963],[-632,-1045],[-473,-661],[-852,-1238],[-1263,-1265],[-884,-606],[-1041,-522],[-947,-468],[-1389,-248],[-1136,-137],[-1074,-853],[-410,-1211],[-410,-3054],[0,-110],[63,-1843],[379,-2889],[189,-1486],[32,-385],[378,-1954],[379,-2449],[63,-853],[284,-1815],[758,-3550],[95,-1155],[-127,-908],[-663,-2229]],[[950032,256816],[442,-1678],[442,-1183],[568,-826],[1010,-1403],[632,-770],[726,-771],[2083,-2833],[978,-1349],[568,-660],[884,-578],[1863,-550],[1231,-193],[820,-247],[1168,-743],[1042,-1486],[-126,-1623],[-95,-936],[-221,-1403],[-189,-1211],[-32,-1265],[126,-1431],[221,-1156],[63,-742],[95,-1156],[-95,-1513],[-378,-1073],[-158,-1238],[1799,-633],[1105,247],[1168,-137],[726,-853],[1199,-1238],[1420,-633],[853,-688],[221,-1568],[-790,-606],[-1073,-330],[-1168,-605],[-284,-1403],[-221,-936],[-915,-853],[-1515,-495],[-1168,-193],[-1168,-82],[-852,-165],[-1547,-495],[-1199,-606],[-1010,-440],[-1547,-110],[-1389,-275],[-1136,-138],[-1799,-137],[-1452,-331],[-1610,-797],[-1673,-963],[-1420,-826],[-853,-715],[-694,-1348],[315,-1706],[127,-963],[631,-1624],[1610,-963],[884,-715],[852,-990],[694,-1239],[158,-1100],[-126,-771],[505,-963],[473,-770],[190,-1348],[-537,-1046],[-663,-963],[-631,-1155],[-1042,-1844],[-347,-1183],[726,-1431],[1136,-1540],[442,-441],[1231,-577],[1295,-523],[1136,-330],[1042,-275],[1862,-358],[4955,5118],[158,165],[127,-165],[3124,-4623],[4293,-4705],[1326,-1568],[726,-853],[2273,-2669],[-32,0],[-4482,-1293],[-789,-330],[-3599,-1403],[-883,-688],[-947,-220],[-916,-606],[-1389,-1100],[-978,-1513],[-32,-881],[-189,-880],[-631,-771],[-7418,-7291],[-1389,-523],[-947,-550],[-442,-853],[-315,-935],[-348,-4375],[-1925,-10731],[-221,-688],[-505,-1238],[-600,-1623],[663,-1293],[-252,-1183],[947,-1211],[1420,-990],[1263,-991],[789,-1183],[378,-1128],[505,-963],[537,-853],[789,-1128],[758,-826],[915,-1458],[663,-1486],[600,-1568],[126,-1238],[-726,-4677],[0,-248],[-379,-24763],[-31,-7236],[0,-2201],[63,-1128],[284,-1156],[663,-2366],[536,-1568],[5240,-10786],[2210,-4512],[757,-1293],[-7481,-633],[-3693,-440],[-3788,-1046],[-3787,-1485],[-4009,-2779],[-189,-138],[-5714,-3962],[-694,-248],[-1484,-522],[-1294,-248],[-1609,-303],[-2904,-302],[-1042,-468],[-2904,-1926],[-1768,-1156],[-5523,-4429],[-569,-358],[-1957,-715],[-4103,-441],[-1452,-633],[-947,-1513],[-316,-1183],[-1104,-4595],[-1074,-3136],[-1294,-2394],[-1641,-1899],[-2241,-1375],[-1326,-523],[-1136,-385],[-1799,-468],[-3851,-1018],[-2336,-440],[-4072,-1046],[-1294,-412],[-1515,-441],[-5619,-1320],[-1641,-743],[-1231,-743],[-1042,-633],[-1609,-853],[-158,-27],[-3030,-523],[-1610,-193],[-1957,-385],[-1831,-330],[-1105,-275],[-158,-1706],[-378,-1128],[-1515,-1651],[-253,-275],[-1452,-881],[-694,-302],[-1736,-496],[-2399,-440],[-3188,-330],[-663,-55],[-2273,-55],[-1326,413],[-473,908],[-474,1430],[-694,1624],[-789,935],[-1105,881],[-694,522],[-1768,551],[-1199,-1073],[-1042,165],[-915,1045],[-379,688],[-2683,771],[-1547,110],[-1136,192],[-1042,358],[-978,137],[-5303,28],[-2431,-28],[-1641,-82],[-1105,-220],[-915,-220],[-1894,-110],[-1547,0],[-2051,-276],[-568,2284],[-1105,1623],[-1010,606],[-2999,1238],[-1042,248],[-1546,220],[-663,165],[-2020,1568],[-1863,83],[-915,-468],[-1326,-330],[-789,-193],[-1389,-27],[-2399,302],[-1546,551],[-1705,770],[-978,523],[-979,275],[-1073,440],[-1578,991],[-1578,522],[-1610,220],[-1926,358],[-1388,110],[-1042,991],[-1231,3136],[-189,110],[-4293,1183],[-1168,-110],[-2336,-550],[-1831,-468],[-6881,-2173],[-5808,-1211],[-757,248],[-884,3549],[-789,605],[-4766,-963],[-537,-1210],[-600,-385],[-2020,2201],[-1262,495],[-3252,-853],[-2493,-385],[-2873,-220],[-1957,-83],[-1767,-358],[-6755,-1953],[-410,3577],[-884,9492],[-347,1981],[0,661],[157,4622],[-94,9437],[-32,7787],[-31,6933],[0,2834],[-64,1513],[-63,6026],[-505,2724],[-505,5283],[-221,2036],[-6376,12133],[-2493,4733],[2335,4622],[1074,8062],[189,1458],[221,1788],[252,1349],[1579,27],[663,991],[536,1045],[-221,3329],[695,83],[-158,5860],[63,1376],[5745,0],[536,4512],[4640,193],[947,2311],[1894,248],[600,1651],[1042,1238],[1799,-358],[1609,-825],[1137,-275],[1041,880],[411,1376],[442,1568],[536,578],[2620,1623],[-18939,10180],[-4513,2669],[-853,633],[-1578,1431],[-1483,523],[-726,27],[-1768,-82],[-4924,-166],[-1357,0],[-758,1184],[-379,1320],[-568,1569],[-221,935],[-505,1183],[-663,2917],[-852,1155],[-505,881],[-442,770],[-505,1321],[-726,798],[-600,605],[-1041,1293],[-600,963],[-947,881],[-1515,908],[-1199,880],[-1074,495],[-1452,468],[-2809,743],[-3377,825],[-1389,330],[-1421,1018],[-2904,-247],[-3251,-193],[-473,193],[284,3054],[-1136,633],[-1105,577],[-821,413],[-1483,193],[-947,-1046],[-505,-1651],[-505,-1155],[-758,-1623],[-978,-111],[-1421,633],[-1010,413],[-1042,110],[-1167,-853],[-1547,660],[284,1376],[789,936],[-189,1705],[-1642,578],[-1357,-412],[-978,-908],[-190,-853],[190,-1459],[-947,-935],[-1137,468]],[[657049,188059],[600,5007],[663,4623],[347,4870],[505,4897],[253,5365],[378,5833],[569,5118],[442,3852],[1199,5970],[1294,3385],[1736,5255],[1642,3412],[5239,7869],[-63,9189],[347,6741],[95,6026],[63,2531]],[[646696,451781],[-1262,-110],[-1894,-165],[-1484,-110],[-1483,-138],[-2115,-165],[-3157,-302],[-820,-83],[-1452,-110],[-2936,-275],[-2115,-193],[-1736,-137],[-2809,-275],[-2178,-193],[-1168,715],[-631,1624],[-411,1265],[-126,1046],[-63,1183],[-1231,220],[-1641,-358],[-1452,-330],[-1042,-82],[-1736,-165],[-1610,0],[-1894,192],[-1704,275],[-1799,358],[-1579,330],[-1294,303],[-1799,413],[-2052,27],[-1452,0],[-1294,-27],[-4829,0],[-347,1485],[-505,991],[-789,770],[-221,1128],[-726,1348],[-1074,578],[-1736,1899],[-2020,2201],[-1610,1706],[-1136,1238],[-789,908],[-410,1403],[-789,743],[-979,660],[-1010,1128],[-1199,578],[-1074,303],[-978,220],[-1831,220],[-1420,55],[-1894,248],[-1421,302],[-1578,165],[-1957,110],[-1168,138],[-947,193],[-1325,742],[-884,633],[-1705,1046],[-1357,770],[-884,413],[-1610,468],[-2462,440],[-1231,193],[-1736,385],[-1262,-55],[-821,-661],[-1736,-412],[-2304,-826],[-789,193],[-1579,55],[-978,-605],[-852,-303],[-1421,82],[-1136,-302],[-1010,55],[-1515,165],[-1610,-358],[-821,798],[-126,1128],[-158,1458],[-94,1073],[-127,1046],[-284,1073],[-505,1623],[-726,1816],[-789,1431],[-537,688],[-757,798],[-726,715],[978,413],[1010,688],[979,990],[631,908],[505,1458],[-158,1156],[-157,1513],[157,853],[442,991],[569,660],[-348,1101],[-157,1513],[126,1018],[-411,963],[-789,1045],[32,716],[95,1403],[31,1266],[221,1320],[631,716],[411,990],[694,1679],[442,1183],[537,1706],[726,1926],[568,1513],[536,1403],[505,1431],[285,963],[189,1183],[158,1568],[252,1348],[190,1128],[221,1211],[284,1706],[315,1898],[190,1734],[126,1376],[158,1375],[94,826],[379,1898],[-1894,248],[-1168,165],[-946,-28],[-1137,138],[-1168,137],[-536,1129],[-1010,137],[-1484,633],[-2178,1871],[-2178,2173],[-1420,1294],[-821,743],[-947,880],[-1483,1431],[-32,27],[-1925,1734],[-3946,3549],[-2273,2146],[-378,248],[-4293,440],[-1326,82],[-600,991],[64,1156],[0,1183],[-253,1073],[-32,853],[0,1045],[95,1348],[-600,908],[-883,496],[-1516,880],[-1010,248],[-1388,165],[-1610,165],[-1642,192],[-2493,496],[-2399,302],[-1894,-1265],[-252,-83],[-2399,-330],[-1326,-83],[-1578,55],[-1863,276],[-1578,632],[-2967,1239],[-1294,632],[-2431,1486],[-3409,2641],[-1546,1514],[-789,1018],[-600,990],[-442,991],[-316,1348],[-189,1211],[-1294,770],[-600,165],[-1357,523],[-1326,275],[-2209,468],[-1200,908],[63,1183],[-126,1155],[-568,936],[-821,1100],[-821,853],[-1578,853],[-599,771],[-916,633],[-1389,825],[-1104,440],[-1516,-247],[-694,605],[-1894,1871],[-1041,578],[-979,825],[-1105,880],[-1925,1624],[-884,798],[-979,880],[-2619,2256],[-253,220],[2999,221],[1199,1100],[-1010,770],[-852,826],[-1168,1293],[-2462,2889],[-947,-688],[-600,-660],[-2241,247],[-852,-742],[-1705,-331],[-1515,110],[-631,-577],[-978,-853],[-1137,-1211],[-694,-688],[-1799,-27],[-758,523],[-1389,935],[-852,-303],[-3409,-1238],[-2399,-770],[-1610,-495],[-1830,-633],[-3409,-1073],[-1705,-578],[-1578,0],[-1136,-936],[-663,-1430],[-537,-1046],[-1168,110],[-978,55],[-1515,-908],[-916,-1733],[-94,-1733],[-884,-1899],[-379,-578],[-1042,-1183],[-536,-908],[-1389,-963],[-1073,-853],[-600,-578],[-1042,-1045],[-852,-1018],[-1105,-1321],[-1104,-1155],[-663,-661],[-789,-770],[-1137,-1156],[-1041,-1045],[-1010,-716],[-695,-467],[-978,-688],[-979,-523],[-978,-468],[-1389,-660],[-916,-303],[-1073,-357],[-1420,-523],[-1137,-523],[-978,-523],[-1200,-798],[-1546,-935],[-1010,-825],[-1137,-908],[-883,-551],[-979,-825],[-158,-1541],[979,-523],[1704,-798],[1137,-440],[3440,-1018],[-2020,-1706],[1168,-578],[1420,-495],[600,-247],[1294,-633],[284,-1018],[-726,-743],[-599,-688],[-632,-825],[-568,-936],[-789,-990],[-442,-716],[-126,-1375],[-190,-1239],[-221,-1403],[-126,-798],[-158,-1018],[-252,-1100],[-442,-908],[-505,-1541],[-189,-1376],[-190,-1623],[-126,-908],[-158,-880],[-347,-1156],[-316,-688],[600,-1568],[1105,-743],[-1137,-1899],[-915,-1458],[-221,-1018],[-95,-963],[-852,-633],[126,-1155],[884,-468],[-347,-1431],[-1389,83],[-1231,82],[-1357,28],[-1010,110],[-1389,27],[-884,28],[-1262,-28],[-1610,578],[-884,1128],[-1641,413],[-1421,330],[-947,193],[-1357,110],[-979,-220],[-1010,-193],[-1262,-220],[-1547,-248],[-1578,-1073],[-1010,-330],[-1073,-358],[-1105,-385],[-916,-302],[-1262,-331],[-979,-110],[-1168,-110],[-1041,-1293],[-4388,1348],[-3251,826],[-3945,-413],[-1263,303],[-1263,385],[-915,330],[-1578,936],[-2462,1375],[-3220,1816],[-2525,-2971],[-2430,-28]],[[306272,534103],[-821,523],[-1168,990],[-663,496],[-1136,688],[-1421,770],[-1325,798],[-1168,688],[-916,357],[-1957,496],[-410,1238],[-757,633],[-1579,522],[-1767,413],[-1452,330],[-1673,220],[-1894,193],[-1420,165],[-853,138],[-1610,302],[-631,1238],[-442,991],[32,963],[95,1128],[-127,1018],[-315,908],[-1389,1128],[-1231,-578],[-1831,193],[-284,1183],[-379,935],[-1073,716],[-1389,357],[-1294,331],[-1326,385],[-915,-578],[-1578,28],[-1863,-83],[-1041,1348],[-190,1046],[-505,1155],[-663,1294],[-568,1210],[-726,1348],[-599,1073],[-1011,1734],[-1294,2228],[-852,1514],[-600,770],[-789,798],[-315,1678],[505,1514],[1041,1238],[1673,578],[505,963],[-789,1018],[-947,1293],[-505,660],[-410,963],[-568,1623],[-726,2009],[-348,1155],[-1515,1404],[-757,633],[-979,880],[316,908],[663,1156],[568,1458],[-1420,963],[-663,1183],[189,935],[284,1376],[221,1183],[63,1541],[-158,1018],[-94,1348],[94,1211],[-157,853],[-790,1348],[-220,1211],[-190,1238],[-1357,743],[-1294,-83],[-695,633],[-1357,715],[-568,963],[31,1293],[64,1486],[0,1376],[63,1348],[126,1733],[0,28],[-1105,-83],[-978,-110],[-1137,-55],[-1578,-110],[-1988,-137],[-1894,-110],[-1642,-138],[-1231,-110],[-1704,-83],[-1705,-137],[-1294,-83],[-1105,-110],[-1673,-55],[-1231,248],[-1673,770],[-946,440],[-1926,853],[-947,441],[-947,412],[-1578,716],[-631,-1541],[-379,-1623],[-347,-991],[-379,-935],[-505,-1128],[-410,-936],[-379,-990],[-442,-881],[-410,-1045],[-474,-908],[-821,-1459],[-568,-1430],[-347,-743],[-505,-1679],[-316,-990],[-568,-1513],[-600,-991],[-726,-1100],[-599,-936],[-789,-1183],[-505,-825],[-505,-853],[-1011,-1734],[-694,-1155],[-537,-1018],[-1357,-633],[-379,-716],[-1799,-27],[-1925,27],[-1768,-27],[-1483,0],[-979,82],[-1862,606],[-979,-1459],[-1357,-467],[-2809,-193],[-1610,-247],[-2462,275],[-2620,275],[-2273,247],[-568,-1210],[-252,-1073],[-916,-661],[-1420,221],[-947,-55],[-1042,550],[-1546,247],[-1263,303],[-1641,-578],[-2368,496],[-378,1100],[-1452,715],[-1736,0],[-853,-55],[-1452,331]],[[161863,588664],[-1010,220],[-1199,137],[-1389,303],[-1420,385],[-1263,440],[-1578,1046],[-1389,-605],[-1862,-826],[-947,28],[-1515,2669],[-2241,-138],[-3252,-358],[-3345,-1458],[-506,1926],[-2619,55],[442,3494],[-4293,55],[-442,2807],[-379,2091],[-2336,1073],[-442,1128],[0,1156],[190,1375],[63,1238],[-442,1239],[-1136,412],[-1010,110],[-1736,248],[-2021,688],[-3440,1981],[-758,-716],[-1862,-247],[-1862,275],[-1326,248],[-789,330],[-1326,357],[-947,303],[695,1458],[1199,2559],[979,2064],[1231,2559],[-1736,550],[-1547,357],[-1957,-165],[-1515,-385],[-1736,165],[-1863,165],[-1452,165],[-1294,606],[-1041,275],[-2589,495],[-221,110],[-347,1569],[-694,3329],[-632,2696],[-315,1651],[-190,633],[-1136,3742],[-473,1623],[1136,1403],[1042,1651],[820,1293],[1389,2091],[1736,2614],[158,248],[2683,4182],[2241,3439],[537,963],[378,1073],[221,991],[64,990],[-64,798],[-189,1211],[-442,2641],[-600,3604],[-347,1761],[-31,0],[-2557,-1128],[-3756,-1733],[-4798,-2256],[-2494,-1183],[-221,935],[-410,1431],[-189,633],[1136,963],[2430,577],[2052,496],[979,110],[1925,192],[1263,-110],[631,1376],[-1294,1678],[-127,4045],[916,0],[1231,110],[-1136,3054],[599,1678],[253,936],[505,1486],[-158,1128],[-95,633],[-126,1595],[663,1101],[-284,660],[-1862,-110],[-1105,1101],[-1578,0],[-821,27],[-1136,743],[568,1458],[-663,551],[-1200,1238],[-1515,1541],[-347,1375],[-505,1293],[-537,1239],[-1294,660],[-757,-165],[-1105,1431],[-2304,1018],[-1200,440],[-947,578],[-694,1210],[-474,633],[-1578,220],[-1673,-165],[-1452,83],[-442,2338],[-315,1486],[-347,1486],[-348,1321],[-126,825],[-252,1293],[-474,2256],[-284,1376],[-347,1678],[-474,2229],[-189,1128],[-347,1293],[-347,1569],[-253,1045],[-189,1018],[-379,1678],[-1010,1101],[-600,715],[-821,991],[-599,743],[347,1348],[852,633],[915,550],[600,605],[284,1018],[-31,743],[31,1321],[127,935],[94,963],[-63,1706],[-505,1431],[-410,605],[-852,908],[-1074,1211],[-978,715],[-663,468],[-1010,1101],[-537,770],[-347,1651],[32,1128],[-284,1431],[-695,935],[-1894,468],[-1199,-275],[-1168,-248],[-1894,-110],[-884,165],[-1294,550],[-915,1239],[-726,742],[-568,716],[-695,1045],[-1641,1018],[-1010,441],[189,1320],[32,1431],[-379,908],[-568,1376],[-316,990],[-442,1486],[-189,935],[-1421,441],[-1231,-386],[-852,1239],[-379,1210],[-915,1431],[-726,688],[-1168,1128],[-726,660],[-1073,1018],[63,1486],[1042,413],[1452,660],[1736,523],[852,137],[1263,248],[852,-523],[189,-1128],[221,-1348],[379,-1018],[600,-1183],[1294,-1046],[757,83],[1389,192],[1831,-247],[1042,-551],[536,-1045],[474,-770],[568,-1074],[820,-742],[1831,-138],[1389,-220],[1515,-83],[1294,0],[1168,1183],[-284,1129],[-189,990],[-221,853],[-253,1266],[-189,853],[-284,1348],[-221,880],[-190,1046],[-221,963],[-189,880],[-221,881],[1136,908],[663,-28],[1642,-27],[1894,-193],[126,1238],[852,2064],[1010,-83],[2178,-578],[1231,1459],[1484,27]],[[75282,785169],[1041,-1733],[884,-55],[1420,-275],[1547,-1073],[2336,-2669],[8017,-8640],[1231,-1513],[1768,-2311],[2872,-3907],[2336,-2889],[4104,-5310],[1420,-1981],[1073,-1624],[947,-1238],[758,-853],[726,-798],[1452,-1210],[915,-716],[1294,-770],[2178,-1073],[158,-55],[3377,-1101],[2841,-715],[3472,-1018],[4230,-908],[5366,-1101],[3314,-633],[3472,-797],[1547,-55],[2020,0],[915,-83],[1105,-165],[1799,-28],[2462,55],[1042,28],[1357,-193],[1105,-137],[1421,-28],[2903,-27],[3662,1320],[1894,-605],[316,-1128],[189,-935],[2778,-110],[3282,-166],[2462,-82],[5935,-248],[3408,-137],[2463,-138],[1041,-27],[6029,-248],[4261,-193],[474,221],[757,1320],[3315,688],[915,193],[2651,577],[4198,853],[1736,358],[2620,550],[3946,853],[2273,468],[789,-1046],[442,-1485],[662,-2256],[916,-28],[2904,605],[158,28],[1893,413],[2273,495],[2494,523],[2525,495],[2020,440],[1894,385],[1263,303],[1136,220],[1452,0],[1073,-27],[1199,-688],[853,-826],[1578,606],[757,1210],[947,1431],[2021,2999],[1104,-1183],[695,-605],[978,-496],[1673,-660],[884,-330],[1515,-743],[821,-936],[789,-990],[600,-743],[662,-1238],[127,-1733],[31,-908],[63,-991],[95,-1101],[-31,-1540],[3156,-248],[1957,-138],[1831,-110],[1988,-137],[-3188,-13675],[3125,716],[347,-1156],[600,-1706],[947,-3026],[3946,880],[1294,275],[2493,578],[3820,881],[4482,1045],[3977,936],[1926,385],[2525,302],[1641,166],[2304,110],[1389,55],[1610,137],[1610,220],[2430,468],[2683,495],[2083,358],[2178,275],[2178,165],[442,0],[2652,0],[4261,303],[1704,55],[3504,-358],[2431,-110],[1641,-27],[1610,55],[1483,220],[2241,302],[6124,468],[4482,110],[1389,55],[2620,83],[1515,165],[568,-248],[2494,-990],[1704,-688],[2652,-1018],[94,-55],[29261,-10098],[3819,-1376],[2399,3742],[2999,4678],[1862,3687],[726,1650],[757,523],[853,743],[1452,936],[1041,577],[2652,936],[2146,633],[1925,825],[2526,1954],[2998,1981],[5998,3164],[5397,2586],[6660,3274],[6250,2944],[8743,4650],[4830,1458],[2241,578],[1389,908],[1894,1348],[2178,1871],[442,1266],[315,2063],[95,1019],[158,1925],[536,4073],[600,2091],[1357,3109],[1736,3081],[253,303],[1704,1458],[1421,908],[1105,523],[915,440],[2052,826],[1578,357],[3251,330],[1831,166],[3251,495],[4135,275],[3219,440],[2431,908],[3314,1156],[1200,357],[1736,221],[2146,-193],[1926,193],[3914,2833],[2683,1954],[1893,1541],[7008,5805],[884,1238],[1357,-467],[379,-1046],[315,-1623],[758,-881],[221,-1403],[347,-1458],[410,-908],[726,-550],[1736,-661],[3062,-1018],[3283,-1045],[2809,-826],[2241,-798],[1957,-577],[1484,-633],[1199,-523],[1042,-413],[947,-330],[947,-358],[1294,-330],[1105,-357],[1199,-468],[821,-358],[1452,-468],[1010,-247],[1073,-138],[947,-55],[1420,83],[1736,110],[1610,-165],[1831,-386],[1231,-82],[1136,-193],[1231,-302],[1137,-303],[1736,-523],[1294,-578],[1704,468],[853,220],[1515,441],[1641,467],[1926,523],[1988,550],[947,275],[1957,551],[2083,578],[1200,330],[1357,1265],[95,963],[94,798],[0,1321],[-568,908],[-631,1128],[-347,825],[-379,1266],[-126,605],[-505,1183],[-1358,963],[-947,908],[-757,523],[-915,468],[-2305,1100],[-1546,798],[-1200,633],[-1136,606],[-1105,1100],[-852,1293],[-852,1238],[-789,1128],[-379,1129],[-32,1155],[-31,963],[-253,1376],[-347,743],[-600,990],[-1105,826],[1168,1073],[2873,577],[1641,331],[1389,330],[1547,302],[1262,138],[1105,83],[1515,82],[1578,55],[1736,28],[1547,412],[-284,963],[1168,1018],[1199,221],[1894,247],[1831,248],[1578,220],[1263,165],[1830,303],[1358,247],[1041,661],[789,742],[1074,908],[757,1184],[32,770],[94,2174],[32,935],[-95,1541],[-158,1871],[-252,2504],[-410,1513],[-505,743],[-411,935],[-31,1513],[31,826],[32,2146],[0,1898],[31,578],[-31,1156]],[[600391,836428],[473,358],[2178,0],[1926,2751],[1483,-193],[1894,-110],[1200,0],[1199,83],[1105,55],[1420,-55],[1105,-138],[1673,-385],[1041,55],[1232,-633],[1862,-55],[1389,275],[1767,413],[1610,165],[1831,110],[1326,-55],[1325,-110],[1705,-192],[1262,247],[2652,-330],[1515,743],[757,605],[1105,1376],[1642,413],[694,632],[1105,1101],[1104,1046],[1642,1513],[1199,1155],[474,441],[1325,1320],[2273,2064],[663,633],[1199,1073],[1610,1430],[758,688],[789,688],[1136,991],[947,880],[1073,1376],[442,853],[411,1375],[-32,1073],[-379,1486],[-284,936],[-536,1155],[252,1569],[1989,1265],[1010,633],[631,413],[1263,770],[1294,716],[757,1045],[0,881],[63,1623],[95,1183],[979,1403],[599,1018],[474,1293],[505,1651],[31,138],[1831,-165],[1042,-220],[1547,-606],[883,-853],[632,-1348],[378,-1073],[348,-853],[789,-1568],[947,-1156],[789,-633],[884,-632],[1388,-853],[1894,-1018],[411,-220],[2746,-1294],[1641,-660],[663,-193],[1704,-577],[1231,-441],[1232,-467],[820,-413],[2147,-1046],[1704,-742],[1168,-578],[1136,-1046],[1010,-1871],[2936,-5475],[2430,-4100],[1137,-1981],[1199,-2063],[568,-1403],[537,-1073],[1136,-2202],[632,-963],[599,-852],[663,-1486],[253,-1018],[315,-1596],[95,-1046],[-189,-1650],[-411,-1184],[-505,-990],[-884,-1156],[-536,-632],[-758,-716],[-978,-715],[-1105,-688],[-884,-495],[-1262,-743],[-916,-606],[-1199,-963],[-695,-880],[-347,-1238],[-63,-908],[252,-1541],[190,-770],[568,-1458],[758,-991],[978,-550],[1136,-468],[1326,-495],[979,-385],[1325,-633],[947,-853],[821,-1321],[252,-743],[127,-1183],[126,-1651],[253,-1293],[63,-1128],[-253,-1458],[-631,-1596],[-474,-1266],[-315,-880],[-600,-1761],[-600,-1596],[-410,-1073],[-442,-935],[-537,-991],[-631,-963],[1389,-770],[758,-358],[599,-1238],[347,-908],[411,-936],[442,-880],[1199,-660],[852,798],[758,742],[1263,606],[1546,633],[1231,908],[1326,-276],[1768,-110],[978,110]],[[75282,785169],[1609,936],[1231,385],[1074,357],[1231,331],[1199,330],[884,247],[1610,248],[1515,358],[410,1155],[-95,853],[64,1486],[284,1321],[126,715],[221,1211],[221,798],[379,1183],[-158,963],[-253,1210],[-315,1844],[-158,715],[-221,1073],[-126,1073],[-1452,743],[-916,-165],[-1420,-275],[-947,-220],[-1294,-385],[-1168,-578],[-1105,-413],[-2020,-688],[-1168,-385],[-4482,-1596],[-631,-247],[-2494,-853],[-1357,3411],[-663,1816],[-505,1321],[126,1953],[-189,1734],[599,1045],[-284,1404],[-221,1045],[-63,743],[411,1293],[63,853],[158,1651],[126,880],[284,1073],[95,798],[63,991],[0,853],[0,1431],[-663,1210],[-1799,-302],[-1263,55],[-1168,137],[-1168,83],[-1704,110],[-1484,110],[-726,55],[-1231,-798],[-126,-1651],[-2336,-55],[-2556,-110],[-1326,1073],[-63,1046],[-63,797],[-127,1899],[-1168,1871],[-126,1623],[-63,908],[-189,1816],[-379,2586],[-347,2147],[410,2421],[789,82],[-789,4100],[-189,743],[-284,1128],[-285,1403],[-31,1046],[789,1210],[-1105,3357],[-284,715],[-2367,3302],[3598,1954],[-726,1898],[-379,963],[-757,1266],[-158,770],[-978,4980],[31,2862],[-284,687],[-505,1183],[-410,908],[-95,1541],[-63,1211],[-221,990],[2241,1376],[347,0],[2588,-27],[1863,137],[884,-137],[1262,82],[-252,2504],[-284,963],[-221,963],[-442,1706],[-190,935],[-158,1734],[-2177,687],[-1231,1101],[410,660],[694,1156],[316,880],[-379,881],[-915,853],[1168,990],[-127,1651],[-94,1844],[-63,963],[-316,1210],[-474,1486],[-220,715],[-95,1596],[-221,1348],[-95,936],[-189,1100],[-253,1046],[-158,770],[-94,1073],[31,936],[474,55],[1957,220],[1673,303],[820,-83],[-410,2476],[-284,1624],[-221,1595],[2872,1816],[1200,743],[1294,-1265],[1894,963],[473,302],[2210,-550],[852,358],[1326,247],[1357,83],[1389,-550],[1326,330],[1736,825],[1515,1101],[31,2146],[4198,440],[-284,1706],[3946,715],[1042,1101],[820,1018],[600,1045],[-126,1156],[-95,660],[379,1486],[1389,-165],[852,-83],[1673,-192],[1231,1100],[600,606],[1609,110],[1894,165],[2210,220],[1799,28],[1547,-166],[1578,-55],[1073,0],[1231,0],[1231,661],[32,1045],[0,1156],[0,1183],[1578,935],[442,28],[2493,110],[158,2724],[0,220],[63,1954],[1831,412],[1989,193],[1799,220],[1831,165],[1830,83],[1452,137],[884,165],[1231,248],[1452,275],[1105,220],[1641,468],[726,1431],[-410,1650],[-568,881],[-537,825],[-600,1128],[-441,1046],[1736,605],[1199,523],[915,468],[64,2118],[-537,303],[-2115,1073],[-1357,798],[-1042,825],[-852,688],[-726,826],[-473,853],[-600,1320],[-789,1238],[-600,1211],[-410,935],[-411,1101],[-347,1348],[-505,1431],[-126,605],[-158,1321],[-126,1568],[-158,1734],[-126,908],[2967,522],[3409,661],[1515,137],[1957,-82],[947,27],[2020,303],[1041,192],[2431,606],[3535,1018],[1926,413],[4955,1265],[1705,468],[978,248],[3188,715],[1452,330],[1326,165],[1042,83],[2619,220],[2810,220],[4198,413],[1610,110],[1104,275],[884,55],[758,1238],[-63,1596],[694,825],[1263,853],[1862,413],[978,715],[1547,578],[1862,523],[1452,0],[2147,-28],[1736,-385],[1452,-798],[1199,-660],[758,-413],[1420,-880],[1357,-1293],[1421,-1156],[1547,-963],[1262,-743],[1136,-358],[947,193],[1105,275],[979,248],[1231,-28],[1294,-137],[1073,-1293],[347,-1541],[2399,-275],[600,-1596],[1231,-1156],[1452,-330],[1799,-385],[1799,413],[1042,55],[1452,440],[1231,385],[1199,193],[979,55],[1389,110],[1136,165],[1042,302],[1609,248],[1926,-165],[1768,-303],[915,138],[1168,385],[1199,248],[1768,-386],[1231,-137],[1262,27],[947,-27],[1200,-28],[1862,-110],[1705,-577],[1578,-716],[1073,-220],[1231,-138],[1042,-27],[1073,83],[1263,440],[820,578],[1073,907],[1516,1101],[789,495],[1325,661],[1831,522],[1136,386],[1326,495],[1421,468],[883,275],[1579,412],[1041,1266],[600,991],[1010,440],[884,385],[1704,-193],[474,-632],[1168,-1156],[1104,-1046],[916,-1430],[442,-1458],[221,-991],[126,-798],[347,-1486],[505,-1210],[379,-688],[442,-963],[442,-908],[789,-1293],[663,-963],[1010,-1348],[505,-743],[631,-798],[1010,-1348],[726,-963],[884,-1073],[884,-798],[789,-716],[1199,-990],[1168,-991],[1705,-825],[1136,-330],[1831,-496],[1136,-220],[916,-110],[1104,-275],[1231,-413],[916,-302],[1483,-523],[1105,-413],[1673,-550],[1168,-413],[1294,-440],[884,-330],[947,-413],[1420,-908],[1200,-743],[1704,-440],[1168,-248],[1894,-495],[1010,-385],[1610,-633],[1073,-357],[978,-386],[1452,-522],[1168,-441],[1452,-550],[1484,-660],[1262,-578],[1042,-413],[1136,-633],[1010,-632],[758,-551],[821,-578],[978,-825],[1389,-1238],[947,-1156],[473,-660],[916,-1101],[820,-632],[1389,-661],[1452,-715],[1326,-1073],[757,-660],[1168,-743],[1894,137],[568,468],[190,1403],[-411,1981],[-220,1376],[-32,1100],[32,1156],[63,1018],[157,991],[537,1458],[663,1431],[600,770],[631,660],[915,1101],[758,1045],[726,1266],[126,1348],[95,1348],[789,1431],[821,743],[852,633],[1326,660],[1736,771],[1199,577],[1420,358],[1863,110],[978,-110],[1484,-468],[757,-605],[916,-991],[599,-742],[1389,-1211],[1074,-523],[1546,-357],[1168,-193],[1578,-28],[1926,441],[1862,412],[1673,138],[1547,-28],[1862,-27],[947,0],[1357,110],[2115,193],[1768,220],[1546,110],[2273,137],[1326,83],[2051,137],[1515,28],[569,110],[1515,468],[1294,440],[1988,633],[916,247],[1041,331],[1358,990],[221,1101],[158,1430],[-32,1266],[0,1238],[-379,1183],[-442,1156],[-1041,1376],[-947,715],[-1610,990],[-1105,441],[-1515,577],[-1483,303],[-758,220],[-1515,440],[-1547,606],[-820,330],[-1358,825],[-1105,1349],[916,1485],[568,798],[442,743],[537,825],[946,798],[1168,853],[1326,716],[1610,495],[1073,165],[1326,110],[3251,330],[1105,83],[1199,27],[1642,28],[1767,-303],[1421,-165],[1388,220],[1200,275],[1452,386],[1515,412],[1515,358],[1547,303],[1231,247],[2399,523],[2304,660],[3062,963],[2020,551],[978,275],[1799,412],[3062,358],[3756,578],[1105,303],[1642,605],[1167,468],[853,467],[1199,991],[884,633],[757,522],[947,551],[1168,495],[1042,-110],[978,-578],[1137,-798],[1262,-688],[853,-330],[1515,-385],[789,-248],[1105,-440],[1357,-990],[915,-1128],[884,-991],[1231,-1266],[1168,-1403],[1042,-1431],[694,-1155],[379,-1046],[189,-1403],[126,-1183],[284,-1046],[632,-660],[1546,-825],[979,-716],[1357,-1458],[1073,-743],[1074,-137],[1041,-165],[1326,-771],[95,-1045],[-63,-743],[-379,-2642],[-411,-1485],[-662,-963],[-1074,-1211],[-536,-853],[-158,-1073],[663,-1458],[1168,-138],[1294,-165],[1010,-302],[1042,-496],[757,-467],[1705,-743],[1262,0],[1168,27],[1326,-55],[884,-468],[883,-853],[442,-632],[726,-1156],[505,-908],[632,-1128],[410,-853],[537,-880],[1515,-688],[1041,440],[1957,358],[726,-991],[253,-1183],[1010,-1403],[915,-853],[821,-1376],[0,-1128],[-442,-770],[-253,-1266],[32,-1018],[0,-1678],[32,-1459],[599,-1100],[1295,-633],[978,-440],[1484,-550],[1136,-358],[2052,-633],[1357,-385],[2052,-495],[789,-221],[5523,-1513],[695,-1018],[284,-1238],[-284,-1458],[-63,-771],[31,-1018],[95,-1458],[600,-1018],[1041,-1018],[821,-990],[347,-1376],[-126,-908],[-379,-1293],[-568,-1073],[-1231,-1046],[-1483,-1045],[-821,-1018],[-221,-1514],[31,-880],[442,-1458],[537,-1293],[505,-661],[947,-1321],[947,-1375],[757,-1018],[1516,-1018],[1957,-275],[1294,-220],[1704,-331],[1263,-412],[694,-606],[537,-880],[663,-1321],[1483,-2889],[2020,-3604],[2746,-5063],[2052,-3577],[631,-1018],[916,-1320],[1420,-1101],[1137,-330],[1452,-138],[1546,-137],[1168,82],[3756,853],[3662,468],[2178,578],[1925,688],[2778,908],[2778,550],[1893,275],[1421,55],[1168,28],[852,-358],[915,110],[1768,248],[852,55],[1231,55],[758,330],[2746,248],[1768,165],[1104,-83],[1073,-138],[1137,111],[1736,-111],[1957,0],[1641,56],[1705,137],[63,-55],[473,-2559],[348,-1596],[410,-2063],[505,-1321],[1452,-1155],[694,-743],[474,-853],[694,-1348],[695,-1651],[1231,-908],[915,-303],[978,-633],[32,-1485],[-505,-1899],[32,-110],[2304,-633],[189,-688],[-726,-2806],[-94,-1486],[1041,-743],[221,-1155],[316,-1238],[94,-1486],[442,-413],[1610,303],[2020,385],[253,-220],[-32,-3329],[1736,-110],[1736,-138],[474,-1898],[568,-2147],[410,-1210],[379,-578],[726,-990],[947,-1211],[1073,-1541],[537,-880],[694,-1101],[1452,-1981],[347,-935],[474,-1706],[600,-2064],[536,-1706],[726,-3136],[2494,275]],[[657049,188059],[-883,743],[-379,1430],[189,1046],[-884,1045],[-820,220],[-1326,28],[-1705,-440],[-1136,-578],[-978,-633],[-947,-770],[-569,-798],[190,-1486],[505,-578],[1168,-1403],[0,-1128],[-1389,-633],[-1231,55],[-1768,606],[-694,1100],[-347,908],[-127,1101],[127,1128],[-95,1458],[-473,825],[-632,716],[-1325,1183],[-1484,-138],[-1199,-770],[-1011,-303],[-1199,550],[-442,688],[-915,1761],[-1010,853],[-1673,-192],[-537,-551],[-663,-1926],[-536,-1018],[-884,-220],[-1326,468],[-600,1293],[32,1073],[-410,1321],[-789,633],[-1610,385],[-1137,-633],[-378,-660],[-348,-1211],[-378,-743],[-1642,-413],[-1104,28],[-1232,55],[-1325,-440],[-695,-551],[-1010,-577],[-884,-165],[-1767,-193],[-1357,-138],[-1579,-165],[-1736,-357],[-1231,-441],[-1420,-55],[-4703,1624],[-1515,247],[-1010,-27],[-1231,-275],[-1326,-83],[-1926,165],[-1578,-137],[-1547,-303],[-1641,-330],[-852,578],[-1042,55],[-1294,-578],[-947,-1101],[-915,-1183],[-537,-688],[-1136,-935],[-1042,-468],[-757,-990],[126,-1734],[757,-1155],[1642,-523],[1105,-413],[1483,-357],[631,-578],[95,-1183],[-568,-881],[-1452,-1128],[-978,-578],[-1295,-495],[-947,-413],[-1041,-990],[-442,-413],[-1484,-963],[-1483,-770],[-1294,-441],[-853,-1073],[979,-1320],[1010,-1211],[126,-770],[-2178,-908],[-1294,-55],[-1389,-55],[-1894,-28],[-1262,-220],[-695,-440],[-947,-605],[-852,-441],[-1294,-495],[-947,-193],[-1136,-165],[-1168,-137],[-1105,-138],[-947,-165],[-1294,-275],[-789,-138],[-9785,-907],[-4987,-358],[-4830,-440],[-1894,-248],[-1452,-303],[-1957,-467],[-883,-221],[-1515,-495],[-1200,110],[-978,165],[-1074,138],[-1168,990],[-1010,523],[-1073,991],[-631,495],[-1263,825],[-1357,220],[-821,-550],[-978,-660],[-1357,-798],[-1421,-743],[-1073,-578],[-1294,-825],[-631,-358],[-1421,-578],[-1073,-55],[-1073,1183],[-1042,-302],[-726,-633],[-1105,-770],[-915,-606],[-1389,798],[-1073,1458],[-316,963],[-663,1156],[-1736,55],[-1736,-550],[-1578,-523],[-1105,963],[-1862,193],[-1641,-716],[-884,-743],[-852,-1403],[-537,-1210],[-2020,247],[-1673,220],[-663,-1458],[537,-825],[378,-1239],[474,-1265],[-284,-523],[-2083,-495],[-1010,-220],[-1421,-193],[-1547,-220],[-1357,-165],[-2304,-165],[-1768,-138],[-2556,-385],[-790,-440],[-883,-908],[-2052,-55],[-1168,-28],[-1673,-385],[-442,-1293],[-1420,-330],[-5650,-1293],[-2904,-771],[-1136,-220],[-1295,-440],[-1073,-468],[-1262,-578],[-1831,-825],[-1357,-605],[-1358,-248],[-1799,-605],[-821,-578],[-978,-908],[-726,-660],[-1105,-743],[-3724,-661],[-7134,-1293],[-2494,-330],[-1010,770],[127,853],[-1074,908],[-978,413],[-1452,633],[-1642,633],[-1767,275],[-1642,-220],[-1451,-551],[-1137,138],[-1326,28],[-631,-523],[-631,-1073],[-474,-1293],[-1167,-1018],[-1231,192],[-1011,358],[-852,468],[-1483,1513],[-253,0],[-2020,-1926],[-1799,302],[-2273,881],[-1515,-853],[-1768,-1596],[-1231,-1128],[-2146,-2063],[-978,-963],[-1800,-633],[-1231,-413],[-1515,688],[-126,770],[-32,1073],[-789,633],[-568,1348],[-473,1156],[-1358,1211],[-1704,1375],[-789,523],[-2083,1403],[-537,275],[-1136,1018],[-158,1211],[-32,1678],[-1010,1046],[-1704,55],[-4104,137],[-789,276],[-852,798],[-505,660],[-379,1678],[-1641,716],[-1547,-606],[-1957,-770],[-915,-303],[-1894,-743],[-1263,0],[-757,1238],[-726,1321],[-789,1458],[-505,991],[-1831,-83],[-1105,-687],[-1136,-606],[-1042,-468],[-1610,413],[-1010,633],[-2146,138],[-1799,110],[-2115,110],[-1326,82],[-1136,330],[-1705,633],[-1389,440],[-3503,1459],[-1389,495],[-1484,193],[-1830,-358],[-1736,27],[-1011,331],[-1231,742],[-947,688],[-1010,-82],[-1136,-83],[-1326,55],[-1767,28],[-1547,27],[-1515,-27],[-1799,-28],[-1137,-27],[-1483,165],[-694,220],[-5966,1761],[-1926,440],[-2241,495],[-2178,496],[-315,-853],[189,-1651],[537,-908],[820,-1624],[537,-1100],[442,-715],[284,-1101],[0,-660],[-95,-1238],[-94,-1624],[-190,-1320],[-726,-1266],[-694,-1376],[-537,-1403],[-284,-908],[-347,-1568],[-253,-1101],[-126,-935],[-95,-1018],[-31,-1018],[-190,-1294],[-221,-853],[-347,-1293],[-505,-1293],[-505,-1513],[-347,-1623],[-347,-2119],[-126,-1156],[-316,-1485],[31,-1156],[1263,-523],[915,-1375],[-410,-578],[-126,-1486],[31,-1458],[-694,-1238],[-347,-551],[-1547,-522],[-1515,440],[-1768,468],[-947,330],[-820,522],[-1168,743],[-1736,1101],[-1673,1073],[-1073,660],[-1137,523],[-1546,385],[-853,248],[-1388,303],[-1074,495],[-726,413],[-1388,742],[-1105,633],[-1073,-1045],[-2147,522],[-1578,441],[-1105,467],[-1546,633],[-1326,468],[-884,330],[-1105,330],[-1357,330],[-1010,303],[-1357,495],[-884,633],[-758,468],[-1799,908],[-978,413],[-1547,660],[-1610,495],[-1073,413],[-1420,550],[-1579,826],[-978,605],[-2462,1376],[-1168,743],[-1042,715],[-1357,935],[-1010,661],[-852,330],[-3788,413],[-2999,495],[-6092,1018],[-8238,908],[-6660,770],[-4230,-3026],[-663,-1211],[126,-1183],[127,-908],[63,-1541],[-253,-1265],[-505,-1624],[-599,-1073],[-1263,-1651],[-347,-330],[-1610,-1678],[-1136,-1293],[-2241,-2119],[-1168,-963],[-1010,-1376],[-474,-743],[-1420,-660],[-474,-825],[-663,467],[-1925,798],[-442,165],[-1894,716],[-1389,550],[-726,110],[-1357,716],[-2557,2558],[-473,-165],[-1578,-523],[-569,-192],[-1641,-550],[-1168,-413],[-1641,-385],[-726,-2669],[-1957,-468],[-1010,-193],[-1389,-330],[-915,-192],[-1295,-220],[-1830,-413],[-2241,-1211],[-1673,-495],[-1010,-193],[-505,1844],[-2147,-1046],[221,-550],[-1231,-1596],[-600,-220],[-1388,-495],[-3346,-1568],[-158,-110],[-2778,-606],[-2998,-1293],[-1863,-303],[-1736,-330],[-1673,-247],[-1168,-110],[-2620,550],[726,1596],[127,1073],[-63,1898],[-64,1073],[-536,1238],[-947,688],[-1547,881],[-1136,798],[-442,275],[-2083,1238],[-884,413],[-1484,660],[-915,495],[-1136,715],[-1073,853],[-474,523],[-726,908],[-757,1403],[-695,1321],[-631,1403],[-411,1321],[-220,1073],[-32,1156],[221,1348],[284,1128],[379,1018],[473,935],[474,688],[599,853],[1011,1128],[978,908],[821,661],[947,797],[1136,1211],[1042,1568],[473,908],[-126,1266],[-568,523],[284,1265],[757,798],[568,963],[663,1706],[316,1403],[95,1266],[0,633],[-32,1376],[-189,2173],[-348,1458],[-284,1046],[-442,1293],[-726,1486],[-568,798],[-599,1100],[-379,606],[-2178,3852],[-884,1485],[-978,1294],[-632,880],[-1231,385],[-884,-330],[-1010,-330],[-1609,-138],[-790,138],[-1010,1073],[-473,908],[-1389,1183],[-1420,743],[-1484,743],[-1326,880],[-1041,661],[-1073,660],[-695,633],[-757,1018],[-884,1458],[-726,1100],[-821,1459],[-568,880],[-852,1211],[-789,413],[-3062,1183],[-979,357],[-1010,413],[-1010,578],[-1420,908],[-821,578],[-884,770],[-947,798],[-1325,825],[-947,606],[-1547,880],[-789,330],[-1894,578],[-1357,468],[-1421,550],[-1388,770],[-821,578],[-884,523],[-1610,935],[-4293,2312],[-2083,1100],[-1073,468],[-1326,880],[-1546,743],[-1263,358],[-978,660],[-1516,1156],[-1104,27],[-884,661],[-1042,1375],[-1010,1404],[-1042,1458],[-820,1211],[-1421,2008],[-1231,2504],[-1010,1981],[-1483,578],[-1610,577],[-284,771],[-347,1486],[-442,1155],[-537,661],[-1168,825],[-1325,440],[-1421,605],[-852,661],[-947,1155],[-347,853],[-32,963],[32,1266],[-158,908],[-631,1073],[-505,798],[-821,1293],[-789,1266],[-631,1045],[-442,1266],[-95,660],[-158,2009],[32,2531],[-32,1871],[158,1568],[316,1101],[441,1238],[632,1486],[663,1623],[189,1183],[537,1569],[568,1430],[663,1541],[1010,2504],[442,1541],[284,825],[631,1128],[379,550],[852,1018],[694,771],[1295,1183],[915,1156],[221,990],[-726,1238],[0,716],[347,1100],[-158,826],[-505,1128],[-726,825],[-915,770],[-1073,1211],[-632,1238],[-347,1128],[-347,1266],[-221,1045],[-473,1101],[-569,633],[-820,853],[-1042,1210],[-284,358],[-1042,1266],[-1073,1155],[-1010,963],[-1515,1211],[-852,880],[-1073,716],[-1768,743],[-1515,687],[-1136,496],[-1326,577],[-758,798],[-599,1404],[-411,742],[-757,1239],[-821,1100],[-852,1293],[-663,1128],[-474,661],[-599,963],[-474,853],[-473,1155],[-190,633],[-31,1403],[-221,1431],[-600,1128],[-757,523],[-1231,550],[-1642,605],[-852,331],[-1484,770],[-631,825],[-537,1349],[-568,1953],[-1136,3357],[-568,1926],[-726,3659],[-190,1101],[0,853],[95,908],[221,880],[442,1128],[347,688],[726,1211],[884,1485],[473,991],[285,880],[568,2091],[94,413],[190,1431],[189,2008],[505,1596],[474,881],[978,1183],[979,770],[1041,385],[1263,110],[821,83],[1168,660],[946,1211],[979,523],[1578,-110],[916,137],[1104,578],[758,468],[978,633],[1168,1018],[1263,1045],[1073,908],[1073,550],[1705,55],[1262,303],[1484,495],[1357,743],[600,661],[600,1210],[252,881],[537,715],[1483,1238],[1231,963],[821,523],[1357,578],[1358,110],[1388,-826],[1610,-412],[1200,165],[1578,1100],[95,798],[94,991],[379,2669],[189,1403],[95,1045],[95,1871],[63,2587],[63,1760],[63,1844],[32,1266],[-821,935]],[[58142,387178],[821,605],[1767,-412],[1547,-110],[1957,-166],[1452,-82],[1231,-83],[1389,-82],[1326,-83],[1767,-82],[1389,-83],[1768,-495],[599,-495],[1389,137],[947,275],[1294,248],[1137,991],[221,853],[473,1375],[316,771],[378,880],[379,798],[663,1238],[726,1128],[789,1238],[726,853],[1168,1403],[1042,1211],[1199,1348],[789,936],[1073,1320],[2968,-935],[189,-1458],[694,-220],[2305,-221],[757,-55],[3314,-357],[0,-1431],[2431,-303],[4135,110],[1042,-1100],[441,-440],[1137,-936],[1578,28],[442,-55],[1262,-1349],[821,-907],[758,-798],[852,-853],[1042,-1128],[536,-826],[631,-1596],[758,-1073],[884,-1568],[-726,-1926],[5492,-1238],[8838,1403],[-726,-1183],[-442,-605],[-1010,-1651],[-536,-2531],[1704,-578],[1831,-661],[757,-935],[253,-881],[600,-1073],[726,-825],[726,-715],[473,-1266],[410,-825],[505,-798],[1137,-1349],[1326,-1540],[978,-1183],[821,-1073],[726,-1184],[94,-742],[-1830,-1349],[-1295,-1073],[-1609,-1596],[-2020,-1843],[-1957,-8282],[4797,-770],[-820,-4127],[158,-853],[378,-2009],[1105,-247],[-252,-3825],[-190,-330],[-1578,-2449],[-505,-770],[-789,-2201],[-221,-1073],[-190,-1954],[-157,-1596],[3219,-357],[-789,-2476],[-284,-826],[-1515,-3329],[1894,-110],[8175,-330],[2083,-1514],[-63,-110],[-1168,-2503],[32,-1734],[-126,-1706],[347,-1540],[94,-1624],[-410,-1376],[-694,-1100],[-1547,-2339],[-379,-908],[-568,-825],[663,-1513],[631,-1431],[347,-1101],[790,-1513],[31,-935],[0,-3165],[-2052,110],[221,-3879],[979,-138],[-95,-1650],[-726,-936],[-442,-688],[-631,-1100],[-505,-1294],[-1641,-3191],[-853,-1954],[64,-2118],[599,-1926],[505,-1926],[253,-908],[947,-1018],[1199,110],[979,-28],[1420,-302],[1389,0],[978,165],[2242,330],[1104,220],[979,-27],[1799,-496],[2651,55],[1579,248],[757,770],[1073,386],[2210,220],[410,110],[2715,825],[1168,413],[2304,2201],[663,-413],[1799,-1100],[1483,275],[821,-275],[1231,-688],[884,990],[758,991],[631,1321],[221,1073],[884,1540],[599,1266],[348,1018],[252,1046],[32,797],[0,1239],[-64,1733],[-126,2146],[-221,2394],[1263,1155],[1105,138],[1483,193],[1452,137],[1484,165],[1452,165],[536,1404],[1452,605],[1831,743],[1136,440],[1074,385],[1483,303],[1484,-28],[1862,0],[1641,0],[916,220],[1073,551],[1010,1073],[694,825],[853,963],[505,633],[915,1156],[758,880],[820,1073],[1200,881],[663,385],[1136,715],[1420,908],[852,578],[916,1265],[-1231,1486],[189,991],[947,1073],[1578,990],[1484,743],[1831,963],[252,303],[-158,1678],[758,275],[1768,275],[1325,83],[1831,303],[1357,-83],[1358,-27],[1988,-55],[1105,577],[789,441],[1326,-358],[1041,-193],[1200,-1320],[1515,-165],[2304,770],[1136,440],[1863,688],[-95,936],[789,1045],[947,1266],[537,770],[505,1156],[757,1265],[379,1376],[-31,1596],[631,935],[757,1183],[1074,1569],[883,1403],[663,963],[821,1238],[-505,1156],[-979,1045],[-1168,1266],[-789,770],[-1104,1348],[63,1431],[63,1183],[1231,275],[631,688],[442,1183],[347,1073],[316,881],[442,1293],[410,1156],[-126,963],[-316,1485],[505,936],[379,1458],[347,715],[1042,908],[821,1018],[473,908],[410,936],[600,1403],[347,1458],[95,991],[63,990],[32,991],[-63,963],[-474,1458],[-347,963],[-253,963],[-221,963],[-378,963],[-442,908],[-568,1403],[-569,1431],[-536,1403],[-347,963],[-537,881],[-726,1320],[-189,991],[-253,1486],[-95,1485],[5556,3357],[884,-82],[1136,1073],[726,853],[2904,2063],[1168,991],[1136,-386],[884,-660],[1010,-743],[726,-550],[884,-605],[1199,-853],[821,-688],[884,-633],[978,-715],[789,-633],[1452,-1046],[1610,-688],[1042,1266],[1483,1843],[979,1101],[1988,193],[1421,-743],[1168,-495],[1073,-221],[1262,1459],[884,1045],[1484,193],[1925,-110],[1358,853],[757,-55],[1421,853],[1136,605],[1294,1321],[1578,852],[1515,606],[1484,578],[1420,577],[1389,523],[1768,688],[1546,660],[1673,716],[1326,633],[1768,852],[726,386],[1104,550],[1926,1018],[2367,1211],[1452,715],[2431,1293],[1767,881],[2462,1183],[916,467],[1704,853],[-1105,1294],[-978,660],[-1263,963],[-915,990],[-758,716],[-694,1513],[-884,1101],[-536,715],[-726,963],[-1105,1183],[-1105,1183],[821,1238],[1168,578],[883,523],[947,468],[1579,577],[315,1679],[221,1485],[1231,55],[884,-467],[1168,-440],[1483,-248],[1105,-55],[1357,-413],[790,-358],[1104,-605],[1389,-935],[1736,-606],[1610,-192],[1926,-83],[1199,330],[1231,358],[1231,303],[1957,247],[1326,-110],[726,-110],[1231,-385],[884,165],[410,1183],[221,1018],[158,743],[1073,716],[1199,-441],[1421,275],[1389,1018],[1483,1101],[979,880],[883,826],[632,578],[1357,1155],[-915,716],[442,1100],[1546,991],[1389,715],[821,550],[1041,633],[1421,-192],[1925,715],[1926,770],[1704,496],[284,990],[1042,881],[1925,-83],[1200,0],[1073,-110],[1105,-220],[1704,-303],[2431,-440],[1452,-578],[1483,550],[568,606],[726,1183],[632,935],[757,578],[1073,771],[379,605],[1642,523],[946,275],[916,523],[1199,1045],[1073,660],[1452,716],[726,1403],[537,1046],[379,797],[1420,551],[821,495],[1136,715],[1610,1128],[1010,743],[1610,908],[505,1458],[-1168,1184],[158,1458],[95,990],[-316,1486],[31,1513],[221,908],[569,1404],[31,963],[-821,1513],[-631,1073],[663,798],[-316,1155],[-978,661],[-1231,853],[-789,935],[94,771],[-726,1018],[-1799,220],[-1168,385],[-1294,633],[-473,1320],[663,1266],[915,605],[978,1018],[1042,1376],[505,523],[95,1210],[-1547,1073],[-1420,1018],[-1168,441],[-726,385],[-1073,660],[-1705,220],[-884,276],[-1010,357],[-1988,303],[-1610,192],[-1105,221],[-978,1458],[410,1623],[-379,1348],[221,743],[-568,1156],[-158,963],[758,990],[94,1679],[-694,1265],[-631,661],[-1768,275],[-947,-468],[-915,-880],[-284,-1514],[-2525,496],[-2683,522],[-1263,275],[-1263,468],[-1578,358],[-1862,605],[-1926,468],[-473,880],[-1420,83],[-1484,193],[-694,852],[-1452,-467],[-1200,27],[-915,-82],[-1610,-28],[-884,55],[-1452,83],[-1925,-220],[-1799,-413],[-2652,-798],[-1957,-578],[-789,-275],[-1925,-688],[-1610,-550],[-1484,-138],[-1546,-27],[-1105,-55],[-1073,165],[-1705,440],[-1389,-275],[-726,-495],[-1389,-771],[-915,-605],[-663,-825],[-726,-716],[-726,-935],[-1010,-193],[-1105,-660],[-1104,-688],[-1389,-880],[-1578,-798],[-1358,-275],[-915,137],[-1515,303],[-1105,385],[-1389,715],[-1515,248],[-1042,248],[-1294,302],[-1104,275],[-1295,358],[-978,413],[-1515,1045],[-1042,661],[-915,1430],[-379,468],[-1168,1596],[379,1045],[-1263,881],[-915,413],[-1515,605],[-410,1431],[-695,770],[-1515,550],[-2430,441],[-821,220],[-1515,467],[-32,2532],[-31,2448],[0,2284],[63,1568],[94,1266],[190,1376],[442,1430],[631,1211],[1263,2064],[1325,1981],[1452,1843],[1389,1789],[1421,1705],[4419,5448]],[[58142,387178],[-1168,523],[-1010,247],[-1641,331],[-979,302],[-1168,881],[-631,1018],[-821,1238],[-726,1045],[-473,661],[-631,1348],[-32,660],[600,1266],[1610,1348],[1010,881],[473,1238],[379,770],[915,963],[1421,1238],[1073,936],[978,1045],[1168,936],[1452,1073],[979,853],[1104,605],[1263,1101],[1389,797],[884,853],[1010,1073],[600,688],[1104,991],[979,468],[1767,797],[1516,1101],[2177,1568],[1295,963],[1104,826],[1515,1100],[790,908],[915,1293],[631,1541],[474,1458],[-158,1431],[537,1101],[252,1348],[474,853],[1104,853],[1200,853],[1136,743],[-95,1733],[-410,935],[-537,908],[-1515,936],[-1420,193],[-1326,302],[-1199,358],[-1137,165],[-1578,55],[-1925,165],[-695,110],[-1673,330],[-1262,110],[-1452,83],[-1042,110],[-1483,413],[-884,550],[-979,633],[-883,412],[-2210,1046],[-1641,743],[-884,330],[-1263,330],[-820,165],[-1421,275],[-1199,331],[-1358,412],[-883,303],[-1547,303],[-1736,-83],[-1042,-82],[-1515,27],[-1610,358],[-1673,275],[-2683,413],[-883,55],[-1610,-83],[-1642,-495],[-1294,-633],[-947,-633],[-1167,-1128],[-442,-880],[-474,-908],[-631,-853],[-789,-908],[-1358,-963],[-1357,302],[-915,1349],[126,1073],[126,1733],[-252,1128],[-284,991],[63,1733],[31,881],[-157,907],[-537,991],[-694,715],[-1168,1321],[-695,936],[-852,1513],[-442,1183],[-694,1788],[-884,1486],[-1294,963],[-1926,248],[-1420,-193],[-1294,-303],[-1042,-275],[-1736,110],[-852,716],[-474,853],[-442,990],[-726,1431],[-883,1376],[-1105,1018],[-1263,522],[-1262,248],[-1231,193],[-1957,165],[-821,1183],[-63,1431],[-32,852],[127,1184],[63,908],[126,1018],[284,1210],[979,1293],[820,771],[284,1403],[-347,1183],[-600,1431],[-473,1155],[-631,1321],[-316,1623],[-221,1018],[-821,1266],[-631,880],[347,1266],[916,1018],[789,1238],[410,936],[947,1238],[600,880],[1010,1018],[852,826],[1420,1183],[853,385],[1546,991],[537,-1376],[537,-908],[1104,-1046],[1326,-412],[852,27],[1294,440],[1231,771],[758,468],[1010,522],[1894,-55],[1073,-770],[915,-1458],[947,-2064],[348,-798],[852,-715],[1199,27],[884,468],[1010,743],[663,495],[1073,991],[1200,1320],[631,771],[158,1320],[-505,633],[-221,1101],[-221,963],[1610,743],[726,1375],[284,1101],[-158,1623],[158,1514],[189,1155],[884,688],[821,303],[1388,577],[726,853],[474,1073],[726,853],[757,441],[1295,-28],[757,-688],[821,-1183],[631,-853],[1042,-715],[1326,-385],[1167,-633],[979,-743],[1042,-743],[1231,-908],[1420,-825],[1263,853],[1104,330],[789,220],[1074,605],[726,1431],[536,1073],[1389,715],[1294,28],[695,1541],[-758,1238],[-789,770],[-979,1238],[-1231,1321],[-252,1101],[-600,1348],[505,1183],[1484,853],[1041,357],[1231,413],[916,303],[1168,358],[-32,1458],[-757,1073],[-790,963],[-599,440],[-1358,1156],[-2083,1898],[-95,138],[-1515,1651],[-221,385],[3630,1210],[-883,1431],[-632,1101],[-379,660],[-599,1761],[-1547,275],[-63,1458],[568,551],[474,990],[347,825],[757,1816],[316,743],[473,1128],[1168,1183],[821,111],[1578,82],[2525,110],[1105,55],[1452,-550],[947,-358],[1578,-440],[1358,-385],[1609,440],[632,853],[94,1018],[1168,770],[158,1376],[63,633],[253,2339],[63,577],[158,1541],[158,1431],[189,1596],[537,853],[1325,357],[821,220],[1263,-522],[757,-303],[1263,-110],[1925,-275],[1641,-193],[1011,-247],[1451,-303],[1295,-165],[1136,550],[1452,771],[1483,-166],[1737,-165],[2367,0],[2083,28],[2904,0],[7481,0],[2367,-28],[1484,-1018],[1610,606],[820,1513],[884,1293],[1073,-27],[1799,-193],[2021,-303],[726,-55],[1704,936],[410,27],[2021,165],[2051,193],[3914,1706],[2052,1210],[1326,661],[347,1651],[631,1348],[442,1183],[253,935],[505,881],[1515,247],[1767,441],[1326,-220],[1294,-83],[1389,385],[1862,358],[1389,220],[1042,358],[1326,247],[883,-1375],[2778,495],[1357,-633],[-536,-1568],[-190,-908],[1389,-1018],[1010,2559],[2525,-1321],[1295,1073],[31,1073],[821,1293],[315,1513],[790,1239],[757,1210],[695,1073],[757,1046],[695,798],[946,1018],[537,605],[1768,1981],[-853,138],[-1199,302],[-2809,853],[-158,2009],[-253,1706]]],"bbox":[100.19137,14.439,100.50818,14.80245],"transform":{"scale":[3.168103168103064e-7,3.634503634503637e-7],"translate":[100.19137,14.439]}}