{"type":"Topology","objects":{"districts":{"type":"GeometryCollection","geometries":[{"type":"Polygon","arcs":[[0,1,2,3,4,5]],"properties":{"CODE":"1701","PARENT":"17","NAME_TH":"เมืองสิงห์บุรี","NAME_EN":"Mueang Sing Buri","NAME_CN":"Mueang Sing Buri","COLOR_IDX":1}},{"type":"Polygon","arcs":[[-4,6,7,8]],"properties":{"CODE":"1702","PARENT":"17","NAME_TH":"บางระจัน","NAME_EN":"Bang Rachan","NAME_CN":"Bang Rachan","COLOR_IDX":2}},{"type":"Polygon","arcs":[[9,10,-7,-3]],"properties":{"CODE":"1703","PARENT":"17","NAME_TH":"ค่ายบางระจัน","NAME_EN":"Khai Bang Rachan","NAME_CN":"Khai Bang Rachan","COLOR_IDX":3}},{"type":"Polygon","arcs":[[11,-1,12]],"properties":{"CODE":"1704","PARENT":"17","NAME_TH":"พรหมบุรี","NAME_EN":"Phrom Buri","NAME_CN":"Phrom Buri","COLOR_IDX":3}},{"type":"Polygon","arcs":[[-12,13,-10,-2]],"properties":{"CODE":"1705","PARENT":"17","NAME_TH":"ท่าช้าง","NAME_EN":"Tha Chang","NAME_CN":"Tha Chang","COLOR_IDX":2}},{"type":"Polygon","arcs":[[-5,-9,14]],"properties":{"CODE":"1706","PARENT":"17","NAME_TH":"อินทร์บุรี","NAME_EN":"In Buri","NAME_CN":"In Buri","COLOR_IDX":3}}]}},"arcs":[[[889715,340530],[0,-1152],[-65,-676],[-490,-927],[-1633,-877],[-1371,-576],[-2548,-1052],[-783,-376],[-1633,-701],[-915,-401],[-1763,-851],[-1241,-627],[-653,-325],[-2188,-1152],[-1698,-952],[-1176,-601],[-1143,-652],[-1013,-676],[-1894,-1202],[-1502,-1002],[-1665,-1077],[-2417,-1654],[-1959,-1427],[-1143,-677],[-1046,-551],[-1926,-350],[-1274,1127],[-588,426],[-1012,601],[-1666,826],[-1535,602],[-1534,425],[-1372,351],[-1078,125],[-1796,151],[-1045,25],[-1698,25],[-1992,0],[-3005,-50],[-2743,-50],[-1437,-26],[-2221,-25],[-3298,-25],[-3625,-50],[-2123,-50],[-3167,-50],[-1796,-50],[-1503,-25],[-1535,0],[-326,-2129],[-294,-752],[-751,-1102],[-980,-1077],[-718,-776],[-3299,-1779],[-2384,-1227],[-1143,-676],[-2057,-1553],[-621,-852],[-849,-877],[-816,-375],[-980,-501],[-1274,-777],[-1175,-902],[-1111,-1177],[-555,-1102],[-1045,-501],[-1665,-601],[-1209,-676],[-2024,-201],[-1013,-1077],[-653,-626],[-1078,-1052],[-1110,-1127],[-947,-1002],[-620,-576],[-915,-977],[-490,-551],[-1110,-1127],[-1372,-1002],[-424,-1127],[-196,-852],[-751,-1027],[-523,-902],[-490,-626],[-653,-751],[-424,-652],[-1111,-1803],[3593,-702],[1698,-475],[1731,-652],[1861,-776],[1339,-852],[1274,-2054],[-1437,-902],[-1470,-501],[-1241,-626],[-1404,-776],[-947,-476],[-490,-1152],[-490,-1378],[-196,-927],[-359,-1152],[-163,-827],[-1241,-801],[-1111,-1227],[-294,-902],[-359,-852],[-620,-1252],[-1241,-226],[-882,401],[-1078,501],[-685,376],[-1144,701],[-1567,952],[-1339,526],[-784,250],[-1469,251],[-1013,100],[-1273,100],[-1633,50],[-1241,0],[-1437,-25],[-1078,-977],[-65,-851],[-131,-727],[-457,-1202],[-1110,-1052],[-523,-1252],[-294,-927],[-294,-727],[262,-1001],[32,-1578],[-359,-1103],[-196,-901],[-65,-777],[-784,-977],[-163,-1002],[130,-1027],[33,-701],[163,-1628],[-1110,-426],[-1698,-526],[-1405,-576],[-1240,-426],[-1046,-576],[-2808,-1979],[-1110,-1227],[-1013,-526],[-1045,-601],[-1959,-952],[65,-727],[196,-1427],[163,-1353],[131,-952],[131,-1603],[130,-1227],[131,-1202],[65,-627],[163,-1177],[164,-1227],[163,-1328],[98,-927],[131,-1578],[130,-1102],[98,-1327],[196,-1453],[163,-1478],[98,-1002],[131,-1327]],[[739753,223255],[-4311,-1078],[-1502,-300],[-5225,-977],[-2547,-501],[-5585,5711],[-4441,3883],[-1143,1077],[-947,876],[-1437,1278],[-1502,1227],[-1241,852],[-1111,75],[-718,-902],[-1078,-1252],[-1143,-1253],[-882,-926],[-849,-827],[-522,-526],[-4213,2530],[-1666,1277],[-1632,1478],[-1405,1027],[-1535,1478],[-1926,1703],[-1535,927]],[[689657,240112],[-1045,1578],[-588,1403],[-392,1227],[-555,3031],[-1176,4909],[-1110,3933],[-947,3406],[-1078,5436],[-1992,9293],[-980,6362],[-1698,7540],[-196,1102],[0,776],[327,1328],[392,4984],[-66,1428],[-98,1603],[-32,1202],[65,752],[98,952],[326,2755],[-359,4909],[-392,2105],[-849,876],[-783,276],[-1372,250],[-3168,576],[-2253,376],[-2058,501],[-1535,576],[-2449,752],[-1829,601],[-2841,927],[-4866,1227],[-1371,275],[-2254,401],[-979,176],[-2874,500],[-2711,677],[-2286,751],[-1012,376],[-1143,952],[1045,3181],[424,1503],[229,876],[490,1704],[196,1177],[163,751],[294,1002],[490,1103],[359,676],[-327,1177],[-130,1378],[718,952],[686,676],[1045,1127],[555,651],[1470,1603],[1110,-375],[1633,-326],[1960,501],[914,751],[229,827],[685,977],[947,701],[1078,877],[17080,10445],[-588,576],[-751,877],[-1078,1177],[-947,601],[-1502,827],[-457,1027],[-164,776],[-32,1253],[392,776],[261,852],[-359,1352],[-1209,777],[-1045,526],[-489,576],[-784,902],[-1339,1202],[-882,802],[-816,576],[-1111,826],[-1045,627],[-1012,526],[-1502,601],[-1568,275],[-1306,-325],[-980,-376],[-1208,-752],[-980,-500],[-1045,-351],[-947,-100],[-1274,100],[-1143,100],[-1829,200],[-1241,276],[-1763,626],[-1208,451],[-947,376],[-1013,451],[-1241,801],[-686,501],[-816,701],[-947,727],[-1143,426],[-1992,50],[-1731,-100],[-1404,-201],[-1437,-501],[-1372,-801],[-1208,-326],[-1372,-25],[-1175,-225],[-1339,-76],[-980,25],[-1241,51],[-1274,0],[-1926,300],[-654,426],[-1730,751],[-1274,-350],[-1143,-276],[-1078,-200],[-1698,-676],[-1143,-727]],[[605956,375848],[-980,777],[-1045,1052],[-587,1002],[-784,1277],[-457,651],[-850,1052],[-751,1353],[-294,726],[-522,902],[-327,1378],[-196,1352],[-653,2480],[-392,1278],[-1175,1177],[-1013,25],[-1273,225],[-1111,-100],[-1077,-426],[-1274,-325],[-1208,-326],[-1078,-401],[-1437,-651],[-620,-276],[-1437,-400],[-1372,-451],[-1045,-426],[-1829,-276],[-1339,326],[-849,576],[-588,902],[-98,1227],[131,1077],[163,1077],[294,1128],[163,1352],[0,1228],[-1534,976],[-1405,201],[-1926,-75],[-1633,-251],[-2090,-275],[-1699,-176],[-1077,-75],[-1437,50],[-1274,176],[-1927,501],[-1208,225],[-1992,150],[-1110,201],[-915,200],[-1077,276],[-1960,476],[-1176,325],[-1241,526],[-947,476],[-1077,601],[-882,1102],[-65,1178],[32,876],[-32,802],[-2025,2379],[261,1478],[817,1178],[979,676],[1405,826],[685,627],[262,977],[-98,1127],[-751,551],[-1437,927],[-1209,801],[-881,726],[-360,702],[229,952],[359,876],[1078,1854],[392,1378],[-294,2129],[-229,951],[-326,727],[-458,1052],[-195,651],[-294,1052],[-784,1353],[-882,726],[-1012,927],[-915,1027],[-588,977],[-391,676],[-850,802],[-1665,776],[-1339,276],[-1404,75],[-1633,50],[-1502,275],[-1078,1078],[-163,901],[-66,777],[-130,1027],[-196,776],[-457,877],[-1535,1027],[-1405,25],[-1404,-726],[-392,-602],[-686,-1002],[-914,-776],[-1241,-225],[-1959,475],[-1568,602],[-980,375],[-947,627],[-718,1377],[-33,977],[392,827],[490,876],[522,1378],[588,776],[1209,952],[1110,276],[1045,250],[1568,526],[1012,501],[522,827],[-196,902],[-1175,901],[-621,576],[-685,677],[-654,1127],[196,952],[751,1102],[360,1027],[-523,1378],[-1339,400],[-1927,226],[-1045,701],[294,1278],[686,1377],[261,1253],[360,1878],[130,727],[66,1252],[-1405,902],[-1469,-176],[-947,-325],[-1666,451],[-522,951],[-490,1403],[-1274,727],[-1535,-301],[-1371,-601],[-1568,-175],[-1600,325],[-1306,376],[-1764,852],[-816,576],[-392,1402],[555,501],[1110,677],[1013,976],[587,677],[-522,1277],[-1012,426],[-1535,777],[-882,576],[784,200],[1698,526],[1829,476],[1959,576],[1894,601],[1862,601],[1012,476],[1666,702],[1502,626],[1045,426],[1829,726],[32,1177],[-1077,1654],[-947,1452],[620,1253],[-751,952],[-914,1527],[-196,927],[326,1027],[947,827],[1045,751],[686,501],[882,852],[1241,1553],[2710,275],[12149,2881],[1535,-301],[1796,476],[98,1278],[229,1177],[261,1553],[-621,877],[-620,1052],[-719,1528],[-1110,2079],[-718,1052],[-850,826],[-1371,1228],[-2417,2555],[-2514,3281],[-1503,1878],[-489,927],[-425,777],[-261,726],[-360,1578],[-163,952],[-392,1252],[-490,1303],[-718,1227],[-1829,2555],[-1110,1578],[-621,1253]],[[521504,541392],[5519,876],[2221,501],[2613,501],[2906,526],[751,50],[3005,702],[2874,676],[228,-25],[817,-1403],[1796,401],[653,-827],[490,-1052],[490,-1102],[1698,251],[784,150],[2090,601],[620,-426],[2156,677],[979,375],[2776,977],[3103,1127],[65,51],[-947,1703],[1698,801],[1959,652],[1176,526],[1633,826],[2645,1178],[947,-1053],[3135,1153],[849,-1102],[1829,601],[686,-551],[1502,-476],[1601,526],[1763,576],[196,1077],[816,651],[1601,351],[1535,451],[1208,426],[1110,551],[1176,-126],[1339,126],[1698,425],[1470,226],[914,75],[1241,251],[1665,576],[1666,225],[1078,276],[1698,250],[1796,351],[3135,576],[-653,3832],[-751,3231],[-621,2380],[-947,4434],[-522,1903],[-359,1177],[-490,1128],[-1176,2054],[7087,2605],[2710,901],[2221,852],[2449,1052],[2547,1052],[2907,1052],[3494,1152],[3201,1052],[2972,877],[3886,1002],[4866,801],[2547,326],[2449,125],[4899,276],[4278,125],[4572,25],[1306,-50],[3070,-100],[2090,-50],[1633,-25],[4605,-50],[3657,-50],[2711,125],[2449,200],[3135,501],[5944,777],[2841,576],[1306,300],[1437,576],[1731,1002],[1666,1002],[2580,1528],[1959,1378],[2906,2430],[2188,1327],[2123,1027],[3952,1753],[2939,1103],[2710,951],[2156,977],[3004,1127],[1437,426],[1535,276],[2645,325],[1568,201],[1665,200],[2613,401],[1437,301],[1633,375],[1437,226],[2253,425],[2286,451],[1666,276],[3886,2029],[-1078,1252],[-849,1027],[-784,927],[-620,676],[-817,802],[-1012,1027],[-523,551],[-849,877],[-783,826],[-588,877],[-261,626],[-490,1152],[-360,827],[-522,1177],[-621,1303],[-816,1252],[-816,1252],[-556,1002],[-555,927],[-914,1478],[-947,1553],[-882,1478],[-653,1152],[-719,1277],[-555,927],[-620,1328],[-523,1352],[-261,1052],[-163,952],[1469,451],[425,1127],[424,827],[686,1503],[457,1428],[196,450],[588,1052],[392,752],[4343,2905],[2972,1779],[490,300],[2449,1478],[4997,3357],[5029,3582],[4148,3331],[3004,2455],[4376,3982],[4474,4108],[1796,1478],[2188,1603],[2842,2129],[5029,4334],[1927,-326],[1241,-125],[1600,-50],[1273,-1027],[-391,-1102],[1534,-827],[3985,501],[587,-1353],[1764,-150],[1274,75],[1143,50],[1077,76],[1601,175],[1796,125],[1306,50],[1600,50],[1731,126],[2188,300],[784,150],[882,902],[587,526],[1307,401],[1175,351],[1307,375],[1143,326],[1926,476],[1470,526],[2090,927],[1568,751],[849,476],[1567,701],[1013,677],[1012,676],[1012,526],[1699,852],[1567,751],[1110,501],[1339,501],[1307,651],[979,376],[1274,426],[1110,300],[1111,251],[1698,351],[1306,300],[1535,426],[1927,401],[1208,225],[1502,877],[1764,726],[1176,376],[1796,576],[1437,451],[1273,225],[1437,75],[817,251],[1241,326],[979,300],[1470,551],[1143,151]],[[865451,706610],[65,-526],[131,-2079],[98,-1804],[228,-3131],[490,-4859],[131,-3081],[196,-501],[-1862,-576],[-5682,-927],[-2057,-476],[4898,-7314],[3103,-5937],[2351,-4007],[2221,-3106],[2286,-2655],[1535,-1779],[522,-576],[457,-927],[588,-1177],[817,-1728],[1045,-3582],[751,-4910],[98,-726],[196,-1077],[1110,-6788],[490,-1678],[1763,-6638],[131,-827],[-1470,-451],[-2057,-25],[-588,-1227],[980,-2354],[196,-1503],[-1862,-526],[-130,-151],[1077,-5110],[196,-1001],[-294,-902],[-555,-1403],[-32,-1077],[-66,-1378],[196,-1127],[229,-801],[359,-1453],[294,-1478],[196,-1127],[131,-1227],[98,-727],[0,-1127],[130,-576],[196,-1253],[784,-5660],[326,-2781],[-130,-4283],[-261,-1703],[-784,-1779],[-1927,-6738],[-1731,-7664],[-490,-5386],[-130,-1453],[-294,-1578],[-947,-5310],[-294,-5736],[-490,-826],[-1306,-1278],[-1568,-1152],[-849,-551],[-2906,-1553],[-1078,-426],[-3527,-1403],[-6172,-1753],[-11822,-3031],[-490,-150],[-17570,-5235],[-11463,-3983],[-5551,-2004],[-7642,-2755],[-7968,-2580],[-10418,-3156],[-261,-75],[-327,-1027],[-1829,-2380],[-1437,-2254],[-457,-852],[-228,-751],[195,-1653],[262,-1052],[522,-1453],[882,-2154],[3266,-6388],[1502,1077],[1894,-3556],[392,-1078],[65,-976],[-98,-2205],[-65,-1427],[65,-1002],[196,-1854],[164,-952],[391,-1152],[164,-1503],[-229,-902],[-33,-951],[164,-1128],[0,-726],[-653,-1328],[-1307,-350],[-196,-777],[-359,-977],[-424,-801],[-392,-1102],[588,-952],[1730,-526],[-163,-1328],[-33,-701],[556,-1127],[261,-1478],[98,-1578],[163,-1027],[0,-1202],[-294,-777],[-653,-952],[-425,-1252],[-391,-1002],[-392,-751],[-653,-727],[489,-877],[294,-1527],[-522,-877],[-98,-1228],[98,-1502],[1371,-1002],[1568,150],[1045,25],[1959,-326],[1339,-576],[654,-576],[718,-1077],[327,-701],[294,-1203],[228,-1502],[131,-827],[98,-1303],[-262,-1102],[-326,-952],[-1241,-3005],[424,-1303],[523,-1377],[653,-802],[719,-476],[1828,-1052],[1339,-751],[1013,-1378],[228,-802],[360,-3832],[228,-701],[3037,-5135],[2809,-5486],[-1143,-451],[-1176,-526],[-1469,-751],[-1568,-376],[-457,-125],[522,-626],[1372,-1503],[-65,-777],[32,-1177],[0,-651],[-261,-1002],[-882,-1077],[131,-777],[522,-751],[915,-1353],[1273,-1753],[7871,-8216],[1306,226],[751,100],[1470,300],[1273,376],[1470,701],[1437,902],[1306,100],[1372,301],[816,1102],[1241,25],[915,100],[1143,376],[1404,726],[1665,-1628],[1437,-2229],[2090,-2129],[1274,-1227],[3331,1252],[1698,50],[1274,-100],[1665,-676],[621,-977],[229,-576],[32,-1078],[-522,-1202],[-2123,-2956],[-1959,-450],[-882,-251],[751,-2655],[751,-276],[1731,-275],[1371,-175],[1274,-101],[882,-25],[1273,0],[1274,50],[980,-175],[1404,-401],[1404,-476],[784,-300],[1241,-476],[1894,-401],[1045,25],[1698,451],[1013,526],[751,626],[620,576],[1241,627],[817,300],[1339,176],[1404,-25],[1666,-527],[1110,-726],[1012,-676],[1209,-601],[816,-226],[1600,-50],[1176,75],[1045,-50],[1437,-125],[1861,-150],[2058,-76],[-359,-1077],[-2189,51],[-1371,-26],[-1339,-425],[-392,-802],[-1012,-1853],[-915,-1754],[-718,-1327],[-588,-977],[-653,-727],[-751,-1152],[-523,-1478],[-620,-1077],[-425,-376],[-1437,-500],[-1306,-702],[-1535,-676],[2809,-4834],[391,-777],[523,-1979],[-131,-1578],[-3298,-200],[-33,-777],[-130,-1277],[-653,-1603],[-458,-877],[-881,-977],[-262,-876],[-32,-752],[65,-1127],[131,-877],[392,-2254],[228,-1052],[229,-852],[424,-1302],[327,-877],[555,-1102],[1339,-1177],[1600,-501],[882,-426],[1143,-551],[1894,-301],[1666,-25],[1338,100],[1372,-125],[915,-100],[1600,25],[1502,25],[1959,50],[1372,0],[1633,-25],[3755,-50],[1633,-276],[1143,-150]],[[605956,375848],[-65,-576],[261,-1353],[229,-976],[359,-1052],[555,-1103],[718,-1427],[1144,-952],[1143,-802],[653,-426],[1535,-851],[-588,-1403],[-1013,-200],[-1926,-576],[-817,-1052],[-359,-1002],[-229,-627],[-457,-1001],[-653,-977],[-719,-677],[-1338,-1327],[-1143,-1127],[-1013,-1027],[-555,-401],[-555,651],[-1045,877],[-1437,952],[-10124,-4133],[-2319,-1203],[-1241,-1002],[-1110,-1502],[-849,-1153],[-359,-626],[-621,-1277],[-490,-1253],[-261,-726],[-522,-1403],[-490,-1177],[-392,-1077],[-261,-701],[-588,-1478],[-523,-1303],[-359,-1002],[-359,-952],[-555,-1452],[-425,-1153],[-490,-1327],[-294,-777],[-326,-826],[-457,-1002],[-458,-877],[-457,-726],[-620,-827],[-980,-952],[-1306,-977],[-817,-626],[-718,-501],[-1307,-751],[-816,-401],[-1176,-476],[-1796,-626],[-1241,-351],[-1796,-350],[-1665,-176],[-1241,-75],[-1862,0],[-1078,25],[-1469,-25],[-980,25],[-1567,-25],[-1437,25],[-1666,0],[-2221,25],[-1861,-25],[-1829,25],[-1469,25],[-1078,0],[-1502,0],[-1209,25],[-1567,25],[-3070,-25],[-1274,0],[-1371,0],[-1437,25],[-1633,-25],[-1568,25],[-1404,0],[-1894,0],[-816,0],[-1829,25],[-882,0],[-2449,0],[-1600,0],[-2058,25],[-1469,-25],[-1307,25],[-2024,0],[-1241,0],[-1111,-25],[-1992,0],[-1535,25],[-2449,0],[-1633,25],[-849,-25],[-1731,25],[-1045,-25],[-1927,25],[-1926,0],[-1568,-25],[-914,0],[-1405,0],[-1437,25],[-1469,0],[-1241,26],[-1600,0],[-1078,25],[-1045,0],[-1470,0],[-1600,25],[-914,0],[-1502,25],[-2058,0],[-1927,225],[-1502,251],[-882,25],[-1469,-25],[-1437,0],[-1764,-51],[-2416,26],[-2613,-26],[-1796,26],[-1241,-526],[-490,-1027],[-490,-1052],[-392,-852],[196,-952],[915,-1277],[392,-702],[620,-1102],[359,-676],[490,-977],[555,-1002],[654,-1353],[-1470,-1477],[-1143,-1804],[-882,-1177],[-1175,-1152],[-1078,-977],[-2645,-3482],[-588,-651],[-817,-927],[-1469,-1879],[-3397,-3857],[-1992,-2254],[-1045,-1328],[-522,-626],[-784,-927],[-2547,-2304],[-1143,-927],[-294,-276],[-1470,-1377],[-5225,-3282],[-3788,-2254],[-1960,-1678],[-718,-401],[-1927,-1027],[-2188,-1052],[-2613,-1052],[-6172,-2179],[-1306,-376],[-1633,-50],[-1600,200],[-1274,251],[-1241,426],[-1273,451],[-915,475],[-1763,1002],[-1143,802],[-490,476],[-3135,1954],[-2809,1477],[-653,301],[-1665,326],[326,-2280],[-3200,-1077],[-2743,401],[-719,-401],[-914,-952],[-1176,-501],[-620,-1077],[97,-1127],[229,-877],[-1078,-926],[-1339,-551],[-1404,-75],[-1339,275],[-1208,-100],[-2841,-1253],[-229,-50],[-5813,-1728],[555,-3707],[-18810,1027],[-1372,75],[-1927,100],[-1045,75],[-2547,151],[-1698,100],[-1241,75],[-1633,75],[-1502,75],[-817,50],[-1273,75],[-1829,76],[-1698,100],[-817,50],[-1861,100],[-1600,100],[-3560,176],[-1992,125],[-1731,100],[-1959,100],[-1045,50],[-1078,76],[-1372,75],[-1110,75],[-1731,75],[-1633,100],[-1437,75],[-1371,50],[-1176,50],[-1829,126],[-1306,75],[-1796,100],[-1045,50],[-5127,301],[587,1453],[588,1177],[359,701],[882,1428],[425,1027],[914,877],[392,626],[98,1027],[229,2004],[32,2630],[131,2655],[131,2580],[32,1703],[196,2530],[65,1227],[262,1553],[163,1879],[163,2404],[66,2155],[261,1402],[261,1052],[490,1478],[849,1378],[261,751],[817,1303],[522,1402],[-588,1153],[131,1152],[882,776],[849,727],[555,651],[621,802],[293,726],[327,1428],[359,876],[359,652],[490,851],[-228,952],[-2482,501],[-1568,501],[2482,2104],[882,1027],[-229,526],[-1012,1453],[-588,300],[-3331,-801],[-849,1027],[-1110,1252],[-751,1052],[-719,1077],[-816,1378],[-392,701],[-849,977],[-751,476],[-1111,651],[-1306,1178],[-849,676],[-621,726],[-1208,952],[-1012,476],[-1111,802],[-979,977],[-654,751],[-620,777],[-719,1052],[-457,876],[-522,1203],[-425,901],[-653,1052],[-392,652],[-816,1202],[-523,1528],[-1175,2054],[-980,1553],[-621,1252],[-424,777],[-392,952],[-490,1227],[-816,1152],[-621,1077],[-686,1353],[-620,1227],[-523,852],[-816,1377],[-555,1052],[-719,1328],[-620,1202],[-621,1278],[-1012,1903],[-555,1027],[-523,877],[-620,1252],[-1568,-425],[-784,-201],[-1698,-300],[-1208,-75],[-3103,-226],[-1698,-125],[-1894,-150],[-1894,-151],[-1241,-175],[-1927,-301],[-3070,-476],[-5551,-851],[-5291,-777],[457,-2630],[262,-1803],[130,-752],[0,-851],[66,-927],[-66,-1378],[-392,-952],[-359,-676],[-947,-1377],[-751,-1002],[-718,-1478],[-523,-1353],[-326,-952],[-621,-1728],[-425,-952],[-914,-1277],[-1110,-852],[-1013,-526],[-1110,-451],[-3037,-1177],[-1894,-726],[-1111,-702],[-783,-701],[-588,-852],[-359,-751],[-392,-752],[-164,-801],[-98,-1127],[360,-1503],[326,-1077],[359,-952],[850,-1052],[718,-601],[1078,-852],[849,-626],[1241,-827],[1469,-1027],[2254,-1628],[783,-601],[1993,-1603],[1502,-1077],[947,-802],[1502,-1453],[1306,-1252],[686,-776],[490,-827],[882,-1603],[882,-1578],[293,-626],[164,-1052],[163,-1428],[163,-1202],[-163,-1528],[-294,-902],[-294,-1077],[-326,-927],[-392,-1152],[-849,-1353],[-686,-902],[-1013,-1077],[-718,-526],[-1078,-676],[-1306,-751],[-1437,-852],[-2253,-1478],[-1666,-476],[-1894,576],[-2221,100],[-1502,-100],[-1339,-175],[-2482,-326],[-1469,-175],[-1731,-301],[-1176,-175],[-6368,-726],[-2351,-276],[-2744,-351],[-3004,-325],[-4572,-576],[-1731,-125],[-32,1177],[0,952],[-33,701],[-33,927],[-32,1503],[-131,1127],[-131,801],[-228,927],[-425,1503],[-261,852],[-294,1127],[-327,1027],[-2743,651],[-6139,-1002],[-1045,-150],[-1241,-176],[-1633,-200],[-1470,-200],[-784,-100],[-1306,-176],[-784,-125],[-1600,-225],[-1469,-176],[-1078,-150],[-1013,-125],[-1730,-251],[-2025,-275],[-1535,-602],[-1045,-375],[-2057,-125],[-1176,0],[-1306,200],[-1535,75],[-1405,-125],[-1012,-75],[-1894,-151],[-1568,-125],[-979,-75],[-1503,-125],[-947,-75],[-1730,-151],[-948,-75],[-1338,-100],[-1993,-200],[-1502,-76],[-1502,451],[-914,752],[-1143,977],[-915,776],[-2025,-300],[-1730,-1378],[-1503,-1152],[-1600,-1153],[-980,-726],[-1012,-801],[-1012,-802],[-1731,-1428],[-1633,-1302],[-1437,125],[-1339,376],[-947,175],[-1274,-50],[-849,0],[-1600,-25],[-1731,801]],[[109565,297522],[229,176],[1829,1553],[1730,1277],[360,276],[1959,1453],[719,551],[1404,1102],[751,726],[686,777],[457,801],[457,952],[294,927],[98,902],[-65,701],[-392,1352],[-359,902],[-425,727],[-849,1052],[-751,876],[-1535,1854],[-1208,1277],[-1274,1403],[-718,1027],[-229,601],[-98,1102],[523,1528],[457,952],[620,1052],[359,401],[1797,1277],[1273,1178],[555,551],[654,826],[457,1102],[163,1353],[65,1302],[-98,1178],[-326,1277],[-784,2330],[-490,1628],[-130,576],[-229,1127],[-294,1453],[-163,1578],[98,952],[424,1052],[359,526],[1078,1002],[457,375],[2254,1278],[1437,826],[1077,677],[1078,977],[2057,2003],[752,777],[587,1127],[196,526],[229,1152],[0,827],[131,1328],[-66,951],[-424,1553],[-164,702],[-326,851],[-457,902],[-523,752],[-1012,1152],[-490,451],[-1404,851],[-294,151],[-1829,876],[-1241,802],[-2645,1678],[-1405,952],[-1436,1177],[-1013,902],[-882,726],[-1143,1052],[-522,752],[-33,1603],[359,1177],[556,1428],[620,927],[980,1027],[980,651],[2384,1478],[1534,926],[1862,1027],[1665,952],[1437,952],[751,726],[915,1128],[816,1302],[686,802],[1078,1002],[1371,951],[980,476],[1764,602],[1371,275],[1666,601],[914,752],[849,977],[392,726],[621,1403],[424,1803],[131,726],[65,927],[-98,802],[-65,876],[0,1178],[-131,1177],[-947,1378],[-1241,977],[-947,450],[-947,326],[-1535,276],[-1600,75],[-1894,25],[-1731,150],[-1568,225],[-979,126],[-2417,275],[-1045,100],[-1110,176],[-1209,50],[-1339,-251],[-1828,-601],[-1078,-350],[-1339,-426],[-1241,-401],[-1764,-701],[-1273,-476],[-1241,-601],[-849,-476],[-1307,-702],[-1861,-651],[-1110,-250],[-1405,-201],[-1208,25],[-1535,75],[-2025,201],[-1175,150],[-1437,251],[-1306,350],[-980,351],[-1339,651],[-1306,802],[-784,676],[-915,776],[-947,902],[-947,977],[-783,1002],[-621,877],[-392,776],[-359,1127],[-229,1879],[-98,751],[-130,1278],[-229,1378],[-229,1077],[-228,826],[-261,777],[-294,826],[-555,1278],[-719,1002],[-522,926],[-425,1278],[-261,801],[-196,1503],[98,852],[-163,1478],[0,977],[489,1177],[262,501],[849,1152],[392,426],[947,852],[947,676],[1077,426],[1601,325],[1502,126],[1306,0],[1470,-151],[1273,-75],[1209,-50],[1012,25],[1372,150],[1077,251],[1894,526],[1797,426],[1077,150],[1764,150],[1175,25],[1829,-75],[1698,100],[915,201],[1731,551],[1371,801],[555,677],[458,726],[555,902],[588,851],[424,552],[719,776],[686,626],[1012,727],[1110,501],[1829,676],[1698,726],[849,251],[1143,225],[1307,150],[1926,251],[1372,275],[1829,426],[2057,752],[1176,501],[849,250],[2874,927],[1633,601],[-1470,2505],[-424,776],[-752,1253],[-1273,2104],[-817,1252],[-685,1027],[-654,952],[-522,877],[-196,1528],[-1274,-351],[-1567,-601],[-1241,626],[-817,701],[-751,526],[-3984,1679],[-3494,1402],[-980,276],[-1763,426],[-1143,250],[-1503,201],[-1012,0],[-1208,-326],[-2188,-852],[-5683,-2254],[-2808,-1127],[-686,325],[-1600,-400],[-1078,-426],[-882,-301],[-1339,-300],[-882,-176],[-4016,-926],[-5748,-1328],[-4082,-877],[-3919,-826],[-4311,-877],[-718,-150],[-1470,-251],[-3429,-476],[-4605,-601],[-1175,-150],[-1372,-301],[-718,-250],[-1535,-626],[-2645,-927],[-2580,-701],[-1143,-226],[-3266,-451],[-2939,-401],[-1274,-100],[-1208,0],[-1372,326],[-2841,877],[-1339,425],[-2188,802],[-2417,1077],[-3755,1753],[-2907,1253],[-1469,526],[-1601,551],[-3657,1277],[-1176,401],[-1371,827],[-817,1177],[-65,1227],[392,2029],[522,2430],[66,701],[-229,1052],[-849,2205],[-327,951],[-163,927],[0,2455],[65,3757],[33,1378],[196,2154],[294,2279],[163,2179],[0,1278],[-490,1528],[-522,751],[-555,677],[-1209,1352],[-1077,1127],[-686,652],[-1372,1127],[-1175,851],[-621,426],[-1796,1152],[-1045,677],[-1372,1177],[-653,1227],[-163,902],[32,1328],[327,1878],[621,3206],[163,927],[32,1478],[-293,1854],[-327,1678],[-98,426],[-523,1377],[-1045,2856],[-195,551],[-294,1378],[-229,1703],[0,801],[131,977],[261,752],[718,1553],[523,901],[1339,1178],[1175,451],[2482,551],[1927,501],[1013,325],[1371,551],[1633,927],[1666,952],[1208,351],[1469,275],[4932,752],[2351,350],[1535,50],[2613,-175],[5682,-476],[4213,-175],[1959,225],[751,150],[1307,301],[1241,301],[2873,951],[1633,677],[523,225],[1208,676],[2221,1378],[1110,1002],[392,651],[588,2230],[718,2755],[523,1353],[588,1152],[1632,2605],[2874,3657],[2254,2981],[1110,1477],[947,1528],[327,576],[1306,3257],[1045,3381],[359,1253],[98,601],[98,1177],[98,2279],[-33,1303],[5193,801],[816,-1152],[4736,376],[13259,977],[6694,501],[-8099,-7139],[101042,-7289],[1176,-501],[1273,-601],[2711,-701],[1535,-25],[1045,-101],[1077,-400],[1535,-276],[915,-25],[1273,-601],[-65,-1177],[914,-1203],[1731,-250],[980,-151],[2253,-325],[2384,-351],[5944,-851],[6107,-727],[3037,-200],[2482,-25],[1502,-25],[1307,50],[1567,50],[1339,25],[1502,75],[1209,75],[2057,75],[490,25],[2286,101],[1012,-25],[1339,-201],[1600,-275],[1797,-602],[816,-601],[1437,-926],[751,-451],[653,476],[1045,701],[686,476],[2057,1302],[2907,1829],[2155,1503],[882,551],[1274,626],[1600,952],[816,877],[294,1427],[-163,1203],[-294,1302],[-196,1278],[-98,526],[1404,0],[1176,-25],[1535,25],[1535,25],[1273,125],[1209,200],[1339,125],[2057,26],[1568,425],[1012,451],[1143,150],[947,-100],[1502,25],[1503,-75],[1045,-25],[1600,75],[849,126],[1861,275],[1143,401],[1437,576],[1045,100],[1829,-225],[1437,-251],[1470,-175],[881,0],[1209,-251],[1600,-225],[1470,-225],[979,75],[1862,451],[1861,676],[2939,1127],[1927,476],[1698,426],[1568,526],[2286,826],[882,401],[1208,727],[816,500],[1013,602],[979,501],[1241,701],[1176,676],[1176,601],[1894,902],[1045,326],[1796,225],[1437,100],[1927,226],[1829,250],[1339,201],[914,175],[1143,276],[1372,350],[914,276],[1012,551],[1568,551],[980,376],[1632,626]],[[348061,589309],[948,-827],[849,-476],[1241,-576],[1502,-325],[1437,125],[1143,225],[1567,276],[1241,-326],[686,-526],[914,-676],[1045,-727],[1372,-701],[947,-300],[1143,-326],[1176,-276],[1894,-275],[1698,150],[1208,276],[850,250],[1208,326],[1045,200],[1404,-100],[2025,-50],[1012,-1102],[-490,-1102],[0,-977],[1731,-301],[1013,351],[1339,877],[1567,801],[1241,351],[1110,-50],[1764,-401],[1078,-501],[1175,-852],[490,-876],[196,-1353],[0,-927],[98,-1177],[1176,-376],[1796,100],[1208,251],[1698,902],[1405,751],[783,376],[1176,401],[2025,250],[1176,251],[849,901],[32,1127],[-98,902],[-228,1052],[32,651],[1045,777],[1633,977],[980,651],[1045,276],[1143,-476],[718,-627],[915,-500],[1437,-26],[1404,627],[1764,1102],[1241,676],[1698,752],[1894,225],[2025,-75],[1306,-100],[1208,-251],[1372,-300],[1469,-151],[1339,-50],[1535,-75],[1796,-75],[1372,-200],[980,-451],[1339,-1002],[1077,-551],[1862,-50],[1077,275],[1862,326],[1306,-326],[1111,175],[1763,-125],[1437,125],[1241,1203],[1110,751],[1666,-25],[1208,-401],[817,-926],[-196,-727],[-196,-902],[914,-951],[2319,-827],[980,-526],[914,-1403],[980,-952],[1437,-526],[1045,-1177],[685,-526],[1111,-325],[1469,-401],[-228,-1278],[-1241,-826],[-784,-727],[-163,-701],[718,-1202],[849,-451],[1600,-476],[1307,-50],[1535,401],[979,375],[1339,401],[1535,226],[817,50],[2057,150],[1241,-226],[1110,-1077],[66,-926],[-425,-1002],[-882,-802],[-1535,-1252],[-685,-752],[-294,-826],[65,-1303],[229,-1102],[326,-852],[490,-1001],[588,-827],[784,-726],[1045,-426],[1339,-25],[881,200],[1209,351],[1894,876],[1306,777],[1568,776],[686,326],[1338,476],[1176,75],[1470,-301],[1143,-1152],[457,-1377],[359,-1278],[523,-1277],[522,-877],[1502,-2029],[1666,-2179],[1927,-2605],[1633,-2204],[1143,-1228],[1110,-601],[849,-250],[1306,-101],[1209,251],[849,326],[1535,776],[1796,777],[1339,275],[1045,100],[1077,75],[1339,176],[1568,275],[1600,276],[1600,150],[1143,-376],[1176,-976],[490,-1528],[33,-777],[-131,-927],[-392,-1377],[-196,-827],[0,-827],[359,-1477]],[[689657,240112],[-4899,-2830],[-5650,-2405],[-18484,-6913],[-8686,-5085],[-5846,-3156],[-8622,-4659],[-2090,-100],[-2286,25],[-1241,-176],[-1339,-250],[-947,-251],[-4147,-1352],[-4474,-952],[490,-1002],[490,-777],[587,-901],[621,-902],[686,-902],[1175,-1377],[849,-1002],[556,-501],[1045,-777],[914,-576],[1372,-701],[1045,-376],[1469,-351],[947,-250],[2841,-927],[-2057,-1803],[-1176,-852],[-914,-651],[-784,-476],[-1339,-1052],[-6009,-5235],[-18745,-15831],[-4964,-2780],[-15610,-8792],[-33180,-14177],[-5911,-2705]],[[545344,146332],[-718,926],[-5715,1378],[-817,200],[-2122,451],[-1405,351],[-2122,576],[-1176,326],[-1535,501],[-1012,400],[-1339,576],[-621,1002],[-33,1328],[0,1528],[-32,927],[261,1152],[457,701],[0,1027],[-849,1253],[-947,776],[-1045,1278],[-261,1077],[-751,901],[-2025,-325],[-1078,-401],[-1567,626],[-555,802],[-425,776],[-653,1027],[-523,827],[-751,1052],[-457,576],[-914,776],[-915,426],[-1371,50],[-1209,-25],[-1306,0],[-1763,677],[-784,425],[-1078,451],[-1045,276],[-1339,150],[-1208,125],[-686,1328],[163,977],[555,776],[1111,1102],[686,877],[424,1353],[392,2404],[65,677],[-98,951],[-1371,702],[-1078,150],[-1110,125],[-1111,677],[-1404,1327],[-1012,651],[-1601,752],[-653,601],[-294,952],[-130,1077],[-196,1277],[-392,952],[-718,1052],[-1078,1303],[-1208,1277],[-1274,1152],[-915,902],[-947,1027],[-1404,902],[-1143,401],[-816,225],[-1568,351],[-882,300],[-1306,627],[-1176,726],[-1012,526],[-1078,100],[-1208,-451],[-980,-501],[-783,-476],[-915,-576],[-1241,-901],[-882,-426],[-1208,-426],[-1698,-551],[-1143,-276],[-3886,-526],[-3168,-325],[-1862,-376],[-1012,-251],[-2090,-500],[-3168,-877],[-2384,-601],[-2482,-476],[-1273,-226],[-1600,-275],[-1568,-326],[-1568,-376],[-1502,-350],[-1241,-251],[-1437,-200],[-1469,150],[-1829,276],[-1698,-25],[-1241,-25],[-1143,-76],[-3364,-300],[-1372,-100],[-1110,-151],[-1665,-450],[-1372,-652],[-1208,-776],[-980,-727],[-555,-751],[-457,-676],[-588,-727],[-947,-1352],[1143,-1228],[1404,-751],[849,-301],[1600,-551],[1568,-401],[784,-200],[1534,-275],[1568,-526],[1143,-401],[1666,-902],[979,-651],[1078,-1253],[457,-1052],[392,-1077],[0,-1127],[33,-1152],[-164,-1303],[-228,-1002],[-1404,-901],[-1078,-301],[-947,-225],[-2058,-576],[-1339,-401],[-1567,-426],[-588,-100],[-1568,-25],[-2122,-125],[-1372,-76],[-2351,-125],[-1600,-100],[-1829,-200],[-2188,-176],[-1405,-100],[-979,0],[-1927,25],[-1600,25],[-1731,-125],[-1927,-376],[-1992,-401],[-1633,25],[-1208,176],[-1600,325],[-1111,476],[-1437,1102],[-620,677],[-947,901],[-784,552],[-1535,425],[-1012,101],[-1927,-101],[-1470,-325],[-1241,-526],[-1796,-702],[-1371,-601],[-882,-576],[-849,-676],[-817,-1303],[-98,-1227],[-130,-1227],[-751,-1153],[-784,-951],[-947,-1002],[-653,-602],[-621,-701],[-686,-1302],[-555,-1328],[-163,-902],[-65,-927],[-33,-1052],[33,-1001],[228,-1253],[425,-1803],[-196,-1278],[-588,-426],[-1959,-125],[-1209,676],[-783,602],[-1372,976],[-1502,652],[-1437,601],[-849,576],[-947,1002],[-490,601],[-980,1052],[-1437,1127],[-1012,752],[-849,526],[-784,501],[-1045,576],[-1176,576],[-1078,376],[-1306,526],[-1535,601],[-1502,501],[-1208,401],[-1502,475],[-1013,351],[-1110,326],[-1666,576],[-1045,351],[-1959,450],[-1209,226],[-1763,401],[-1241,676],[-1470,827],[-979,375],[-915,301],[-1339,401],[-1208,375],[-1731,501],[-1143,376],[-1535,476],[-947,275],[-1273,376],[-1143,251],[-947,100],[-1176,200],[-1894,451],[-1176,301],[-1763,751],[-1209,902],[-1241,902],[-816,651],[-915,726],[-914,977],[-751,877],[-1045,1227],[-653,727],[-523,676],[-1045,1227],[-686,877],[-816,1177],[-457,827],[-457,876],[-392,627],[-523,1102],[-359,1352],[-131,727],[-228,902],[-457,1327],[-948,1303],[-1143,951],[-1208,1052],[-490,577],[-1763,175],[-915,-351],[-1045,-401],[-620,-901],[-1078,-1153],[-1633,-375],[-914,-251],[-1470,-426],[-1371,-450],[-1176,-351],[-1894,-476],[-1372,-601],[-816,-451],[-1568,-1002],[-1110,-827],[-849,-526],[-1306,-400],[-1111,-75],[-1077,25],[-1274,125],[-1110,200],[-1633,651],[-1764,526],[-1927,101],[-1241,25],[-979,25],[-1307,-25],[-1273,125],[-1829,351],[-1241,-226],[-1208,-350],[-947,-126],[-1829,276],[-1992,150],[-1666,-225],[-1077,-276],[-1176,-150],[-1437,-100],[-1012,-50],[-1241,-176],[-1274,-350],[-1502,-401],[-1078,-50],[-1861,-376],[-1862,351],[-1502,300],[-1274,1052],[-620,1453],[-2482,250],[-359,1403],[-1111,1177],[-1339,126],[-1273,25],[-1013,-226],[-1143,-250],[-979,-176],[-1176,326],[-1306,676],[-1601,877],[-1469,1052],[-1404,1177],[-1470,802],[-784,376],[-1241,601],[-1502,726],[-1796,351],[-2221,25],[-1502,0],[-1927,-476],[-1600,-526],[-1012,-651],[-1927,-376],[-1307,-776],[-718,-752],[65,-1453],[-783,-1127],[-915,-50],[-1143,-250],[-1665,-101],[-4344,-375],[-2906,-201],[-2711,-200],[-1078,-75],[-1371,-151],[-1502,-300],[-3299,-651],[-1012,-226],[-1764,-426],[-5127,-1152],[-1992,-376],[-3658,-926],[-2514,-551],[-1078,-176],[-2090,-275],[-980,-25],[-2024,75],[-1568,-125],[-3527,-602],[-3070,-476],[-228,1528],[-294,927],[-523,1077],[-490,727],[-783,851],[-850,702],[-1502,876],[-1894,501],[-1437,75],[-784,-75],[-1371,-275],[-3854,-777],[-1959,-400],[-1306,-226],[-1045,-100],[-1241,-125],[-3266,-526],[-2025,-126],[-1470,101],[-947,200],[-1077,426],[-1241,776],[-849,652],[-1372,1127],[-1110,1177],[-784,1102],[-686,1678],[-424,1478],[-294,1303],[-327,1352],[-490,2405],[-294,1102],[-490,1528],[-293,802],[-490,1527],[-196,1478],[32,2104],[0,1052],[-228,752],[-947,801],[-882,351],[-1339,25],[-2123,-175],[-1992,-50],[-3951,375],[-1241,151],[-980,125],[-1600,175],[-4540,551],[-1241,176],[-4082,601],[-2808,501],[-817,200],[-1828,526],[-1176,476],[-1078,476],[-1143,902],[-522,851],[-131,677],[229,1127],[294,701],[489,1177],[523,1353],[228,576],[556,1528],[457,1403],[294,676],[490,1077],[326,727],[784,1402],[718,1127],[719,1253],[555,1002],[817,1302],[914,1378],[131,200],[914,1253],[849,1202],[719,1353],[685,1503],[490,926],[490,777],[784,1127],[686,977],[555,977],[555,1202],[914,1929],[131,701],[0,1303],[0,876],[-33,777],[98,1428],[33,275],[163,1553],[131,1227],[-98,1278],[-98,651],[-457,1102],[-196,526],[-849,3282],[-294,1402],[-131,1453],[-33,1052],[66,1303],[163,1002],[196,1177],[98,651],[327,1578],[228,1127],[359,1152],[196,526],[556,1253],[620,1102],[1078,1403],[1175,1152],[262,275],[1371,1253],[882,751],[751,601],[915,827],[522,451],[1110,1002],[1568,1277],[196,176],[2090,1252],[2188,1152],[2253,1303],[653,401],[1666,1252],[359,250]],[[760490,66578],[1274,1253],[719,901],[849,727],[1012,501],[1339,250],[2874,426],[2220,451],[1470,300],[1992,201],[1013,-25],[1371,-75],[1862,200],[1371,476],[1306,376],[1960,400],[947,201],[947,476],[718,977],[458,1277],[163,877],[-98,1102],[-718,1227],[-1143,1177],[-556,652],[-457,1052],[-65,1027],[196,1427],[294,1077],[261,977],[98,1378],[-196,701],[-523,1453],[-489,1152],[-327,1153],[131,1002],[196,751],[751,1378],[294,751],[359,1102],[33,1303],[-98,726],[-196,852],[-360,1202],[-32,827],[457,1277],[555,1052],[849,1403],[849,1503],[327,601],[1241,1177],[392,1077],[-1339,2755],[-1502,1078],[-1797,375],[-2971,1102],[-882,1128],[32,726],[425,902],[163,2379],[-783,151],[228,2529],[229,1078],[1567,826],[-1208,1854],[457,1027],[33,1477],[947,552],[1959,-151],[1862,226],[-163,3632],[849,776],[-262,1553],[-424,2580],[-294,1177],[-425,1704],[-490,1427],[1143,1228],[915,200],[1633,-150],[1731,75],[914,852],[751,626],[588,1127],[65,1252],[-130,1503],[-164,877],[-1665,401],[-1960,401],[-228,2529],[-1143,-225],[-1568,-50],[-1208,351],[-196,1302],[0,752],[131,1427],[163,1503],[98,1403],[228,1302],[-1045,2029],[66,1578],[-262,702],[-816,926],[-555,652],[-588,926],[-490,1378],[-326,1403],[-849,801],[-1111,151],[-1404,175],[-1208,426],[-1993,451],[-1469,-426],[-947,-125],[-1274,200],[-1469,726],[-654,526],[-1110,902],[-653,576],[-1012,777],[-1078,225],[-1372,-651],[-1241,-576],[-1110,-376],[-1992,-275],[-1208,75],[-1111,75],[-1404,175],[-849,226],[-1208,526],[-1241,1177],[-1013,626],[-1763,727],[-1535,601],[-1666,175],[1176,1127],[653,351],[751,851],[621,1228],[490,1127],[489,977],[523,1428],[131,901],[130,1128],[261,976],[327,1052],[229,1153],[-196,751],[-196,1353],[1143,175],[979,-275],[1372,-627],[882,-726],[1633,-50],[1143,801],[261,827],[1045,977],[947,-376],[1274,-501],[1273,351],[523,977],[-490,1052],[-392,751],[-33,902],[33,827],[98,876],[1306,1177],[686,677],[-65,1027],[228,1252],[360,877],[-849,1127],[-392,827],[-1437,-151],[-980,-225],[-1437,-301],[-882,-75],[-1404,25],[-784,75],[-1698,176],[-2057,-101],[-1372,-125],[-1600,-100],[-980,-100],[-1273,-100],[-1503,-126],[-1665,-250],[-1208,-125],[-2189,977],[-130,1452],[-98,1102],[-98,1128],[-98,1102],[-131,977],[-130,801],[-131,1503],[-98,877],[-131,1277],[-98,927],[-195,1478],[-66,751],[-130,1178],[-131,1102],[-196,1478]],[[889715,340530],[817,75],[1404,326],[1241,301],[1110,225],[1503,225],[1861,251],[980,-75],[1208,-276],[1012,-350],[1111,-627],[1045,-952],[555,-751],[882,-1378],[490,-1152],[98,-801],[65,-977],[131,-1453],[293,-827],[392,-977],[294,-1227],[98,-902],[66,-851],[0,-1879],[-229,-651],[-523,-1152],[-261,-652],[-294,-1352],[-261,-827],[-457,-1077],[-294,-1002],[-425,-1352],[-228,-852],[-196,-1303],[-33,-926],[-65,-877],[-392,-1453],[-163,-726],[783,-1278],[1176,-651],[980,-1628],[1143,-1152],[816,-952],[621,-952],[686,-676],[1338,-852],[784,-626],[1339,-1102],[784,-702],[1470,-1102],[1273,-200],[849,0],[1405,-25],[1828,-476],[1405,-526],[1404,-626],[1012,-651],[784,-577],[1045,-776],[1470,-1152],[1437,-1328],[-5813,-6237],[163,-7239],[-784,-3231],[-686,-3181],[-424,-1829],[-294,-976],[-33,-1303],[-359,-1628],[-425,-8867],[523,-1027],[424,-902],[523,-1277],[686,-1228],[620,-1302],[588,-802],[980,-1227],[-817,-1127],[-751,-1052],[-490,-652],[458,-150],[4637,-1453],[3004,-926],[8393,-2580],[4115,-2280],[5258,-2830],[6140,-3056],[2384,-1127],[4604,-2104],[66,-25],[3657,-1528],[2156,-777],[2286,-726],[1796,-501],[11201,-3106],[-13291,-11572],[-262,-226],[-2253,-1954],[-3298,-2705],[-1437,-1077],[-3201,-2455],[-3690,-3281],[-2907,-2505],[-1077,-826],[-1470,-927],[-1208,-852],[-2482,-1503],[-1274,-250],[-1273,-150],[-1111,-126],[-1339,151],[-1992,25],[-1600,-877],[-1306,-701],[-588,-977],[2090,-1403],[849,-1002],[294,-1052],[-163,-1252],[98,-652],[751,-1077],[1306,-1152],[1404,-801],[1307,-251],[1241,-676],[914,-752],[719,-400],[1175,-401],[-457,-1303],[-882,-851],[-849,-727],[-751,-1252],[294,-927],[914,-1102],[588,-802],[457,-851],[784,-752],[719,-876],[-980,-1077],[-1698,-501],[-1372,-301],[-1078,25],[-1632,-426],[-719,-751],[-947,-1378],[-229,-676],[229,-927],[653,-1077],[817,-1152],[1502,-376],[914,-225],[1045,-927],[719,-1428],[1404,-726],[816,-777],[0,-701],[-424,-927],[-1274,-977],[-294,-977],[588,-876],[1372,-927],[1404,-877],[1470,-626],[1437,-1102],[1077,-1002],[882,-852],[-261,-1177],[-555,-952],[-196,-851],[-98,-1178],[163,-1528],[163,-801],[327,-1177],[196,-777],[-66,-977],[-718,-1327],[-490,-1178],[-98,-1127],[-33,-1102],[621,-1403],[849,-1152],[621,-801],[653,-952],[783,-1127],[1111,-1328],[882,-827],[1012,-726],[-327,-1027],[-1437,-175],[-2090,-176],[-881,-100],[-1274,-776],[-2482,-702],[-1829,-375],[-2220,-1603],[97,-1128],[327,-1528],[1927,-1277],[1306,526],[1339,426],[1241,376],[1731,100],[1404,-651],[131,-727],[1273,-476],[1013,-1027],[130,-1428],[817,-676],[1633,-376],[1175,-25],[1045,-200],[1111,-351],[1045,-275],[1012,-301],[1306,-426],[98,-976],[0,-1103],[-98,-751],[-1436,-651],[-1176,601],[-882,100],[-2841,-351],[-1502,-250],[-915,-175],[-1535,-76],[-979,0],[-784,-1177],[-98,-1052],[-33,-1302],[-751,-777],[-1861,-325],[-1176,-251],[-849,-1002],[-947,-1403],[-131,-951],[1535,-827],[3201,-1528],[1339,-651],[4441,-1528],[4768,-1528],[4474,-1027],[6597,-1177],[5160,-1328],[4016,-1678],[2940,-1503],[1926,-1528],[2417,-2029],[1045,-1428],[523,-676],[1567,-2354],[523,-777],[1241,-3156],[849,-3532],[424,-1377],[1045,-2280],[490,-1077],[392,-902],[-947,-1077],[-914,-1127],[-360,-476],[-1731,-1603],[-1077,-676],[-1078,-176],[-1110,26],[-1209,150],[-1567,-75],[-1078,-551],[-653,-451],[-1633,-526],[-1110,-551],[-947,-677],[-882,-951],[-163,-652],[294,-1277],[392,-827],[457,-927],[392,-1052],[620,-2429],[653,-476],[1241,-501],[784,-701],[686,-1403],[163,-1478],[-196,-1102],[-555,-777],[-1176,-826],[-685,-451],[-1209,-626],[-1175,-601],[-1209,-326],[-914,-125],[-1960,-25],[-1241,-25],[-1763,150],[-1535,351],[-947,350],[-1078,376],[-1763,576],[-1535,251],[-1013,25],[-1763,-451],[-1110,-451],[-1437,-852],[-915,-1377],[-620,-1303],[-261,-726],[-229,-1353],[33,-1002],[424,-1553],[621,-701],[947,-1027],[783,-1102],[327,-702],[-294,-1327],[-588,-677],[-1208,-801],[-980,-401],[-1469,-476],[-1927,-426],[-1731,-350],[-816,-151],[-1274,-275],[-914,-301],[-1143,-626],[-654,-451],[-783,-1077],[-229,-601],[-196,-1052],[33,-1603],[228,-1002],[588,-701],[1013,-927],[2416,-2154],[359,-677],[360,-1001],[196,-702],[294,-1428],[196,-1001],[163,-1002],[196,-1203],[326,-1377],[131,-927],[-65,-1052],[-327,-752],[-1078,-1177],[-1143,-726],[-1339,-526],[-1012,-151],[-1241,25],[-1372,176],[-1894,451],[-1208,375],[-1437,326],[-1012,0],[-1666,-150],[-882,-401],[-1175,-1027],[-980,-852],[-947,-125],[-1633,476],[-457,751],[-425,1353],[196,1227],[-490,702],[-816,826],[-718,326],[-1797,401],[-1567,250],[-1470,251],[-1861,526],[-1437,776],[-1143,426],[-1633,576],[-1241,451],[-1470,651],[-1828,677],[-1241,-101],[-1176,-701],[-1306,-1127],[-1274,-1253],[-1012,-676],[-1209,-977],[-522,-927],[-163,-651],[-425,-1052],[-947,-977],[-1666,-926],[-1959,-977],[-2090,-927],[-1666,-476],[-1600,-451],[-718,-50],[-1698,75],[-1829,100],[-2580,276],[-1078,125],[-2939,226],[-1992,225],[-751,25],[-3168,-376],[-2221,-125],[-1535,301],[-1012,-226],[-1992,-576],[-294,100],[-1045,1628],[-457,401],[-1274,752],[-1273,1503],[-2482,4057],[-1078,251],[-2221,-426],[-1698,-276],[-2939,26],[-2351,-326],[-1731,-251],[-1241,201],[-1796,576],[-1013,300],[-882,376],[-1045,601],[-2122,1203],[-1372,901],[-1306,76],[-784,100],[-1404,250],[-2025,276],[-2025,25],[-1600,-150],[-1535,-376],[-718,0],[-2090,-176],[-523,451],[-261,2004],[-229,1553],[-294,1127],[-2220,-200],[-1927,0],[-3494,125],[-5030,376],[-228,25],[-4246,-276],[-1894,151],[-3592,225],[-2025,301],[-2090,250],[-1927,0],[-2874,-325],[-1959,-126],[-2057,-250],[-1633,-326],[-1143,-275],[-1111,-276],[-1730,-275],[-980,75],[-1535,300],[-1176,276],[-947,326],[-1339,901],[-588,677],[-1306,225],[-1535,-776],[-1698,-852],[-1372,-827],[-1469,-501],[-1535,-526],[-784,-200],[-1110,-877],[-1013,-100],[-1828,100],[-1372,251],[-1274,-827],[-1600,-576],[-1306,-551],[-784,-676],[-882,-727],[-1241,601],[-457,802],[-424,852],[-360,826],[-620,1127],[-784,326],[-1437,701],[653,877],[556,902],[457,851],[424,977],[621,1453],[620,1603],[327,802],[490,1152],[653,1453],[261,1327],[-65,1027],[-261,1177],[-131,1503],[-131,1077],[-261,677],[-849,1202],[-980,777],[-1371,576],[-1013,350],[-1371,451],[-1176,426],[-1012,501],[-784,902],[-588,1327],[-196,702],[-261,1402],[65,827],[359,1127],[719,802],[1241,876],[947,551],[1306,677],[915,451],[1143,626],[1012,651],[784,651],[555,576],[914,1052],[523,902],[424,1077],[196,1503],[-98,952],[-326,1453],[-262,927],[-685,1352],[-621,777],[-653,876],[-1176,2004],[-555,977],[-588,1277],[-1241,1879]],[[760490,66578],[-1175,1804],[-2515,3732],[-3037,4984],[-1045,1704],[-1176,951],[-1208,526],[-1764,677],[-2220,952],[-849,375],[-1274,426],[-1274,401],[-1763,526],[-686,175],[-1698,601],[-2841,1178],[-425,200],[-1959,927],[-1437,776],[-915,576],[-816,577],[-980,1052],[-816,1427],[-359,777],[-392,977],[-653,1227],[-915,777],[-1600,551],[-1078,200],[-1894,150],[-32,-125],[-523,-1503],[-490,-1177],[-620,-927],[-1013,-1277],[-98,-1077],[-65,-1478],[0,-802],[-784,-952],[-1339,-651],[-1306,-701],[-653,-376],[-1045,-576],[-2058,-1152],[-261,-1428],[555,-1052],[294,-852],[392,-1352],[33,-977],[-425,-1253],[-457,-776],[-1110,-1252],[-980,-802],[-1176,-902],[-816,-626],[-784,-626],[-1665,-1303],[-1241,-977],[-686,-576],[-2352,-1878],[-1371,-1203],[-490,-400],[-1241,-1052],[-1698,-1378],[-1143,-952],[-1143,-1002],[-719,-576],[-1698,-376],[-1143,-1252],[-784,-551],[-1567,-676],[-2743,300],[-1307,-225],[-1763,175],[-1372,100],[-1371,50],[-1894,-100],[-1666,-150],[-1829,-376],[-1437,-250],[-1926,50],[-1274,576],[-1078,-50],[-1731,350],[-1143,126],[-1469,50],[-1143,-50],[-1241,-75],[-1241,0],[-1960,100],[-1535,175],[-1992,-2505],[-2253,0],[-490,-325],[-2580,-251],[-751,2856],[-555,1553],[-621,1878],[-489,1553],[-360,852],[-1502,1803],[-718,1002],[-556,802],[-1110,1403],[-980,1102],[-751,901],[-392,526],[-424,1103],[-588,1953],[-490,1729],[-1796,125],[-1796,100],[33,3031],[-262,200],[-2090,-350],[-1665,-276],[-458,376],[-97,1352],[-327,1128],[-229,1052],[-1077,676],[98,1352],[751,2555],[-196,627],[-2384,576],[-33,100],[523,1728],[-33,1353],[-1012,576],[-947,275],[-1274,827],[-719,1503],[-718,1227],[-490,777],[-718,676],[-1503,1052],[-522,1202],[-425,1879],[-359,1453],[-490,2329],[-65,50],[-1763,-125],[-1699,-50],[-2024,0],[-1797,100],[-1175,-100],[-1111,125],[-1143,75],[-1828,-150],[-2842,-225],[-783,-301],[-1274,-50],[-882,-50],[-1829,-225],[-947,-101],[-881,326],[-1209,-25],[-1469,-50],[-1960,-251],[-2874,-501],[-2873,-826],[-1992,-626],[-2254,-526],[-3788,-426],[-3886,-777],[-1209,-75],[-1600,125],[-1502,126],[-1176,300],[-1469,1002],[-947,1202],[-653,927],[-2123,3256],[-2841,4609],[-2090,3282],[-1535,2630],[-686,1202],[-555,802],[-719,551],[-1306,375],[-1764,301],[-1339,200],[-2024,251],[-1568,927],[-784,926],[-979,1253],[-980,1202],[-523,601],[-555,1177],[-457,1328],[-33,802],[229,1377],[849,927],[1535,952],[1274,952],[587,977],[392,1177],[131,826],[-359,1253],[-849,902],[-1078,926],[-621,927],[-98,1328],[-32,926],[65,702],[294,1327],[-294,1128]],[[348061,589309],[-783,1052],[-849,426],[-1143,501],[-752,476],[-587,876],[-196,802],[522,927],[555,1402],[164,1152],[947,777],[914,1328],[-294,1202],[-294,526],[-326,1027],[-196,1002],[196,1503],[-164,1252],[-489,1102],[-294,927],[-66,1328],[98,876],[-163,1303],[-65,701],[-196,1152],[-33,1278],[229,851],[-33,1403],[-261,1278],[-425,1878],[-359,1528],[0,476],[3037,852],[457,1152],[-751,1528],[-130,726],[-980,2330],[-490,1903],[-1045,50],[-65,1854],[-131,1528],[229,1277],[1110,1278],[1078,325],[914,476],[2090,827],[1829,551],[457,100],[2711,576],[1502,526],[1404,727],[-2351,1553],[-947,826],[-751,1403],[-98,1102],[-653,1202],[-1797,727],[-1338,-50],[-752,325],[-1175,4058],[326,1077],[-359,952],[1731,777],[-1404,3932],[-425,551],[-1959,2380],[-2058,2630],[-3984,5135],[-33,1453],[490,1878],[327,1628],[555,2380],[359,4734],[-1894,476],[-1567,426],[-1829,551],[-1209,401],[-1698,125],[-1698,-551],[-914,-852],[-1894,-2004],[-719,-851],[-1567,-927],[-1568,-276],[-1110,-100],[-1078,-25],[-1666,-75],[-1143,-75],[-1012,-50],[-1078,-75],[-1959,-101],[-1404,-50],[-1307,50],[-1208,151],[-1763,450],[-1405,552],[-914,350],[-1012,401],[-1470,952],[-523,1127],[0,927],[33,676],[98,977],[261,1277],[262,927],[326,1027],[294,1027],[-522,576],[-490,1027],[-751,1453],[-1078,1152],[-915,727],[-1469,751],[-915,526],[-718,676],[-1208,852],[-1045,526],[-1764,902],[-1241,651],[-882,777],[-391,651],[-686,1077],[-425,726],[-522,1152],[-425,1103],[-294,676],[-686,1127],[-522,701],[-817,1077],[-718,952],[-261,702],[-196,876],[-261,1102],[-523,1478],[-588,1228],[-424,851],[-392,927],[-196,1027],[-131,1077],[-130,1027],[-196,977],[-196,977],[-131,676],[-131,902],[-196,1553],[-391,902],[-752,851],[-1502,927],[-1241,626],[-1045,451],[-1241,426],[-1665,451],[-1111,200],[-1110,125],[-1665,25],[-1241,-25],[-1143,-75],[-1209,-100],[-1469,-150],[-1535,-351],[-1078,-351],[-1012,-200],[-1601,-175],[-1436,-276],[-1274,-401],[-1437,-626],[-1470,-826],[-1306,-1052],[-686,-652],[-1077,-1202],[-490,-626],[-686,-927],[-1241,-927],[-1143,-701],[-1306,-576],[-1698,-326],[-1731,-100],[-1960,376],[-1143,451],[-849,375],[-1208,1002],[-425,1002],[-392,1027],[-783,1202],[-1013,577],[-1012,475],[-1502,627],[-1699,751],[-1632,752],[-1405,651],[-1175,451],[-1405,576],[-1469,851],[-1274,802],[-1306,1227],[-33,1203],[164,1002],[261,1452],[392,652],[685,801],[817,1152],[653,1002],[621,1027],[457,1253],[196,826],[163,1203],[-65,951],[-621,1403],[-588,727],[-1208,901],[-1502,626],[-1078,226],[-1274,-251],[-685,-425],[-980,-576],[-882,-702],[-1469,-1428],[-588,-601],[-849,-1027],[-1176,-676],[-2025,75],[-1698,75],[-1567,25],[-1307,25],[-1273,76],[-1143,150],[-1503,200],[-1175,226],[-1633,676],[-849,501],[-1078,927],[-392,776],[196,952],[1012,1002],[882,551],[1111,576],[1632,676],[1013,251],[1241,351],[1469,325],[1601,802],[1077,952],[131,851],[163,1002],[-98,977],[-359,601],[-523,902],[-489,826],[-1274,1128],[-947,400],[-1502,476],[-1960,501],[-1796,551],[-1927,627],[-1273,400],[-1894,376],[-1307,-25],[-881,-125],[-1274,-251],[-1078,-876],[-98,-927],[66,-777],[163,-1052],[65,-1027],[-65,-726],[-555,-1303],[-556,-651],[-783,-601],[-1307,-376],[-1110,-175],[-980,-200],[-1959,-201],[-1012,-225],[-1666,-276],[-425,752],[-816,1152],[-653,701],[-817,601],[-1632,802],[-752,476],[-783,877],[-490,475],[-751,1128],[-1209,551],[-2416,676],[-1209,326],[-1828,450],[-1764,351],[-1665,276],[-1209,150],[-947,100],[-1175,75],[-1470,50],[-1372,0],[-1567,0],[-2515,-25],[-1796,0],[-2482,-25],[-2743,0],[-2025,0],[-2547,0],[-2155,-25],[-2580,0],[685,702],[4736,4784],[-10614,10069],[-3527,3958],[2025,1352],[163,50],[4376,-125],[392,4584],[-3625,175],[-98,8993],[-8295,175],[196,4584],[-3592,25],[196,4684],[0,4484],[51664,-10345],[-164,-4509],[6924,-125],[-33,3757],[0,801],[13618,-3481],[1078,-176],[3331,251],[8915,977],[2417,350],[5356,1503],[1992,702],[3886,2079],[7413,4108],[2352,1352],[1959,1378],[2645,2079],[1764,1478],[2090,1352],[1012,576],[1633,952],[490,1077],[555,877],[490,1152],[261,1303],[261,927],[654,1427],[1535,752],[1730,-126],[1470,-125],[1274,-150],[1861,25],[1927,1328],[816,651],[66,1102],[-164,1027],[-163,1202],[0,777],[588,1252],[686,927],[849,1227],[457,1002],[424,526],[915,727],[-33,1503],[-947,776],[-1143,927],[-588,826],[-620,852],[0,952],[0,1728],[-131,4885],[33,275],[7478,326],[7479,2254],[25211,8466],[4311,1704],[3331,1352],[1176,551],[1045,301],[1110,-100],[1633,751],[1208,877],[1078,426],[3168,1252],[1241,-501],[979,-852],[1797,-1603],[2090,-1678],[1110,-776],[1894,-627],[1143,76],[1241,876],[1274,977],[1175,75],[1960,-125],[980,-50],[1143,75],[1632,351],[3658,927],[2515,651],[1437,275],[1339,301],[1273,250],[1698,226],[2156,175],[1600,201],[1470,-51],[1175,-1052],[1111,-400],[1077,-201],[980,-100],[1535,-175],[1796,-376],[2025,-451],[1110,-225],[1535,-176],[3592,-75],[131,927],[131,701],[130,1052],[327,1503],[261,1002],[425,1052],[881,1954],[425,1077],[196,526],[359,1227],[163,1278],[33,1202],[-196,1528],[-229,1378],[-326,1352],[-425,1027],[-359,727],[-882,1428],[-816,1227],[-588,751],[-620,802],[-1829,2104],[-1274,1403],[-1437,1402],[-2155,1929],[-163,150],[1894,1754],[718,676],[849,626],[1013,752],[1045,651],[1110,601],[1143,526],[784,576],[-66,1102],[-751,551],[-522,877],[-131,827],[-555,1277],[-163,1127],[1110,1027],[1437,501],[1241,401],[1241,1027],[1143,626],[914,476],[1013,601],[1045,1152],[751,1078],[784,776],[1861,701],[1927,326],[1078,326],[1371,776],[1241,802],[1143,400],[1013,126],[1371,-151],[1502,-200],[1405,-50],[1143,100],[1339,75],[1535,-200],[1861,225],[327,1052],[424,501],[1274,652],[1731,-552],[1012,-400],[1404,-401],[1176,-125],[1992,-376],[1731,75],[1273,100],[1535,401],[980,426],[1274,576],[1045,301],[1077,250],[1797,351],[2057,400],[1796,351],[1078,201],[1371,300],[1339,226],[1176,926],[1012,1002],[1078,301],[1862,325],[751,652],[1012,375],[1208,176],[1209,175],[1829,301],[1045,300],[751,1052],[457,702],[718,1027],[653,1202],[1437,801],[1764,376],[1306,376],[882,275],[1176,276],[1143,276],[1698,375],[1110,226],[1110,200],[915,150],[1927,426],[816,1253],[-131,801],[294,852],[556,626],[914,726],[686,476],[1012,551],[1372,426],[1012,376],[1862,676],[1469,727],[1078,626],[1437,851],[947,526],[1143,802],[620,576],[882,526],[1306,701],[849,552],[817,526],[816,500],[1405,802],[881,451],[1241,601],[1437,751],[947,527],[751,400],[1339,802],[719,476],[1241,801],[980,576],[881,526],[784,451],[1274,727],[1012,526],[882,501],[1404,776],[1045,576],[947,526],[849,476],[1339,827],[915,551],[816,476],[1078,601],[1012,576],[882,501],[1045,601],[849,501],[914,526],[980,576],[882,551],[947,501],[784,501],[947,651],[1273,752],[915,551],[1600,952],[1666,1002],[1371,826],[1208,727],[1274,776],[849,601],[947,927],[882,526],[1600,977],[327,225],[4898,3207],[784,551],[1698,1302],[1437,1102],[1796,1378],[1535,1227],[1437,1127],[1078,802],[980,551],[1045,601],[1339,777],[1404,851],[1273,777],[1176,751],[1143,802],[1568,1002],[1175,776],[849,501],[1405,702],[1535,751],[359,175],[1469,702],[1078,526],[882,426],[849,475],[816,476],[1241,752],[1568,826],[2384,1303],[1274,676],[1045,551],[2579,1403],[1927,-476],[1927,-3181],[1241,-2079],[523,-1428],[-523,-2204],[-131,-576],[-2318,-9744],[-1960,-9067],[-1077,-4434],[-2025,-8541],[-686,-3031],[-425,-2054],[-97,-752],[65,-1052],[196,-976],[1143,-2706],[947,-1828],[2612,-4960],[14500,-5235],[11855,-4483],[6793,-3657],[2286,-1077],[4735,-1754],[3494,-1077],[3462,-1052],[2188,-751],[3396,-1153],[4442,-1503],[5551,-2129],[3495,-1327],[3200,-1678],[8948,-5261],[8720,-4884],[6890,-3632],[2156,-1152],[5976,-3031],[17537,-9644],[2743,-1527],[229,-101],[39515,-21741],[555,-301],[2809,-1553],[13389,-7364],[3691,-2029],[9470,-5210],[31678,-16432],[4213,-2204],[1502,1102],[947,727],[882,626],[1012,726],[5650,20515],[60612,-14153],[2155,-501],[947,-801],[1731,-1478],[2188,-1854],[1927,-1653],[1469,-1277],[1601,-1378],[1698,-1428],[1763,-1528],[2319,-1953],[1568,-1303],[1110,-977],[849,-726],[1927,-1603],[1894,-1678],[2123,-1804],[1469,-1277],[1404,-1203],[1764,-1503],[1894,-1603],[2057,-1753],[2221,-1904],[1862,-1628],[1404,-1227],[2188,-1879],[1600,-1327],[2155,-1829],[1699,-1453],[1241,-1102],[1926,-1653],[2058,-1778],[2155,-1854],[1633,-1378],[2351,-2003],[1731,-1453],[2188,-1879],[1764,-1503],[1992,-1728],[1861,-1628],[1111,-1127],[849,-877],[1012,-1303],[457,-676],[686,-1052],[457,-776],[425,-877],[392,-877],[392,-952],[359,-1027],[294,-1026],[196,-1053],[163,-1477],[33,-1027],[0,-952],[-33,-777],[-98,-951],[-196,-927],[-196,-952],[-228,-827],[-262,-776],[-359,-1027],[-424,-952],[-490,-1027],[-392,-776],[-523,-1078],[-490,-1001],[-457,-977],[-588,-1203],[-587,-1202],[-686,-1353],[-588,-1277],[-686,-1453],[-555,-1127],[-751,-1503],[-490,-1002],[-718,-1453],[-621,-1277],[-653,-1278],[-523,-1077],[-620,-1302],[-686,-1428],[-522,-1002],[-719,-1553],[-555,-1152],[-490,-1002],[-718,-1478],[-719,-1428],[-555,-1127],[-457,-977],[-588,-1127],[-751,-1603],[-686,-1403],[-588,-1202],[-620,-1202],[-555,-1177],[-588,-1253],[-555,-1177],[-621,-1202],[-555,-1128],[-523,-1052],[-751,-1452],[-555,-1102],[-457,-952],[-490,-977],[-1110,-1228],[-1372,-50],[-1829,-175],[-1404,-100],[-1731,350],[-1208,251],[-1404,301],[-1013,250],[-1078,276],[-1045,225],[-1077,150],[-1405,151],[-2057,200],[-3070,200],[-1992,151],[-1175,75],[-1078,50],[-1013,75],[-1600,426],[-1600,0],[-1502,225],[-2090,376],[-1960,-75],[-816,-150],[-1372,-251],[-1437,-50],[-1665,-276],[-1502,-100],[-849,-25],[-1437,-275],[-1927,-351],[-1633,-250]]],"bbox":[100.18188,14.72108,100.48809,15.12031],"transform":{"scale":[3.0621030621029916e-7,3.992303992303986e-7],"translate":[100.18188,14.72108]}}