{"type":"Topology","objects":{"districts":{"type":"GeometryCollection","geometries":[{"type":"Polygon","arcs":[[0,1,2,3,4,5,6]],"properties":{"CODE":"1801","PARENT":"18","NAME_TH":"เมืองชัยนาท","NAME_EN":"Mueang Chai Nat","NAME_CN":"Mueang Chai Nat","COLOR_IDX":1}},{"type":"Polygon","arcs":[[-7,7]],"properties":{"CODE":"1802","PARENT":"18","NAME_TH":"มโนรมย์","NAME_EN":"Manorom","NAME_CN":"Manorom","COLOR_IDX":3}},{"type":"Polygon","arcs":[[-5,8,9,10]],"properties":{"CODE":"1803","PARENT":"18","NAME_TH":"วัดสิงห์","NAME_EN":"Wat Sing","NAME_CN":"Wat Sing","COLOR_IDX":0}},{"type":"Polygon","arcs":[[11,12,-2]],"properties":{"CODE":"1804","PARENT":"18","NAME_TH":"สรรพยา","NAME_EN":"Sapphaya","NAME_CN":"Sapphaya","COLOR_IDX":2}},{"type":"Polygon","arcs":[[13,14,-3,-13]],"properties":{"CODE":"1805","PARENT":"18","NAME_TH":"สรรคบุรี","NAME_EN":"Sankhaburi","NAME_CN":"Sankhaburi","COLOR_IDX":0}},{"type":"Polygon","arcs":[[-4,-15,15,16,17,-9]],"properties":{"CODE":"1806","PARENT":"18","NAME_TH":"หันคา","NAME_EN":"Hankha","NAME_CN":"Hankha","COLOR_IDX":2}},{"type":"Polygon","arcs":[[-10,-18,18]],"properties":{"CODE":"1807","PARENT":"18","NAME_TH":"หนองมะโมง","NAME_EN":"Nong Mamong","NAME_CN":"Nong Mamong","COLOR_IDX":1}},{"type":"Polygon","arcs":[[19,-17]],"properties":{"CODE":"1808","PARENT":"18","NAME_TH":"เนินขาม","NAME_EN":"Noen Kham","NAME_CN":"Noen Kham","COLOR_IDX":3}}]}},"arcs":[[[863102,707676],[1251,-235],[1108,0],[1108,-137],[728,-98],[554,-235],[1234,-665],[95,-743],[79,-1604],[-47,-959],[-253,-2249],[31,-6926],[-31,-1839],[-64,-3345],[48,-5673],[127,-3932],[15274,-7551],[158,-567],[-143,-979],[-63,-430],[-127,-978],[-94,-1232],[-95,-1878],[-64,-1233],[-570,-372],[-743,59],[-839,117],[-317,-528],[-158,-841],[-127,-587],[-427,-2523],[-111,-881],[-142,-841],[-127,-645],[-48,-705],[127,-606],[-459,-646],[-760,-782],[-380,-528],[-364,-842],[-300,-997],[-159,-1057],[-79,-1213],[0,-802],[-31,-880],[15,-841],[-31,-1330],[16,-783],[15,-1095],[0,-1057],[0,-1076],[0,-821],[-15,-1057],[-16,-1193],[0,-685],[0,-1173],[-16,-998],[-16,-998],[-16,-1134],[0,-920],[0,-1604],[0,-1604],[0,-1272],[0,-919],[-16,-1154],[16,-959],[-31,-2739],[0,-1271],[4701,-2035],[633,-332],[15717,-6847],[1234,-294],[270,-97],[2880,-626],[-221,-411],[205,-1546],[2960,274],[507,-3932],[1313,-13263],[349,-3404]],[[908355,588892],[-8975,-6847],[-21763,11268],[-38906,39790],[-2121,-665],[-2817,-1037],[-6394,-2308],[-539,685],[-395,1291],[-554,450],[-4226,-1526],[-2707,-1194],[-4416,-1702],[-1994,-958],[-1346,-998],[-1488,-900],[-1693,-587],[-1710,-567],[-2295,-1095],[-4305,-2680],[-3957,-2974],[-2564,1741],[-6759,4578],[-1614,802],[-1662,724],[-2168,1036],[-1425,607],[-981,391],[-918,294],[-190,469],[-127,743],[-237,2524],[-443,-430],[-459,-333],[-697,-332],[-459,-216],[-522,-313],[-997,-489],[-966,-313],[-1488,-587],[-2152,-567],[538,-1643],[142,-704],[-269,-979],[-554,-1388],[-950,-2465],[-1044,-2113],[-48,-1839],[-31,-1232],[-2200,-255],[-586,-78],[-1235,-215],[-728,-137],[-1124,-196],[-775,-39],[-364,528],[-63,959],[-1251,235],[-253,78],[-966,39],[-1155,176],[-981,352],[-823,391],[-428,255],[-665,98],[-3972,-626],[-1188,-196],[-1582,-235],[-982,98],[-981,254],[-791,-215],[-998,78],[-617,157],[-855,391],[-221,920],[16,997],[475,607],[316,195],[791,509],[744,704],[127,665],[-142,1037],[-317,685],[-1092,-215],[-396,-20],[-728,176],[-681,274],[-364,-39],[-933,-567],[-1140,-724],[-1345,-959],[-602,-430],[-1393,-1017],[-791,-568],[-3166,235],[-1345,98],[-1282,98],[-2010,137],[-1773,97],[-32,-371],[-728,-53484],[-79,-5517],[142,-841],[349,-1135],[237,-958],[-775,-607],[-80,-528],[-300,-665],[-301,-528],[-348,-665],[-269,-529],[142,-880],[-95,-1389],[-127,-1076],[-110,-1271],[-111,-900],[-127,-724],[-63,-841],[16,-744],[31,-880],[32,-1467],[32,-841],[-48,-1037],[95,-763],[64,-607],[-16,-704],[-111,-841],[-79,-743],[-111,-705],[-190,-567],[-253,-743],[-238,-548],[-427,-822],[-506,-450],[-270,-958],[-269,-920],[-63,-802],[-32,-606],[-79,-685],[-63,-548],[-111,-919],[-126,-959],[31,-1212],[-221,-568],[-175,-724],[-205,-1095],[-538,-783],[-839,-665],[-444,-665],[-284,-528],[-396,-606],[-427,-685],[47,-704],[412,-900],[411,-568],[633,-587],[712,-880],[649,-469],[776,-392],[459,-567],[317,-372],[522,-665],[237,-313],[-332,-1643],[-507,-665],[-554,-802],[-332,-607],[-206,-450],[-617,-1467],[-617,-1486],[-301,-803],[-237,-860],[-143,-881],[-32,-645],[32,-607],[206,-1173],[411,-2231],[618,-3071],[31,-117],[3467,-7141],[-855,-645],[-1187,-1154],[-16,-20],[-1504,-1095],[-2184,-1057],[-1456,-528],[-1757,-450],[-2105,-254],[-2264,-59],[-2944,-2093],[301,-548],[333,-430],[617,-802],[585,-724],[491,-548],[617,-821],[238,-431],[601,-372],[380,-39],[760,-176],[506,-508],[95,-881],[206,-743],[222,-685],[538,-137],[1219,-274],[459,-97],[775,-176],[602,-587],[-174,-1194],[0,-743],[332,-998],[507,-958],[364,-724],[411,-606],[681,-803],[-32,-586],[237,-822],[222,-567],[253,-568],[349,-587],[712,-802],[459,-489],[475,-606],[205,-880],[238,-1057],[190,-978],[728,0],[886,-274],[206,-606],[285,-881],[158,-567],[206,-665],[316,-1115],[222,-822],[143,-1213],[-32,-958],[-32,-1174],[-31,-900],[63,-1056],[221,-1115],[159,-959],[-32,-684],[-285,-1037],[-364,-1428],[-32,-79],[-427,-1545],[333,-587],[411,-665],[918,-313],[570,-352],[665,-841],[316,-626],[333,-822],[158,-528],[32,-822],[0,-1017],[47,-1076],[190,-470],[681,-352],[569,-58],[728,0],[380,19],[855,-58],[507,-216],[712,-645],[411,-431],[475,-489],[459,-410],[839,-157],[586,-78],[585,-78],[808,-137],[506,-176],[507,-548],[237,-763],[-47,-607],[-159,-1232],[-126,-880],[-127,-607],[-222,-567],[-379,-548],[-459,-606],[-539,-665],[-633,-685],[-633,-626],[-443,-646],[-79,-704],[31,-822],[270,-939],[443,-860],[427,-626],[602,-842],[332,-469],[570,-685],[617,-763],[427,-489],[618,-802]],[[736431,412985],[-444,-1291],[-411,-1350],[-95,-626],[-158,-860],[-127,-646],[-807,-1154],[-348,-548],[-523,-763],[-680,-1017],[-697,-998],[-538,-821],[-491,-724],[-427,-646],[-665,-998],[-1377,-547],[-427,-626],[-427,-665],[-713,-1057],[-490,-763],[-349,-528],[-427,-665],[-411,-626],[-317,-470],[-601,-939],[-602,-919],[-348,-528],[-348,-489],[-507,430],[-348,294],[-570,391],[-712,469],[-649,352],[-617,294],[-586,293],[-633,313],[-522,255],[-697,352],[-918,450],[-601,293],[-428,215],[-1060,509],[-728,352],[-776,391],[-665,313],[-775,392],[-538,254],[-760,372],[-538,273],[-776,372],[-617,313],[-1140,548],[-633,293],[-570,294],[-728,352],[-601,313],[-570,254],[-712,352],[-333,157],[-665,352],[-728,489],[-474,411],[-428,411],[-601,704],[-396,606],[-301,509],[-316,704],[-206,548],[-237,763],[-412,978],[-443,626],[-792,587],[-649,391],[-823,313],[-601,196],[-681,156],[-506,79],[-617,136],[-950,177],[-855,-1722],[-269,-1976],[-285,-2015],[-206,-1565],[-174,-1232],[-205,-1057],[-222,-743],[-285,-822],[-459,-1036],[-285,-509],[-364,-548],[-316,-469],[-649,-802],[-475,-489],[-713,-783],[-680,-704],[-538,352],[-902,469],[-634,294],[-474,156],[-776,255],[-522,332],[-760,509],[-538,430],[-491,528],[-649,-273],[-649,-235],[-680,-176],[-855,-255],[-981,-195],[-855,-157],[-887,-234],[-1013,-450],[-886,-333],[-712,-215],[-1203,-372],[-1409,-450],[-981,-352],[-507,-235],[-775,-567],[-570,-587],[-475,-802],[-269,-665],[-348,-1154],[-507,-1643],[-522,-1683],[-253,-997],[-143,-607],[-126,-645],[-16,-920],[32,-626],[79,-782],[110,-529],[270,-723],[-1694,-392],[443,-2758],[63,-1350],[-2390,-587],[-253,-1936],[-570,-568],[-664,-195],[-649,-39],[-539,-40],[-538,59],[-949,98],[-539,98],[-1392,156],[-2295,313],[-1615,235],[-1124,156],[-1313,177],[-269,19],[-824,39],[-775,39],[-712,20],[-602,39],[-522,39],[-776,528],[-237,607],[-712,117],[-507,118],[-839,156],[-459,78],[-649,196],[-554,156],[-759,235],[-744,196],[-665,195],[-491,196],[-585,254],[-570,255],[-744,508],[-554,431],[-760,274],[-681,254],[-506,176],[-839,274],[-427,195],[-808,196],[-585,411],[-380,235],[-554,293],[-871,489],[-902,470],[-775,430],[-444,509],[-300,371],[-475,626],[-317,431],[-395,528],[-539,704],[-617,841],[-395,548],[-412,567],[-491,705],[-380,528],[-316,450],[-443,684],[-475,685],[-522,724],[-380,411],[-665,645],[-792,685],[-791,411],[-712,332],[-602,294],[-918,372],[-728,313],[-601,273],[-776,333],[-870,372],[-855,391],[-681,313],[-934,391],[-759,352],[-713,-156],[-522,-39],[-760,-450],[-554,-470],[80,-1213],[-475,-626],[-681,79],[-696,19],[-428,20],[-585,-20],[-602,-782],[459,-724],[301,-763],[158,-1213],[206,-998],[-111,-1232],[-411,-450],[-602,-606],[-364,-744],[-16,-1174],[-237,-684],[-332,-1096],[-254,-1193],[-79,-743],[-47,-568],[-380,-861],[-649,-723],[-396,-842],[-601,-626],[-475,-352],[-364,-802],[-158,-528],[-380,-606],[-79,-1155],[189,-626],[-474,-1095],[-491,-489],[-617,-802],[-428,-626],[-364,-509],[-585,-274],[-396,-528],[-538,-880],[-380,-1096],[-253,-1056],[-349,-763],[-807,-704],[-31,-822],[-64,-861],[-142,-645],[-174,-783],[-190,-841],[-159,-704],[-237,-1174],[-127,-685],[-47,-665],[-238,-645],[-680,-274],[-586,-646],[-427,-1095],[0,-802],[-253,-1057],[-475,-450],[-523,-841],[64,-743],[-538,-920],[-823,20],[-887,274],[-490,137],[-729,254],[-775,274],[-744,235],[-649,137],[-823,-274],[-665,-215],[-443,-137],[-633,-274],[-586,98],[-427,371],[-443,333],[-713,-196],[-1171,352],[-1029,313],[-918,274],[-490,78],[-570,353],[-602,704],[-585,704],[-760,685],[-538,-39],[-760,-470],[-427,-430],[-523,-196],[-775,489],[-902,607],[-681,430],[-681,450],[-664,352],[-1282,724],[-586,332],[-791,392],[-539,274],[-649,-118],[-443,-450],[-395,-352],[-554,-430],[-697,-489],[-744,-294],[-934,-195]],[[558365,356352],[-190,763],[-886,469],[-744,-333],[-411,-78],[-681,-195],[-902,-353],[-760,255],[-411,215],[-539,215],[-538,509],[-301,704],[-174,528],[-522,1996],[-776,2269],[-680,1858],[-981,2270],[-1172,2269],[-506,861],[-1330,1721],[-1630,1722],[-443,332],[-871,489],[-380,118],[-601,254],[-491,450],[-775,332],[-507,137],[-506,176],[-570,235],[-950,176],[-491,548],[-174,567],[-554,372],[-759,39],[-982,-98],[-395,-156],[-618,-215],[-759,-235],[-459,645],[522,744],[-127,1174],[-285,665],[-886,469],[-538,-117],[-570,235],[-301,547],[64,900],[-190,607],[-713,626],[-949,97],[-570,-234],[-744,-196],[-633,-137],[-459,-59],[-586,20],[-839,157],[-538,117],[-696,-411],[-760,59],[-190,900],[-253,860],[253,685],[570,215],[396,744],[-270,1134],[-284,822],[-127,606],[-522,939],[-792,255],[-617,880],[-237,1037],[-380,567],[-887,313],[-490,-19],[-634,-313],[-569,-216],[-491,157],[-459,254],[-538,431],[-222,567],[16,880],[95,587],[364,783],[712,684],[459,411],[269,567],[-110,1076],[-396,724],[-412,528],[-696,783],[-696,763],[-839,548],[-887,156],[-475,39],[-886,352],[-253,763],[79,587],[364,763],[301,430],[395,509],[523,646],[459,489],[395,430],[412,450],[269,606],[143,548],[174,685],[190,763],[205,919],[174,704],[190,626],[-63,1585],[-839,548],[-680,371],[-665,685],[-428,470],[-332,352],[-696,782],[-459,450],[-539,626],[-569,861],[-934,430],[-681,705],[-285,684],[-253,372],[-696,430],[-127,1155],[-111,665],[-79,939],[127,606],[664,744],[285,762],[586,861],[633,118],[333,371],[158,783],[16,900],[190,645],[633,352],[569,59],[507,724],[47,1095],[143,744],[79,547],[-16,763],[-63,509],[443,724],[0,1095],[-380,646],[-538,274],[-839,587],[-190,939],[-554,900],[-728,293],[-506,176],[-633,39],[-523,-371],[-934,371],[-506,587],[-665,704],[-79,998],[-237,1056],[-697,783],[-839,196],[-696,117],[-602,156],[-601,548],[-143,1135],[982,156],[823,98],[570,294],[427,899],[522,489],[760,313],[443,744],[-791,1017],[-443,626],[-538,802],[-412,470],[-586,352],[-522,137],[-649,-118],[-760,-117],[-79,1095],[887,255],[775,0]],[[504360,455221],[807,-391],[554,-529],[665,-860],[301,-392],[538,-704],[317,-372],[459,-606],[379,-548],[523,-704],[680,-822],[808,-723],[712,-450],[950,-685],[633,-294],[601,-234],[792,-98],[601,117],[776,528],[443,1037],[-16,1115],[-111,842],[-237,1036],[-301,1174],[-190,939],[-79,743],[-79,979],[-16,723],[63,1096],[79,704],[127,646],[269,724],[317,547],[522,665],[506,509],[634,509],[1297,841],[1077,685],[617,391],[665,587],[332,391],[412,606],[364,568],[253,626],[158,919],[16,1174],[-63,763],[-79,900],[-64,1232],[-63,1487],[-95,2113],[79,1056],[159,822],[284,1056],[380,783],[412,567],[396,900],[300,880],[285,900],[238,900],[221,1174],[253,1193],[238,1232],[364,1996],[95,743],[32,998],[-80,1076],[-47,1056],[127,822],[538,724],[364,410],[680,196],[523,-78],[823,-333],[886,-215],[886,411],[396,548],[111,1075],[-111,587],[-269,900],[-459,1330],[-427,1116],[-665,1819],[-649,1467],[-285,548],[-396,645],[-728,724],[-997,548],[-601,352],[-744,489],[-491,509],[-174,548],[-79,782],[-95,1017],[142,939],[317,450],[649,1017],[696,959],[776,1135],[348,469],[570,450],[522,254],[997,470],[586,293],[586,861],[237,724],[63,469],[111,1057],[206,2328],[142,2171],[95,1722],[0,802],[-15,645],[-32,1115],[-95,1409],[-174,1369],[-95,939],[-253,1213],[-111,646],[-396,1115],[-348,763],[-269,547],[-111,842],[127,1584],[31,704],[-16,1233],[-15,1213],[-48,919],[-79,1096],[-63,1056],[31,939],[190,959],[190,1154],[174,1487],[222,1819],[142,763],[190,822],[206,704],[190,606],[332,822],[523,1017],[459,900],[332,567],[206,822],[32,469],[-16,1018],[-95,684],[-79,646],[-32,685],[316,665],[444,508],[427,353],[791,215],[475,-118],[602,-137],[886,-97],[586,0],[2326,313],[792,137],[823,293],[316,548],[222,782],[127,1076],[31,1487],[48,665],[174,939],[506,626],[776,763],[427,567],[301,1135],[79,1271],[79,548],[159,724],[316,587],[649,313],[997,19],[2200,118],[744,39],[649,235],[396,215],[696,430],[618,802],[538,1018],[396,939],[-48,1154],[-221,665],[-254,528],[-348,548],[-427,704],[-428,880],[-126,744],[142,1213],[475,665],[554,528],[586,665],[411,548],[412,665],[221,606],[-79,1116],[-380,645],[-649,880],[-744,959],[-269,509],[-395,899],[-174,783],[-16,802],[126,606],[412,626],[364,333],[649,333],[427,117],[649,78],[839,0],[981,78],[823,431],[507,411],[570,587],[348,528],[364,587],[269,684],[222,665],[174,861],[174,1037],[142,1115],[174,1487],[175,1271],[189,979],[127,449],[16,1683],[158,1487],[79,899],[349,783],[2136,2700],[412,528],[633,1369],[-475,939],[-855,-293],[-902,39],[-427,645],[-602,744],[-743,332],[-570,216],[-633,234],[-570,450],[348,1780],[79,568],[48,861],[-396,665],[-1425,997],[-1123,920],[-728,450],[-333,215],[-617,332],[-396,235],[-506,391],[-507,411],[-617,705],[-554,802],[-428,606],[-712,665],[-348,274],[-807,528],[-459,450],[-523,372],[111,782],[111,861],[-253,743],[0,490],[712,3736],[-760,59],[-617,-59],[-506,176],[-998,489],[-680,313],[-48,646],[16,978],[-79,508],[-427,1037],[-317,450],[-1472,1585],[-16,19],[-2026,2230],[-364,587],[-601,1174],[-618,1252],[-395,880],[-380,1468],[-380,1858],[-601,3013],[-634,4245],[-285,1878],[-1614,7668],[-190,1428],[174,1057],[728,391],[808,137],[1313,-20],[966,333],[554,606],[475,1996],[395,997],[871,1155],[396,567],[553,861],[428,645],[348,528],[301,431],[1298,2523],[-1298,1644],[-1456,1956],[-1504,2426],[-1124,1839],[-1329,2210],[-1045,1839]],[[535668,698403],[-1013,2015],[-950,2426],[-680,2504],[-349,1623],[-316,1722],[-222,1487],[-95,1095],[-15,176]],[[532028,711451],[5191,215],[380,40],[1187,97],[2248,920],[1060,469],[1361,157],[1979,371],[1836,313],[2596,255],[918,0],[696,293],[918,431],[697,0],[1266,-235],[1519,-411],[-775,-2328],[854,-332],[5145,-2739],[7011,-3854],[6981,-3658],[3023,-1135],[965,3991],[713,3149],[538,1605],[348,1545],[16,1682],[-459,2896],[-459,1897],[-190,3658],[6521,2015],[2137,392],[5666,-137],[2944,-235],[3561,-509],[4242,-371],[2976,-352],[1472,-235],[1361,-333],[1171,-548],[839,-332],[1219,-391],[1140,-372],[206,-59],[823,-156],[949,-98],[902,-39],[1108,39],[1203,196],[1124,293],[1219,567],[1282,861],[1820,1213],[855,626],[554,411],[332,254],[618,333],[633,39],[981,98],[839,58],[855,-19],[617,-79],[570,-176],[538,-234],[443,-157],[586,-39],[395,352],[285,744],[364,489],[333,430],[506,469],[728,490],[982,606],[1123,626],[824,372],[838,137],[760,137],[839,195],[665,294],[712,293],[538,509],[602,547],[981,489],[1520,783],[1392,704],[934,470],[317,215],[760,293],[1250,0],[997,79],[1061,117],[1345,196],[950,78],[569,19],[871,-19],[617,0],[443,39],[554,98],[1314,215],[570,137],[712,293],[902,196],[729,-391],[506,-489],[633,-783],[649,-704],[443,-372],[428,-313],[759,-313],[918,-254],[855,-333],[475,-332],[506,-470],[285,-391],[428,-900],[316,-919],[285,-900],[269,-880],[206,-548],[317,-568],[649,-1017],[474,-567],[412,-391],[554,-392],[696,-391],[1077,-567],[997,-567],[902,-627],[760,-586],[364,-333],[475,-587],[459,-645],[522,-861],[712,-1311],[554,-1037],[523,-1173],[474,-1115],[649,-1722],[903,-2387],[554,-1369],[348,-665],[475,-724],[601,-782],[712,-763],[760,-763],[918,-841],[1298,-1174],[1535,-1272],[918,-802],[1203,-1213],[602,-665],[664,-939],[317,-548],[269,-606],[238,-783],[189,-939],[143,-880],[111,-861],[63,-723],[111,-1155],[16,-743],[-32,-704],[-111,-1154],[-206,-1076],[-126,-489],[-206,-705],[-396,-1115],[-380,-684],[-316,-450],[-491,-548],[-617,-704],[-791,-802],[-602,-627],[-491,-626],[-395,-645],[-301,-665],[-285,-744],[-301,-919],[-190,-685],[-174,-743],[-285,-1330],[-237,-1174],[-174,-900],[-111,-1076],[32,-704],[190,-724],[285,-548],[348,-626],[190,-841],[-428,-509],[-490,-293],[-681,-489],[-427,-430],[-570,-568],[-570,-587],[-506,-1036],[1060,-157],[2580,-391],[1884,-235],[2627,-254],[839,-78],[396,-20],[6616,-509],[2326,39],[1932,59],[1440,98],[411,156],[554,235],[491,215],[807,118],[1361,195],[729,98],[664,333],[459,313],[507,176],[886,313],[1045,19],[997,118],[1171,117],[1377,118],[2011,195],[395,20],[1282,-255],[982,-273],[1218,97],[2422,489],[1836,-176],[206,-19],[965,-39],[1172,-20],[1013,39],[522,98],[696,548],[523,313],[1836,1017],[1804,959],[428,215],[696,215],[744,39],[1155,-196],[1488,-391],[1061,-332],[2057,-626],[1235,-274],[981,-196],[1108,-215],[649,-39],[681,98],[1044,97],[950,0],[744,-58],[665,-137],[712,-215],[412,-372],[364,-2621],[759,176],[1931,-59],[222,-215],[1140,-1565],[649,-607],[1155,-626],[1519,-724],[285,-78],[1631,39],[2991,79],[1583,195],[950,-117],[1218,-137],[760,352],[10399,8510],[23948,13126],[19864,9997],[3419,1526],[7043,1799],[634,-39],[1108,-78],[459,-20],[649,-58],[902,-59],[997,20],[965,-20],[792,-176],[728,-215],[1076,-352],[776,-294],[680,-293],[776,-372],[728,-352],[633,-333],[712,-352],[491,802],[174,489],[301,783],[332,841],[823,294],[349,684],[269,607],[633,919],[601,802],[697,626],[744,-78],[854,-137],[855,39],[538,157],[855,-20],[665,-215],[902,293],[443,783],[570,802],[269,626],[237,548],[459,547],[713,626],[348,783],[253,587],[285,1076],[32,880],[47,783],[63,1017],[190,900]],[[532028,711451],[31,1194],[127,1056],[332,1819],[428,1624],[316,1115],[253,822],[554,1917],[903,2993],[316,1076],[886,2582],[887,2054],[633,1506],[665,1565],[1408,2974],[808,1526],[569,1037],[491,782],[697,1057],[1313,1741],[1251,1252],[1044,860],[238,137],[965,626],[1108,509],[1172,372],[490,78],[1551,235],[1821,234],[1440,255],[997,254],[697,274],[459,274],[712,704],[807,978],[2469,3228],[32,39],[2516,3091],[16,19],[950,1213],[1266,1624],[1741,2641],[301,528],[1076,1859],[776,1447],[538,1037],[301,548],[649,1506],[427,1115],[570,1937],[459,1956],[396,2309],[205,2191],[-15,1897],[-175,1819],[-332,1878],[-522,1996],[-190,743],[-712,2230],[-554,1507],[-823,1897],[-918,1996],[-744,1858],[-222,548],[-617,1721],[-412,1565],[-158,1135],[-32,1076],[159,1389],[300,1350],[443,1173],[570,939],[570,763],[855,900],[1139,900],[681,470],[681,469],[1218,685],[2659,1565],[3831,2191],[3640,2034],[3609,2093],[3815,2328],[2263,1624],[1583,1389],[1060,1174],[1330,1682],[1203,1761],[1187,2152],[760,1663],[696,1975],[1156,3854],[1250,4715],[475,2445],[237,1761],[95,1467],[32,1917],[-16,1213],[-16,117],[-95,2504],[-95,2035],[-111,1721],[-142,1233],[-142,802],[-222,782],[-348,939],[-159,294],[-1598,3228],[-1535,2562],[-1077,1663],[-1598,2093],[-2137,2641],[-2675,2876],[-1551,1467],[-1821,1448],[-2611,1858],[-3277,2269],[-2944,2015],[-2358,1624],[-3371,2602],[-2185,1721],[-2738,2504],[-443,431],[-2184,2171],[-285,294],[-2469,2484],[-1124,1330],[-776,1252],[-601,1252],[-491,1292],[-396,1271],[-142,783],[-111,606],[-142,1585],[-16,1897],[142,3502],[0,59],[238,2112],[364,1585],[601,1584],[713,1389],[1092,1526],[253,274],[1282,1370],[1060,958],[1140,626],[1251,411],[1392,98],[206,0],[1377,-79],[2596,-410],[2343,-587],[3292,-1311],[174,-78],[364,-176],[3989,-2152],[3545,-2230],[2580,-1467],[1884,-1057],[1519,-626],[1725,-743],[1377,-568],[1457,-489],[3403,-1115],[1582,-508],[1425,-392],[775,-117],[776,0],[902,137],[1045,352],[760,450],[649,567],[680,822],[617,939],[523,1096],[459,1252],[253,1056],[285,1467],[174,1487],[63,1213],[-63,1389],[-142,939],[-159,821],[-253,920],[-665,1897],[-569,1194],[-570,1056],[-697,959],[-981,1193],[-1947,1878],[-3387,2758],[-1251,959],[-2200,1663],[-1978,1467],[-1314,1134],[-1551,1429],[-142,156],[-776,822],[-1345,1408],[-2169,2406],[-1345,1702],[-1346,1820],[-997,1604],[-775,1526],[-760,1721],[-776,2152],[-728,2484],[-538,2094],[-364,1878],[-174,1310],[-48,352],[-174,1976],[-285,4480],[-158,3071],[-32,450],[64,1937],[190,1682],[300,1820],[396,1506],[744,1761],[871,1545],[1218,1780],[1710,1996],[1535,1486],[1504,1429],[1044,978],[950,841],[871,743],[1171,685],[1599,665],[1440,509],[1329,371],[1283,176],[1282,20],[1013,-176],[1361,-411],[1155,-352],[602,-274],[2295,-1037],[1456,-547],[855,-313],[4400,-1683],[744,-293],[1804,-861],[2675,-1291],[1899,-607],[2992,-978],[3039,-743],[3371,-724],[2327,-293],[1868,-176],[3007,19],[143,0],[2849,118],[949,-1331],[412,-489],[253,-861],[63,-782],[95,-685],[190,-547],[649,-626],[792,-40],[902,-58],[16,-1135],[253,-489],[586,-567],[506,-1018],[237,-684],[301,-509],[348,-724],[190,-900],[222,-860],[253,-978],[348,-548],[697,-587],[396,-665],[601,-196],[396,20],[728,-59],[870,215],[1140,157],[760,0],[1013,-157],[791,78],[459,-97],[823,-137],[744,-137],[507,0],[554,-59],[696,-156],[1488,-235],[649,-176],[1013,-294],[918,-58],[617,430],[712,59],[174,-1076],[80,-607],[142,-763],[380,-1036],[316,-529],[681,-1115],[427,-782],[475,-1330],[285,-842],[-459,-704],[-142,-469],[111,-842],[237,-469],[380,-1115],[348,-1096],[111,-802],[142,-900],[143,-567],[221,-743],[143,-548],[0,-1096],[-48,-1075],[538,-607],[554,-235],[697,-332],[538,-176],[522,-39],[887,-40],[775,-156],[538,-333],[285,-528],[-839,-1663],[-1519,-2699],[-507,-881],[-506,-939],[665,-528],[348,-254],[807,724],[887,1017],[585,39],[792,-19],[300,-294],[839,-1076],[871,-19],[585,-39],[998,-20],[728,137],[411,-430],[253,-861],[175,-568],[284,-665],[586,-645],[554,19],[538,0],[570,39],[538,0],[649,0],[871,-78],[981,-58],[776,-59],[459,-509],[-95,-841],[126,-1193],[1631,-313],[918,-59],[585,-509],[396,-313],[1060,-39],[982,-78],[744,-59],[174,-704],[300,-998],[539,-1408],[395,-1096],[760,0],[633,-274],[681,-410],[506,-372],[396,-293],[617,-450],[16,-626],[-142,-763],[-79,-548],[-80,-763],[728,-587],[222,-802],[237,-704],[903,-450],[696,-78],[902,-157],[808,-137],[617,-39],[934,117],[538,235],[380,528],[680,176],[903,59],[648,0],[887,-117],[902,-176],[1235,-274],[1915,-431],[16,0],[1487,-58],[3055,-255],[1963,-254],[2865,-763],[585,-332],[918,-353],[333,-136],[1693,-685],[270,156],[348,959],[585,489],[491,-196],[1615,-704],[189,59],[254,2249],[63,20],[1520,-841],[1123,-626],[1013,-470],[554,-900],[-79,-1036],[16,-1155],[-174,-1154],[-348,-763],[-285,-1017],[16,-450],[1851,-548],[634,-156],[1329,-372],[2992,-685],[1915,-410],[1883,-470],[1504,-215],[2659,-313],[1504,-235],[16,-19],[1092,-1115],[300,-313],[1472,-1605],[1251,-1271],[744,-724],[427,-391],[428,-313],[712,-333],[617,-117],[1646,-196],[855,-19],[1219,58],[427,-78],[617,-293],[887,-724],[1060,-763],[1425,-1017],[1203,-763],[633,-548],[-618,-1858],[190,-489],[855,-313],[886,-313],[760,-235],[285,-372],[-332,-1017],[95,-646],[1741,-645],[1788,-352],[2137,-392],[1820,-528],[1172,-411],[554,-215],[1757,-724],[2500,-841],[6775,-2289],[-1441,-2484],[-443,-822],[-775,-1310],[-396,-685],[-396,-704],[-791,-1389],[-16,-548],[475,-548],[965,176],[744,352],[871,-313],[855,-332],[965,137],[602,78],[474,98],[903,-39],[838,-59],[934,-39],[618,-20],[696,-39],[617,-176],[380,-176],[712,391],[159,1741],[63,744],[158,665],[206,626],[902,2465],[317,391],[237,1193],[48,959],[142,665],[317,1095],[316,724],[966,881],[585,-529],[1124,-1036],[1140,-979],[950,-860],[997,-959],[1440,-1428],[855,-880],[570,-391],[759,-235],[1726,-568],[1266,-391],[427,-117],[1504,-489],[633,-255],[380,-352],[491,-587],[759,-567],[649,-156],[823,-216],[966,-234],[554,-39],[854,254],[1472,411],[649,176],[823,-59],[459,-176],[681,-274],[1662,-626],[839,-332],[411,-157],[744,-293],[523,-216],[633,-273],[601,-235],[887,-431],[807,-430],[696,-372],[1061,-665],[823,-450],[443,-234],[507,-274],[474,-294],[1029,-665],[997,-665],[602,-528],[427,-411],[459,-313],[491,-274],[411,-293],[539,-352],[379,-196],[254,-1467],[-95,-841],[-95,-744],[-206,-1760],[-79,-1135],[31,-822],[159,-1350],[190,-1486],[696,-1937],[760,-117],[633,-235],[728,-137],[760,-235],[269,-1154],[-63,-900],[506,-802],[459,-665],[522,-352],[713,-626],[459,-333],[506,-841],[491,-841],[427,-411],[681,-665],[728,-822],[285,-411],[459,-449],[427,-490],[459,-547],[238,-431],[1313,-2249],[554,-861],[333,-470],[300,-782],[507,-254],[617,234],[760,-391],[396,-645],[316,-803],[348,-626],[-47,-586],[-79,-998],[-158,-861],[-206,-802],[-206,-528],[-364,-1076],[-174,-900],[427,-782],[459,-372],[507,-333],[364,-352],[427,-861],[285,-567],[396,-704],[253,-431],[-63,-1212],[-301,-900],[-174,-724],[-459,-743],[-380,-666],[-285,-899],[48,-646],[332,-880],[222,-861],[-80,-1056],[823,-548],[634,78],[348,-1037],[190,-508],[47,-920],[238,-1017],[459,-294],[205,-919],[285,-978],[665,-841],[522,-763],[80,-1311],[110,-1291],[254,-1859],[538,-508],[443,-450],[206,-822],[47,-900],[-158,-665],[-190,-1056],[-427,-939],[-32,-235],[63,-2152],[317,-997],[47,-1018],[159,-860],[-491,-783],[63,-704],[-728,-587],[-301,-763],[-522,-606],[-633,-137],[-348,-529],[174,-841],[380,-841],[-95,-646],[47,-997],[-79,-607],[-190,-684],[-491,-1350],[-680,-489],[-507,371],[-807,-332],[-760,-763],[-902,-235],[-633,-880],[-950,-157],[-522,-391],[-665,-626],[-332,-411],[-127,-1173],[-585,-353],[-111,-606],[-886,-411],[-270,489],[-633,137],[-1408,-684],[-238,-411],[-285,-705],[-649,-410],[-443,-255],[-680,-684],[205,-1096],[-617,-548],[-570,-880],[-823,-645],[-775,-353],[-634,-626],[-95,-821],[-237,-470],[-522,-547],[-602,97],[-395,-1134],[-428,-978],[-126,-1018],[158,-763],[-427,-587],[31,-1115],[-301,-567],[475,-685],[222,-645],[16,-1057],[617,-762],[871,-177],[189,-880],[586,-411],[-190,-978],[443,-606],[586,-137],[886,-333],[380,-508],[602,-744],[269,-997],[665,-900],[253,-646],[-143,-606],[-31,-1213],[-222,-1076],[222,-939],[142,-802],[-396,-783],[-411,-684],[-253,-1018],[348,-1467],[-285,-567],[-222,-1017],[-538,-489],[-95,-509],[-47,-1135],[1345,215],[522,98],[570,118],[887,195],[569,157],[792,-137],[807,-196],[396,-58],[506,-685],[269,-431],[855,-782],[665,-685],[696,-684],[665,-607],[681,-508],[1171,-744],[475,-313],[1298,-900],[712,-645],[491,-783],[110,-645],[-126,-1018],[-333,-547],[-284,-822],[-206,-1095],[-143,-1663],[143,-881],[759,-704],[48,-939],[-269,-1076],[206,-861],[79,-802],[-253,-880],[-143,-587],[-79,-763],[-427,-724],[-159,-939],[523,-469],[1013,59],[490,-20],[681,-78],[633,-157],[791,-254],[697,-254],[396,-176],[633,-313],[364,-470],[237,-743],[475,-763],[142,-724],[-47,-998],[79,-841],[364,-567],[-47,-744],[-412,-1134],[-443,-1037],[-142,-763],[-80,-1135],[48,-1741],[0,-1682],[-16,-939],[-16,-978],[-459,-763],[-823,98],[-475,-431],[-205,-724],[-190,-586],[-80,-763],[190,-1096],[0,-782]],[[504360,455221],[238,2347],[47,626],[396,920],[570,547],[316,372],[285,744],[-127,978],[80,1095],[189,822],[-221,665],[285,1154],[-317,704],[-490,861],[0,880],[-48,744],[-475,919],[-364,705],[-206,606],[-744,606],[-411,40],[-3989,176],[-712,19],[-1187,78],[-1203,118],[-760,39],[-1266,98],[-1804,117],[-1599,117],[-1741,98],[-1567,137],[-807,59],[-538,39],[-1441,98],[-554,78],[-1440,98],[-412,59],[-1108,195],[-1013,352],[-633,255],[-1187,547],[-3751,2270],[-1551,1017],[-6205,3795],[-2105,1252],[-760,333],[-538,-20],[-1187,-39],[-4859,-548],[-902,157],[-459,78],[-744,176],[-728,489],[-823,430],[-554,235],[-475,235],[-887,450],[-823,313],[-1662,332],[-1203,294],[-664,254],[-697,-704],[-2833,939],[-522,-528],[-586,802],[-269,508],[-253,646],[-412,646],[-380,195],[-934,215],[-759,-215],[-807,-39],[-919,117],[-949,-156],[-950,-333],[-617,40],[-1013,195],[-1662,-59],[-1013,98],[-1599,79],[-918,19],[-775,-450],[-523,-156],[-680,293],[-491,704],[-681,255],[-696,195],[-760,411],[-601,78],[-570,-802],[-1250,-684],[-396,-20],[-1219,939],[-760,587],[-443,332],[-902,333],[-506,548],[-491,176],[-570,-98],[-538,-39],[-586,137],[-823,156],[-585,-1917],[-918,-98],[-459,79],[-681,117],[-586,-391],[-1108,-704],[-791,-509],[-554,-411],[-443,-313],[-570,-450],[-839,431],[-744,-313],[-427,-353],[-902,-489],[-713,20],[-664,39],[-982,293],[-522,196],[-538,254],[-792,353],[-538,-744],[-617,-880],[-285,-450],[-538,-685],[-364,-450],[-396,-821],[-823,-489],[-696,-705],[-903,-567],[-569,-333],[-554,-430],[-412,-254],[-681,117],[-712,-372],[-522,-841],[-348,-548],[-602,-821],[-348,-763],[-443,-841],[-681,-372],[-427,-156],[-823,176],[-633,430],[-539,567],[-411,215],[-1440,-293],[-649,-117],[-491,-294],[-380,-391],[-538,-606],[-427,-607],[-570,-1037],[-538,-939],[-444,-528],[-648,-665],[-333,-665],[-348,-685],[-348,-763],[-1567,704],[-459,118],[-2406,-59],[-522,-117],[-539,-333],[-364,-332],[-1298,-2974],[-474,-1428],[-444,-958],[-807,-626],[-886,-587],[-950,-587],[-981,-607],[-554,-352],[-491,-293],[-791,-548],[-507,-430],[-633,-568],[-601,-587],[-618,-586],[-348,-411],[-459,-685],[-237,-333],[-602,-665],[-585,-704],[-649,-724],[-459,-489],[-618,-606],[-633,-724],[-364,-509],[-490,-626],[-602,-704],[-681,-528],[-427,-372],[-601,-469],[-428,-333],[-807,-724],[-538,-782],[-1440,-1643],[-428,-176],[-902,841],[-364,391],[-332,606],[-270,548],[-633,646],[-601,156],[-918,59],[-2691,2934],[-712,626],[-1092,431],[-3577,1154],[-1647,782],[-823,313],[-870,137],[-1361,548],[-839,470],[-523,78],[-1709,195],[-285,20],[-2564,509],[-2042,391],[-744,763],[-1124,2347],[-158,724],[0,665],[63,861],[-110,959],[-982,117],[-696,254],[-491,509],[-380,117],[-649,372],[-285,333],[-648,489],[-523,137],[-728,313],[-301,469],[-364,626],[-427,470],[-633,939],[-554,1154],[-665,1271],[-823,1585],[-2596,3228],[-79,58],[-823,724],[-237,176],[-3134,2406],[-254,177],[-1171,626],[-823,410],[-475,352],[-522,920],[-190,352],[-570,978],[-617,254],[-950,-58],[-775,98],[-554,97],[-586,-254],[-807,-528],[-665,-333],[-570,-215],[-649,-528],[-475,-470],[-569,-78],[-665,-548],[-855,-528],[-443,-684],[-412,-626],[-490,-392],[-602,-293],[-649,-254],[-839,-431],[-395,-293],[-997,-685],[-618,-763],[-617,-469],[-696,-255],[-950,-332],[-633,-255],[-618,-293],[-728,-352],[-522,-254],[-586,-490],[-585,-410],[-618,-392],[-411,-293],[-554,-704],[-601,-176],[-871,-79],[-491,-273],[-775,-372],[-792,-489],[-427,-255],[-791,-606],[-412,-450],[-538,-606],[-633,-548],[-333,-607],[-585,-919],[-285,-430],[-507,-842],[-364,-469],[-728,-391],[-601,156],[-443,235],[-918,333],[-475,-235],[-681,-294],[-586,-234],[-648,-313],[-919,-392],[-648,-215],[-634,-176],[-712,-137],[-475,-235],[-617,-450],[-1108,-978],[-728,-723],[-776,-490],[-965,-332],[-792,-215],[-459,-176],[-759,-489],[-523,-803],[-364,-410],[-744,-450],[-284,-352],[-618,-568],[-1852,822],[-1487,665],[-2454,1369],[-617,313],[-1171,568],[-887,430],[-633,254],[-1029,529],[-459,234],[-728,274],[-775,274],[-1187,411],[-1045,411],[-887,391],[-506,157],[-807,234],[-792,255],[-538,156],[-570,157],[-838,176],[-412,117],[-997,352],[-681,254],[-744,216],[-728,19],[-411,-98],[-618,-117],[-585,0],[-997,78],[-1188,274],[-601,137],[-776,137],[-1108,176],[-648,117],[-760,-39],[-918,-215],[-507,98],[-744,137],[-300,-39],[-1583,-78],[-1061,39],[-1915,-59],[-1092,20],[-855,0],[-934,-79],[-585,-98],[-633,-78],[-713,-78],[-569,0],[-618,20],[-696,19],[-427,78],[-634,157],[-1266,332],[-1076,294],[-712,156],[-554,79],[-539,195],[-585,215],[-617,79],[-839,39],[-475,98],[-586,234],[-665,157],[-348,-137],[-823,-98],[-870,39],[-713,137],[-585,157],[-649,156],[-633,-156],[-950,-59],[-507,-176],[-680,137],[-776,176],[-570,-78],[-696,97],[-839,235],[-981,-156],[-570,-802],[-744,-431],[-633,-450],[-332,-293],[-681,-743],[-475,-470],[-538,-411],[-586,-411],[-633,-215],[-633,-235],[-744,40],[-1187,156],[-1124,196],[-981,293],[-1725,1350],[-1346,704],[-63,1057],[-95,528],[-222,1232],[-522,411],[-475,20],[-823,-313],[-490,156],[-982,841],[-744,920],[-253,254],[-617,900],[-538,841],[-428,802],[-617,1233],[-380,763],[-934,332],[-633,-215],[-665,-78],[-601,-137],[-744,-98],[-902,-78],[-1140,-118],[-586,-39],[-949,-59],[-633,-78],[-475,-39],[-871,-78],[-427,-78],[-697,-274],[-601,-333],[-364,-176],[-776,-235],[-649,39],[-411,235],[-427,665],[-966,79],[-776,0],[-553,-235],[-665,-39],[-839,-294],[-681,-195],[-490,-255],[-681,-547],[-776,-763],[-854,-548],[-538,-411],[-459,-196],[-982,-195],[-506,-548],[-459,-430],[-633,-646],[-412,-274],[-665,-528],[-253,-509],[-269,-762],[-301,-626],[-111,-685],[-79,-920],[-16,-1017],[127,-685],[-728,-39],[-412,-567],[-902,-20],[-839,-332],[-380,-509],[-728,-821],[-680,-489],[-491,-79],[-775,294],[-744,235],[-634,-294],[-522,-235]],[[140711,461011],[-142,1174],[-127,920],[-111,684],[-95,685],[-142,1076],[-79,978],[-79,978],[728,607],[253,1017],[-79,743],[31,528],[-126,1115],[-79,744],[-64,802],[-63,469],[63,783],[143,763],[174,919],[142,548],[444,1076],[284,822],[349,899],[427,1272],[570,1311],[617,1682],[301,822],[-554,919],[-507,470],[-490,606],[-95,1115],[237,744],[-316,1075],[-285,979],[-333,1056],[269,548],[396,587],[0,1173],[0,998],[16,1115],[32,802],[649,333],[791,98],[728,195],[665,196],[791,332],[602,255],[490,1036],[697,568],[744,39],[934,59],[506,352],[807,-59],[618,-919],[364,-626],[285,-607],[443,-391],[617,1467],[522,998],[396,763],[206,645],[190,763],[427,763],[380,587],[317,607],[538,528],[886,411],[396,313],[665,802],[569,352],[997,528],[412,156],[776,98],[522,59],[491,509],[712,586],[411,372],[396,411],[570,567],[459,411],[823,763],[586,-489],[395,-470],[475,-665],[412,-626],[348,-489],[918,-215],[586,59],[601,78],[443,156],[934,255],[538,98],[617,19],[618,20],[617,-39],[839,-274],[475,-411],[855,-352],[997,-78],[569,0],[934,-137],[665,-118],[586,59],[744,-20],[538,-880],[174,-1526],[95,-685],[411,-567],[792,59],[1393,156],[823,98],[633,137],[823,215],[617,118],[491,0],[649,-20],[522,-98],[665,-137],[506,-156],[491,-196],[776,-352],[680,-274],[792,-293],[570,-450],[617,-431],[585,-195],[618,450],[839,293],[538,685],[585,98],[934,469],[523,509],[506,254],[538,274],[633,411],[586,352],[475,333],[791,684],[475,235],[617,274],[792,235],[522,97],[633,79],[507,58],[554,489],[538,607],[427,274],[554,469],[538,489],[602,822],[459,645],[554,392],[522,176],[617,332],[570,489],[665,939],[633,450],[475,431],[427,587],[491,156],[586,-254],[617,-313],[554,-255],[522,-254],[475,-176],[649,-156],[855,-353],[965,196],[760,567],[570,431],[1060,802],[997,724],[586,450],[554,371],[380,294],[617,411],[380,215],[886,117],[649,-274],[428,-137],[680,-215],[887,-254],[854,-255],[665,-273],[649,-274],[712,-255],[824,-234],[427,723],[285,1155],[158,841],[380,1937],[190,880],[126,704],[602,235],[538,-98],[981,-215],[792,-235],[712,-254],[697,-313],[728,-391],[1203,-626],[949,-548],[1077,-548],[554,-313],[918,-548],[743,-450],[301,118],[744,1017],[491,685],[791,997],[776,998],[570,704],[490,-313],[681,-860],[665,-548],[617,-294],[364,-117],[696,-117],[428,-39],[1139,-196],[792,-98],[949,196],[1156,841],[633,391],[665,391],[522,509],[317,528],[522,411],[791,157],[634,136],[1630,313],[1108,196],[158,1037],[63,1193],[444,372],[933,19],[285,196],[32,1213],[-16,822],[-63,645],[-16,763],[-127,1722],[-142,1408],[728,704],[807,79],[681,117],[997,156],[823,0],[728,0],[586,0],[570,40],[680,19],[538,20],[523,39],[664,332],[0,744],[-15,704],[63,861],[174,606],[237,1115],[570,646],[839,-137],[760,-176],[554,-137],[902,-235],[649,-176],[427,352],[317,1037],[206,802],[174,548],[348,567],[317,450],[316,783],[158,528],[254,743],[348,1017],[253,724],[333,978],[221,724],[143,587],[221,802],[317,880],[285,763],[380,763],[221,607],[-79,841],[-32,1135],[159,939],[15,645],[159,685],[95,626],[79,802],[0,1056],[-206,646],[-570,704],[-285,861],[16,743],[32,802],[-396,587],[-380,783],[-332,841],[-127,626],[-95,1076],[-47,743],[-95,822],[-63,802],[-64,724],[-63,782],[-48,959],[111,1017],[-601,78],[-538,98],[-554,98],[-602,78],[-886,294],[-602,195],[-744,235],[-601,196],[-317,371],[206,900],[253,1096],[269,1115],[222,958],[190,861],[-32,1115],[-79,646],[-206,958],[-95,470],[-189,782],[-206,626],[-301,548],[-522,1017],[-285,724],[-301,861],[-158,606],[-111,705],[-111,645],[-79,822],[0,567],[-16,841],[-95,1135],[618,802],[633,-98],[664,-117],[792,-137],[554,-98],[680,-78],[744,78],[903,176],[854,176],[1203,274],[712,156],[523,79],[506,19],[554,39],[1029,59],[902,59],[459,98],[570,293],[918,470],[602,293],[759,411],[649,235],[934,-59],[1409,19],[316,0],[934,0],[507,-19],[744,78],[554,294],[649,567],[712,704],[981,978],[522,528],[570,529],[507,450],[649,606],[633,567],[475,431],[680,606],[507,470],[316,254],[744,528],[728,333],[491,215],[934,430],[981,411],[364,176],[618,333],[474,274],[665,567],[412,391],[570,685],[316,489],[443,841],[254,489],[648,1213],[428,763],[380,685],[411,665],[475,782],[348,607],[475,743],[364,528],[459,646],[333,450],[411,606],[491,685],[522,743],[617,881],[428,723],[348,548],[570,489],[949,724],[760,567],[697,529],[601,469],[1061,783],[538,410],[712,666],[364,391],[475,626],[665,861],[522,684],[807,1037],[475,606],[269,313],[475,744],[332,861],[254,782],[221,665],[380,881],[427,880],[428,880],[316,607],[523,860],[300,450],[412,646],[554,802],[364,430],[411,470],[729,782],[649,685],[807,763],[506,450],[396,313],[475,352],[443,333],[807,508],[538,274],[428,215],[902,431],[506,254],[507,235],[617,313],[1077,528],[633,293],[933,450],[554,274],[475,235],[665,332],[459,235],[522,235],[887,430],[570,294],[554,274],[965,469],[839,391],[728,372],[-32,607],[175,880],[-539,880],[-237,763],[-269,900],[-855,176],[-554,489],[-585,587],[-459,372],[-792,567],[-728,235],[-823,117],[-507,-19],[-648,-59],[-491,0],[-776,-78],[-522,-196],[-586,-313],[-459,156],[-411,490],[-665,352],[-665,391],[-522,509],[-649,234],[-791,235],[-111,939],[427,567],[586,646],[316,587],[285,939],[317,1056],[285,783],[79,587],[285,997],[142,548],[253,606],[127,568],[-380,645],[-79,685],[190,665],[158,802],[238,998],[205,880],[190,1017],[0,685],[-269,841],[-538,626],[-396,626],[-427,274],[-839,509],[-31,1213],[379,469],[1093,607],[506,274],[602,723],[490,587],[712,665],[-205,470],[0,822],[475,1017],[569,821],[412,470],[32,861],[-159,508],[-823,137],[-886,548],[-428,880],[-364,470],[-522,469],[-649,313],[-411,294],[-333,743],[-712,704],[-459,1037],[-158,763],[-444,724],[-791,332],[-32,822],[333,548],[316,763],[380,665],[380,587],[364,1095],[475,841],[475,626],[475,509],[411,313],[396,1096],[-32,919],[586,352],[459,-39],[649,0],[807,137],[364,98],[617,215],[713,509],[791,156],[522,294],[649,547],[950,411],[617,352],[491,470],[728,763],[285,724],[0,1173],[-364,411],[-475,548],[-459,548],[-316,489],[-285,860],[-32,1037],[-111,587],[-506,704],[-602,939],[-570,333],[-316,645],[-602,548],[-285,685],[-474,645],[-618,548],[-269,607],[-31,1076],[-396,273],[-681,157],[-680,880],[-333,822],[-316,411],[-697,235],[-380,234],[-569,313],[-459,587],[-903,294],[-918,410],[-474,118],[-808,-59],[-490,78],[-681,352],[-665,470],[-300,215],[-618,391],[-680,431],[-808,156],[-664,157],[-428,0],[-965,-274],[-633,313],[-808,313],[-269,489],[-31,782],[-111,685],[-317,528],[-554,294],[-538,782],[-395,509],[-396,372],[95,1193],[728,645],[443,392],[665,371],[712,274],[522,157],[586,176],[760,274],[839,430],[775,450],[538,333],[697,332],[649,-117],[760,-665],[680,-763],[427,-431],[507,-528],[506,-411],[903,-410],[807,-98],[665,19],[475,59],[775,137],[459,117],[538,196],[665,274],[475,137],[554,117],[570,117],[617,509],[-16,822],[-237,841],[-554,509],[-348,1017],[-143,763],[-364,860],[-222,1018],[-15,548],[-16,1036],[0,744],[-285,841],[-491,900],[-475,684],[-791,548],[-111,763],[-285,567],[-411,392],[-681,547],[-522,333],[-744,78],[-443,215],[-523,490],[-522,449],[-950,118],[-459,215],[-474,293],[-475,548],[-491,704],[-111,939],[-886,313],[-712,40],[-634,528],[-300,469],[-475,548],[-95,646],[-348,997],[-269,607],[-459,430],[-713,802],[-759,313],[-491,78],[-696,450],[-602,392],[-206,1017],[16,548],[-601,723],[-681,294],[-427,469],[-190,509],[31,861],[-205,802],[-238,1056],[-190,1017]],[[320913,765776],[649,59],[633,783],[538,606],[760,254],[649,118],[633,98],[459,195],[428,411],[380,372],[775,254],[649,-939],[364,-509],[871,20],[696,450],[649,469],[823,157],[507,-313],[554,-430],[395,-1057],[-364,-293],[-585,-450],[47,-881],[332,-371],[602,-235],[475,-39],[585,391],[254,1193],[95,626],[364,822],[617,-352],[459,-724],[332,-450],[602,-665],[411,-332],[744,-157],[364,626],[48,626],[-364,880],[-238,842],[254,684],[269,528],[364,724],[-301,528],[-412,666],[32,899],[728,802],[760,98],[427,-254],[459,-333],[697,-782],[997,59],[586,-411],[253,-489],[301,-881],[617,-860],[348,-294],[681,0],[364,646],[31,1154],[-285,489],[-617,763],[-79,1056],[412,333],[316,763],[238,508],[617,372],[728,137],[554,-215],[760,-685],[617,-352],[760,-411],[775,-802],[665,-313],[507,98],[617,274],[680,509],[396,919],[364,724],[459,156],[982,-293],[791,352],[886,469],[523,-117],[728,313],[427,489],[696,665],[713,802],[332,-313],[364,-626],[443,-489],[428,-293],[601,352],[776,763],[633,-685],[427,-528],[428,-196],[680,294],[317,685],[823,-626],[902,293],[-47,626],[775,235],[744,-392],[633,177],[887,-137],[680,19],[855,489],[601,568],[-174,606],[-31,900],[759,704],[808,-98],[506,-313],[823,-313],[586,196],[585,117],[491,705],[459,939],[728,313],[665,78],[807,19],[63,-802],[64,-1173],[142,-881],[412,-880],[443,-724],[411,-724],[808,-547],[680,-666],[48,-723],[-238,-842],[-126,-919],[728,-137],[570,-78],[443,-489],[395,-861],[539,-372],[839,-117],[933,372],[586,-744],[728,-724],[475,392],[886,430],[459,-78],[301,-998],[412,-645],[886,-255],[601,-156],[618,-274],[443,-978],[744,78],[617,1095],[792,411],[538,-117],[744,-137],[744,39],[443,528],[364,509],[696,-235],[63,-645],[95,-920],[333,-215],[760,587],[696,821],[443,587],[712,-97],[808,58],[538,255],[617,313],[776,-490],[-16,-782],[142,-743],[792,-450],[712,450],[554,371],[934,313],[522,118],[792,156],[364,313],[205,763],[238,1017],[538,79],[617,-20],[570,0],[696,-117],[839,137],[459,430],[491,372],[776,-489],[522,-529],[649,-215],[601,255],[697,410],[585,548],[317,274],[506,509],[649,586],[523,177],[839,-79],[474,-156],[713,-274],[839,0],[332,391],[301,607],[728,450],[570,-157],[712,-254],[728,-352],[364,-137],[728,0],[570,293],[475,215],[775,352],[507,294],[585,-20],[744,-743],[665,-117],[364,391],[776,-568],[47,-606],[143,-998],[174,-645],[570,-391],[617,469],[396,411],[823,-59],[839,-293],[949,137],[982,-98],[205,-1057],[269,-606],[681,-59],[744,529],[412,841],[854,645],[475,489],[412,665],[506,646],[966,20],[807,-529],[934,-215],[538,215],[585,450],[808,39],[570,-176],[443,79],[617,293],[617,117],[697,-508],[158,-704],[32,-1096],[110,-782],[871,-509],[506,196],[428,508],[237,920],[174,1076],[839,665],[586,-548],[174,-548],[190,-626],[237,-684],[285,-763],[190,-548],[380,-744],[602,-313],[680,20],[918,509],[602,78],[870,-137],[728,235],[823,645],[633,-137],[459,-78],[649,176],[539,137],[490,-645],[-253,-607],[127,-743],[427,-1076],[554,-959],[744,-802],[554,-117],[696,606],[586,-313],[427,-841],[538,-391],[871,-39],[617,0],[618,-20],[585,-685],[475,-860],[174,-548],[-253,-704],[-32,-568],[159,-841],[-111,-587],[-491,-626],[348,-1154],[665,-743],[681,-333],[902,-430],[443,-235],[696,-489],[444,-117],[522,-216],[665,-528],[285,-606],[237,-587],[253,-587],[792,-59],[649,548],[459,-20],[617,-273],[601,-235],[792,430],[570,-19],[490,-59],[538,-78],[317,-920],[522,-313],[681,235],[506,196],[903,-568],[443,-665],[506,-469],[538,724],[64,684],[-143,704],[-126,646],[459,1056],[570,0],[933,-58],[934,-118],[538,-58],[412,723],[0,979],[364,626],[823,-216],[412,-606],[253,-411],[522,-411],[839,-274],[222,-684],[839,-333],[680,333],[712,-118],[887,-39],[459,352],[696,470],[554,78],[649,-352],[111,-489],[886,-20],[396,489],[855,392],[395,567],[586,606],[570,-449],[301,-411],[522,-392],[411,-410],[760,-744],[333,-978],[474,-489],[175,-841],[-301,-1115],[16,-1135],[95,-880],[95,-646],[775,-371],[301,-744],[79,-508],[-32,-1213],[-205,-763],[110,-489],[-79,-920],[-206,-587],[32,-919],[95,-822],[-158,-528],[443,-724],[111,-763],[-64,-723],[380,-959],[95,-900],[301,-724],[396,-489],[332,-450],[507,-606],[649,-157],[-238,-1173],[-459,-881],[-16,-567],[238,-685],[95,-900],[253,-899],[364,-744],[728,-704],[855,-489],[380,-841],[31,-528],[333,-744],[380,-743],[158,-724],[380,-978],[190,-470],[253,-704],[142,-567],[127,-920],[253,-1115],[269,-821],[238,-470],[459,-704],[348,-509],[459,-391],[776,-78],[506,-509],[-32,-685],[285,-1193],[269,-606],[64,-744],[-48,-587],[-47,-684],[-48,-724],[238,-724],[348,-919],[301,-665],[300,-607],[285,-469],[317,-548],[285,-470],[506,-978],[95,-802],[48,-685],[-79,-1036],[585,-431],[839,-352],[602,-137],[569,-137],[855,-391],[712,-548],[507,-430],[791,-470],[871,-469],[934,-98],[649,372],[854,98],[570,97],[412,118],[554,332],[743,255],[681,78],[760,-20],[712,-195],[681,-607],[443,-274],[823,-58],[776,332],[696,548]],[[908355,588892],[1124,-10290],[1709,-15552],[-2722,-411],[379,-1761],[5556,-21636],[728,-3130],[522,-1350],[823,-1643],[760,-1506],[950,-1878],[475,-881],[1171,-2367],[1646,-3228],[760,-1486],[95,-196],[1757,-1624],[7518,-3423],[2169,-1761],[94,-78],[2881,-2582],[3989,-7688],[8832,-12383],[1472,-822],[427,-235],[744,-411],[1836,-939],[2374,-1213],[4385,-2249],[949,-470],[6237,-3188],[8104,-3150],[5397,-2113],[301,-919],[126,-391],[697,-2055],[950,-3423],[1107,-3893],[1488,-5243],[459,-1643],[475,-1878],[238,-1213],[158,-1076],[237,-1623],[159,-1213],[174,-1468],[332,-3032],[744,-4538],[285,-2582],[269,-2289],[206,-1291],[237,-1096],[333,-1311],[364,-1134],[427,-1194],[174,-430],[491,-1154],[395,-802],[285,-548],[649,-1115],[396,-567],[1741,-2465],[1013,-1585],[665,-332],[1076,313],[697,-685],[253,-959],[316,-1291],[159,-900],[142,-958],[127,-1330],[47,-998],[64,-1565],[47,-1135],[-601,-587],[-396,-371],[-412,-372],[-427,-333],[-522,-410],[-713,-548],[-174,-137],[-744,-587],[-680,-548],[-412,-391],[-570,-606],[-759,-783],[-554,-626],[-570,-587],[-617,-606],[-681,-665],[-649,-607],[-506,-469],[-475,-431],[-523,-626],[-696,-880],[-744,-959],[-871,-1075],[-696,-861],[-823,-1018],[-380,-430],[-2374,-2504],[-158,-176],[-776,-763],[-427,-411],[-459,-724],[-412,-469],[-617,-606],[-586,-568],[-665,-645],[-807,-783],[-775,-743],[-444,-431],[-617,-586],[-459,-509],[-380,-391],[-459,-392],[-427,-430],[-475,-450],[-443,-411],[-412,-391],[-506,-469],[-428,-392],[-490,-450],[-523,-469],[-395,-372],[-443,-430],[-649,-646],[-412,-371],[-459,-411],[-506,-450],[-681,-607],[-427,-391],[-491,-411],[-617,-567],[-380,-352],[-428,-411],[-474,-450],[-602,-626],[-348,-372],[-649,-626],[-364,-313],[-459,-410],[-696,-587],[-602,-470],[-427,-352],[-681,-626],[-396,-391],[-395,-411],[-412,-430],[-633,-548],[-427,-411],[-301,-450],[-554,-626],[-459,-411],[-696,-665],[-523,-489],[-712,-567],[-902,-528],[-491,-294],[-665,-332],[-490,-431],[-333,-371],[-443,-568],[-269,-489],[-142,-665],[63,-626],[-396,-978],[-934,-333],[-443,-117],[-538,-157],[-538,-176],[-823,-293],[-554,-215],[-570,-215],[-427,-216],[-634,-293],[-854,-293],[-697,-626],[-316,-940],[-348,-802],[-222,-547],[-364,-822],[-507,-235],[-886,-234],[-586,-137],[-585,-137],[-491,-294],[-364,-508],[-902,-255],[-522,-234],[-491,-783],[-570,-724],[-649,-176],[-665,-235],[-522,-156],[-871,-274],[-997,-313],[-870,-274],[-523,-195],[-506,-235],[-617,-450],[-475,-333],[-744,-313],[-617,-78],[-839,-59],[-966,294],[-570,98],[-680,313],[-491,313],[-839,430],[-617,-509],[-206,-391],[-158,-822],[-902,-176],[-744,157],[-649,-59],[-554,-78],[-681,39],[-728,157],[-665,117],[-490,-98],[-554,-313],[-602,-626],[-665,-606],[-522,-255],[-934,-254],[-902,-548],[-380,-606],[-364,-841],[-506,-900],[-491,-470],[-443,-371],[-554,-489],[-602,-802],[-601,-313],[-697,-392],[-538,-802],[79,-880],[270,-998],[63,-645],[253,-685],[364,-430],[32,-861],[-380,-450],[-554,-411],[-538,-469],[-507,-509],[-490,-587],[-412,-489],[-348,-528],[-918,-1370],[79,-117],[1045,-1506],[696,-1096],[617,-1095],[887,-1644],[300,-626],[285,-586],[396,-959],[427,-1115],[175,-567],[205,-802],[159,-1057],[110,-1076],[95,-1193],[-15,-939],[-80,-998],[-174,-958],[-95,-411],[-205,-841],[-428,-1526],[-206,-822],[-126,-782],[-158,-1174],[-64,-822],[-63,-547],[-63,-724],[-1742,58],[-743,137],[-539,176],[-981,353],[-870,293],[-744,137],[-475,78],[-523,157],[-538,313],[-570,821],[-712,39],[-775,-156],[-1045,-137],[-823,-176],[-617,-196],[-649,-234],[-697,-216],[-1218,-508],[-1773,-724],[-792,-274],[-554,-59],[-474,39],[-950,98],[-570,-58],[-617,-763],[-602,-685],[-554,-59],[-918,489],[-538,607],[-1013,1310],[-870,1252],[-475,666],[-602,391],[-1535,-978],[-522,-333],[-586,-685],[-791,-586],[-539,78],[-506,-235],[-570,-430],[-1614,-1057],[-2090,-1330],[-12219,-6612],[-3624,-1761],[-3625,-254]],[[854492,297840],[-3150,35741],[32,5458],[206,1663],[-143,2269],[-126,2895],[-16,215],[0,1741],[-16,5947],[-63,392],[-507,1760],[-332,1898],[-32,2915],[-32,567],[-475,528],[-3102,2054],[-2516,1565],[-1567,881],[-665,254],[-1963,958],[-601,489],[-475,842],[-317,665],[-759,19],[-539,-39],[-870,-137],[-1583,-254],[-1599,-313],[-633,-98],[-522,-59],[-507,20],[-1377,196],[-1408,176],[-1203,156],[-2200,274],[-2739,333],[-1203,78],[-712,117],[-1978,489],[-285,705],[-174,684],[-143,783],[-158,1310],[-269,2524],[-222,1780],[-775,783],[-1013,117],[-918,39],[-776,-98],[-1203,-176],[-775,157],[-1092,508],[-729,313],[-886,137],[-2485,177],[-776,78],[-712,-1624],[554,-1076],[-79,-430],[-1978,2269],[-6585,548],[-1788,2132],[-2216,1409],[-5034,6279],[-237,-274],[-3261,3971],[-348,-332],[-2707,2895],[-1820,-1682],[-2057,3462],[-1124,-587],[-13137,8941],[-7297,4910],[-2010,1506],[-1013,352],[-776,196],[-934,117],[-1788,78],[-1646,59],[-1219,0],[-1773,-137],[-775,-254],[-950,-489],[-997,-607],[-1156,-665],[-1282,-704],[-633,313],[-301,978],[-269,587],[-490,939],[-254,665],[-16,978],[-1266,-1076],[-316,-978]],[[854492,297840],[-16,-215],[63,-3815],[0,-1350],[0,-743],[301,-665],[285,-646],[554,-724],[459,-606],[16,-1174],[-443,-567],[-206,-411],[-222,-782],[-411,-959],[-333,-724],[-284,-978],[0,-606],[79,-939],[79,-802],[-32,-861],[-396,-509],[-933,-1037],[-903,-19],[-617,117],[-712,98],[-839,98],[-744,-587],[-317,-1115],[-126,-724],[-127,-1017],[-237,-900],[-269,-685],[-238,-841],[-791,-743],[-491,-450],[-1013,-1057],[-854,-1154],[-1283,-1624],[-949,-1075],[-1140,-1057],[-3593,-3208],[-1883,-1624],[-966,-548],[-2596,-1173],[-1171,-274],[-4321,-763],[-1614,-196],[-523,137],[-6600,2719],[0,-626],[16,-2934],[-3356,98],[79,3521],[-25040,8079],[0,-3501],[-95,-3658],[1742,-20],[-95,-3580],[4020,-137],[47,-7023],[1757,-137],[-190,-3580],[-2121,98],[-79,-39],[-981,-1056],[1709,-3091],[5144,-7865],[-2295,-3736],[-332,-548],[1250,0],[1045,20],[1235,0],[981,0],[1330,0],[1202,19],[871,0],[1219,20],[760,0],[664,0],[713,-39],[569,-59],[459,-78],[586,-117],[807,-216],[855,-274],[886,-352],[586,-254],[1171,-528],[586,-431],[364,-880],[237,-372],[380,-684],[364,-372],[792,-626],[395,-469],[317,-548],[396,-900],[205,-587],[808,215],[490,176],[950,157],[475,156],[538,137],[633,294],[380,469],[269,509],[269,1017],[32,567],[-32,802],[-79,822],[-32,607],[48,723],[522,685],[617,196],[428,97],[633,20],[918,-293],[617,-313],[934,-489],[871,-431],[949,-391],[728,-372],[459,-313],[618,-880],[237,-646],[253,-704],[174,-469],[48,-763],[-79,-783],[-63,-665],[-523,-743],[-775,-626],[-713,-255],[-601,-274],[-491,-195],[-791,-528],[-538,-450],[-428,-431],[-490,-782],[-95,-744],[190,-606],[522,-724],[411,-391],[792,-528],[570,-176],[728,-157],[554,-117],[617,-59],[633,-19],[760,-20],[823,-59],[981,-58],[570,528],[412,802],[285,469],[712,1115],[427,548],[475,450],[332,333],[618,195],[522,-176],[728,-489],[586,-704],[285,-567],[300,-1096],[32,-743],[-79,-939],[-95,-646],[-222,-978],[-300,-802],[-317,-783],[-396,-899],[-332,-626],[-190,-509],[-127,-1135],[-79,-782],[16,-939],[633,-959],[617,-626],[713,-665],[680,-450],[570,-352],[681,-509],[791,-586],[823,-587],[728,-489],[491,-372],[491,-450],[380,-939],[189,-802],[206,-783],[586,-782],[411,-294],[554,-352],[950,-293],[839,78],[823,254],[633,450],[554,548],[602,724],[332,724],[237,489],[523,939],[332,509],[633,821],[712,646],[697,489],[617,313],[697,215],[775,137],[491,156],[522,274],[744,274],[712,118],[586,78],[554,58],[601,20],[808,-20],[538,-97],[538,-157],[807,-352],[602,-333],[506,-352],[602,-489],[728,-724],[364,-665],[190,-704],[95,-1213],[63,-704],[63,-528],[95,-763],[95,-763],[64,-802],[63,-841],[95,-802],[190,-724],[206,-665],[284,-959],[254,-1154],[126,-861],[95,-685],[127,-547],[348,-744],[396,-841],[253,-548],[332,-880],[143,-528],[206,-861],[253,-900],[206,-567],[332,-841],[190,-509],[427,-606],[602,-509],[855,-704],[506,-411],[586,-665],[348,-528],[443,-411],[712,-587],[444,-567],[522,-900],[364,-1135],[237,-802],[254,-450],[-143,-802],[-158,-802],[-127,-724],[-126,-998],[-48,-762],[-16,-529],[0,-723],[254,-881],[712,-743],[490,-313],[444,-274],[680,-430],[855,-353],[586,-117],[633,-39],[680,39],[950,78],[522,59],[491,39],[554,59],[807,59],[523,19],[538,78],[759,216],[760,723],[348,665],[918,1565],[444,666],[823,430],[823,-98],[585,-313],[887,-430],[759,-333],[918,-371],[-174,-3698],[-269,-1858],[-158,-1272],[-237,-1467],[15,-1135],[1931,-4010],[998,-2054],[949,-1858],[206,-431],[681,-3071],[-839,-607],[174,-743],[-158,-841],[569,-3169],[364,-255],[649,40],[871,-568],[317,-939],[47,-861],[364,-1095],[459,-646],[1140,-1213],[-681,-567],[-728,-411],[-1314,-450],[-221,-78],[-887,-430],[-1013,-646],[-443,-371],[-522,-255],[-538,-997],[-111,-998],[63,-1193],[32,-1448],[506,-39],[238,-1487],[475,-1819],[63,-568],[364,-1193],[-222,-900],[-1472,-665],[0,-372],[174,-1193],[206,-1467],[127,-998],[16,-1095],[-111,-665],[16,-998],[95,-900],[31,-548],[79,-1017],[-47,-685],[32,-1037],[142,-723],[237,-861],[80,-978],[-95,-1174],[95,-782],[158,-803],[142,-410],[143,-939],[-443,-1037],[-459,-607],[-80,-899],[-269,-1096],[-253,-724],[95,-626],[285,-685],[364,-371],[554,-391],[412,-333],[379,-822],[-791,-489],[-475,-293],[-760,-431],[-490,-430],[-443,-215],[-665,-274],[-554,-215],[-443,-137],[-649,-157],[-887,-195],[-934,-176],[-696,-79],[-870,-176],[-507,-254],[-918,-704],[-570,-470],[-570,-528],[-601,-548],[-475,-391],[-491,-469],[-395,-392],[-586,-567],[-427,-313],[-1108,-645],[-760,-411],[-823,-333],[-934,-372],[-1424,-880],[-903,-528],[-902,-352],[-475,-59],[-712,176],[-775,176],[-586,196],[-427,0],[-713,137],[-696,195],[-887,177],[-506,-79],[-696,-450],[-554,-313],[-903,-215],[-411,-98],[-776,-58],[-506,19],[-728,59],[-728,-20],[-459,79],[-554,-118],[-491,-352],[-760,-332],[-997,-20],[-649,-98],[-586,-156],[-617,-98],[-744,-20],[-744,-19],[-570,19],[-680,0],[47,-411],[95,-997],[143,-1017],[79,-939],[-143,-1116],[-395,-684],[-776,-744],[-617,-489],[-427,-430],[-1045,-1174],[-1409,-1428],[-997,-1017],[-332,-372],[-507,-548],[-316,-371],[-364,352],[-697,724],[-396,469],[-870,470],[-776,215],[-649,156],[-490,20],[-1108,-78],[-238,-20],[-997,-59],[-586,-58],[-728,-59],[-649,-20],[-759,-39],[-633,-39],[-729,20],[-1202,19],[-1472,157],[-2960,567],[-2881,665],[-1155,274],[-1093,254],[-474,118],[-839,195],[-443,939],[31,920],[-617,469],[-443,20],[-744,215],[-523,313],[-506,78],[-744,20],[-1314,548],[-617,469],[-570,392],[-48972,5692],[3926,5576],[-3245,-392],[-6426,-763],[-2295,-293],[-396,900],[-2517,-626],[16,4010],[0,1467],[-79,900],[-206,939],[-617,2348],[-380,939],[-712,98],[-982,-587],[-522,-744],[-316,-704],[-475,-900],[-428,-645],[-522,-490],[-823,-802],[-396,-410],[-554,-685],[-617,-685],[-760,-665],[-585,-665],[-412,-391],[-475,-294],[-633,157],[-744,508],[-2944,-1232],[-285,-685],[48,-1213],[-79,-1252],[-507,-645],[-855,0],[-728,-59],[-696,-78],[-981,-333],[-808,-469],[-1060,-861],[-823,-724],[-697,-684],[-1582,-1741],[-1346,-1468],[-490,-587],[-665,-606],[-538,-430],[-1346,-548],[-3181,-1350],[-2200,-841],[-618,-313],[-427,-274],[-1045,-1096],[-775,-1134],[-317,-861],[-522,-2347],[-554,-2172],[-807,-3189],[-839,-3521],[-491,-2367],[-396,-1839],[-110,-469],[-364,-783],[-554,-684],[-7139,-4324],[-2991,-1663],[-934,-782],[-871,-724],[-997,-469],[-633,-353],[-396,-547],[-142,-1115],[-32,-1898],[-126,-1076],[-444,-528],[-1092,-117],[-2437,117],[-396,-450],[-111,-959],[-190,-2093],[127,-1565],[776,-900],[1297,-743],[903,-509],[633,-939],[31,-821],[-379,-861],[-760,-665],[-697,-254],[-649,-157],[-728,-156],[-902,136],[-965,411],[-681,411],[-665,411],[-965,1115],[-966,1272],[-965,528],[-1077,332],[-554,0],[-506,-860],[-190,-939],[285,-1742],[380,-2601],[31,-2250],[-411,-1702],[-364,-1076],[-1330,-1193],[-2675,-1428],[-1630,-176],[-1741,410],[-2485,1605],[-3340,1662],[-1361,705],[-965,-59],[-1203,-2465],[-1409,-4030],[-1298,-2523],[-570,-959],[-475,-509],[-839,-58],[-506,234],[-586,529],[-1820,1858],[-2042,2582],[-1203,822],[-902,293],[-1203,-215],[-601,-528],[-190,-626],[0,-1037],[221,-1604],[-332,-1428],[-665,-1154],[-1393,-1291],[-3513,-2837],[-1077,-606],[-934,-411],[-823,78],[-1028,1096],[-1108,1213],[-934,899],[-1298,802],[-1108,450],[-1076,196],[-507,978],[-174,313],[-1108,2172],[-570,1076],[-1234,2406],[-507,1017],[-301,665],[-380,1096],[-205,802],[-222,1017],[-158,450],[-380,685],[-332,410],[-729,705],[-696,841],[-253,704],[-16,822],[111,1095],[31,235],[127,1428],[127,430],[221,783],[697,1917],[63,783],[127,958],[-206,861],[-301,606],[-301,646],[-190,450],[-189,704],[-48,567],[0,900],[380,939],[570,841],[617,1311],[507,646],[886,313],[728,19],[491,-332],[459,-98],[759,156],[475,411],[190,881],[285,1134],[412,1135],[379,548],[586,410],[459,529],[538,821],[190,704],[222,685],[427,646],[380,215],[760,-274],[316,-470],[728,-626],[1188,-391],[538,-254],[617,-450],[427,-919],[871,-216],[491,568],[237,293],[1361,1643],[285,665],[32,939],[126,509],[475,880],[111,685],[-174,939],[-111,763],[-237,802],[-396,587],[-491,822],[-443,782],[-237,509],[-269,841],[15,841],[190,763],[475,783],[285,371],[-16,841],[-490,959],[-349,1193],[-538,685],[-870,-78],[-475,-646],[-238,-704],[-79,-646],[-31,-919],[-507,-685],[-934,-234],[-839,371],[-348,665],[-221,861],[-380,900],[-792,1643],[64,352],[728,1213],[174,920],[-79,371],[-507,744],[-617,489],[-554,215],[-475,39],[-554,137],[-1060,411],[-444,195],[-538,216],[-522,97],[-491,-215],[-823,-215],[-2073,-724],[-1077,-98],[-759,235],[-586,959],[-491,1350],[-633,939],[-680,-372],[-48,-724],[-174,-1135],[-396,-410],[-237,-1174],[491,-920],[16,-508],[-713,-372],[-949,372],[-649,0],[-744,-548],[-966,137],[-206,665],[-443,822],[-617,-489],[-807,684],[-349,646],[-569,450],[-443,215],[-839,528],[-681,-156],[-617,-959],[-538,-176],[-475,470],[-792,567],[-601,-117],[-697,-392],[-601,313],[-522,1018],[-127,332],[-380,763],[-1076,998],[-712,-665],[-713,-431],[-617,-215],[-522,-391],[-491,-704],[-491,-372],[-649,176],[-854,587],[-459,98],[-586,-157],[-681,-685],[-1187,-841],[-997,-58],[-285,841],[-854,606],[-665,59],[-459,-157],[-760,-313],[-538,-430],[-269,-333],[-491,-586],[-744,-157],[-696,-293],[-523,821],[-348,607],[-696,900],[-127,782],[143,567],[-64,666],[-395,763],[-127,606],[-269,704],[-127,822],[-823,372],[-380,-177],[-649,-117],[-300,-450],[-602,-665],[-411,-528],[-697,-215],[-411,704],[-285,782],[-649,822],[-570,235],[-633,274],[-570,743],[-237,567],[-79,744],[63,1799],[-475,979],[-380,723],[-601,568],[-222,469],[-158,802],[31,607],[190,1760],[-79,1135],[-348,411],[-554,293],[-427,78],[-523,646],[-237,763],[-285,646],[-237,1349],[-349,979],[-569,371],[-412,-58],[-633,39],[-712,293],[-934,78],[-554,-137],[-981,-58],[-713,156],[-728,822],[-585,411],[-317,547],[206,959],[-32,1154],[-47,254],[-412,939],[-190,763],[32,685],[696,763],[491,372],[332,1095],[-190,802],[-649,763],[-633,411],[-649,391],[-1171,98],[-396,-117],[-696,-685],[-886,-567],[-459,98],[-634,39],[-601,-196],[-522,-78],[-681,-98],[-776,-137],[-364,333]],[[581553,111194],[-664,880],[-839,274],[-649,313],[-238,880],[-142,900],[285,665],[775,137],[697,567],[396,646],[332,548],[301,1134],[-333,978],[64,802],[-776,763],[-617,372],[-475,920],[-158,899],[-269,568],[-365,919],[222,665],[807,724],[744,235],[602,59],[585,234],[428,450],[443,509],[380,332],[744,255],[712,1076],[554,1095],[522,900],[285,430],[427,1526],[175,685],[142,704],[-47,1331],[79,1017],[-713,724],[-838,469],[-380,587],[95,1056],[237,666],[95,508],[237,1017],[539,979],[522,547],[586,744],[554,860],[364,294],[506,411],[-364,978],[-791,254],[-586,176],[-491,157],[-316,606],[-95,724],[-111,919],[-301,763],[-158,744],[-16,587],[-63,1056],[-32,763],[0,528],[-63,1076],[206,646],[506,978],[-111,1154],[127,763],[32,1017],[-48,646],[-142,684],[-269,802],[-285,568],[-428,450],[-395,880],[15,763],[-79,606],[-237,724],[-586,959],[-570,645],[-759,724],[-254,802],[317,939],[-47,1057],[-444,821],[-364,489],[-569,665],[-792,959],[-411,626],[-364,1017],[-48,1076],[32,724],[47,724],[64,802],[158,1213],[190,1252],[95,821],[47,920],[-63,821],[-63,646],[-206,1272],[-222,1447],[-253,1604],[-222,1526],[-63,685],[-47,1017],[15,1546],[-31,978],[-32,469],[-158,880],[-333,1135],[-332,743],[-348,744],[-396,606],[-316,411],[-475,450],[-570,470],[-823,626],[-1092,841],[-507,489],[-570,880],[-269,548],[-237,880],[-48,509],[80,939],[110,469],[317,881],[269,430],[174,919],[-253,763],[-16,1037],[-63,646],[-602,469],[16,1233],[-32,782],[-443,607],[-111,626],[-15,880],[-491,509],[0,1095],[190,430],[-174,881],[316,939],[-190,1232],[697,548],[570,900],[221,958],[-269,979],[522,313],[143,1095],[396,783],[300,293],[554,685],[-221,1037],[-443,586],[-618,40],[-395,234],[-396,881],[-459,802],[-570,215],[0,880],[-776,294],[-696,-20],[-522,704],[-902,176],[-839,685],[538,783],[-285,1271],[316,1311],[539,958],[190,489],[-380,1272],[427,391],[459,470],[-174,958],[-285,685],[-190,470],[-427,939],[-317,704],[-174,430],[0,822],[665,391],[380,196],[1298,763],[791,489],[237,176],[649,489],[570,606],[459,568],[554,782],[491,724],[696,763],[744,567],[396,528],[285,978],[174,1018],[-79,1115],[-190,411],[-459,958],[-301,646],[-237,606],[-491,1076],[-364,548],[-507,743],[-63,822],[127,841],[269,1330],[554,1839],[285,959],[554,704],[870,469],[792,450],[775,607],[348,665],[111,528],[0,646],[-111,821],[-205,1174],[-127,1076],[0,626],[48,743],[269,1174],[316,998],[111,645],[-111,1155],[-665,939],[-237,763],[-63,528],[-222,743],[-206,509],[-522,1252],[-142,1017],[15,743],[-63,1076],[-206,881],[-522,860],[-538,470],[-760,587],[-475,450],[-475,606],[-190,880],[48,939],[47,685],[143,1076],[142,685],[1187,548],[808,78],[506,508],[317,450],[807,509],[554,-20],[934,118],[269,763],[411,900],[269,919],[-142,450],[-63,802],[-222,1193],[-158,1076],[-95,1155],[-127,821],[-126,587],[-539,861],[-379,391],[0,1076],[522,352],[79,802],[111,685],[-317,880],[143,763],[111,880],[-159,802],[127,450],[396,822],[680,880],[554,431],[-79,1037],[-190,762],[-111,1174],[222,998],[-269,704],[-238,509],[48,1095],[475,392],[506,215],[317,724],[253,919],[206,567],[332,626],[491,685],[491,450],[633,802],[348,372],[364,684],[-32,1135],[-142,783],[206,762],[490,959],[-443,959],[-396,410],[-459,744],[-443,450],[-775,254],[-618,176],[-142,939],[364,685],[-63,548],[-175,821],[-395,235],[-649,215],[-428,391],[-823,372],[-617,235],[-775,-724],[-586,-235],[-364,-195],[-807,-157],[-665,20],[-475,234],[-633,255],[-317,1095],[-459,626],[-506,0],[-586,196],[-491,685],[-379,254],[-602,19],[-585,568],[-143,782],[-16,1037],[-285,880],[-110,763],[-824,665],[-997,-78],[-506,-293],[-807,-39],[-539,684],[-554,274],[-664,528],[-174,392],[-380,782],[-380,470],[-459,587],[-443,978],[-665,567],[-158,626],[-285,1095],[-713,548],[-411,548],[-333,391],[-474,450],[-507,313],[-475,235],[-190,998]],[[581553,111194],[-427,-79],[-918,-332],[-902,-352],[-807,-352],[-634,-372],[-553,-274],[-491,-411],[-681,-645],[-411,-842],[-1045,-821],[-1409,-626],[-1266,-724],[-775,-157],[-808,803],[-1123,-98],[-5667,-2896],[269,-2582],[-680,-156],[-602,-59],[-1963,-509],[-2659,294],[-585,-1017],[-808,-40],[-728,-528],[-839,-587],[-395,509],[-744,626],[-681,254],[-839,39],[-965,-39],[-1409,0],[-285,0],[-1187,-39],[-522,137],[-855,607],[-665,645],[-902,-1017],[-775,-685],[-618,-645],[-174,-842],[-443,-528],[-823,-156],[-412,156],[-459,646],[-1044,841],[-333,313],[-554,489],[-554,548],[-411,235],[-602,273],[-379,431],[-365,450],[-348,724],[-316,567],[-428,645],[-364,568],[-506,704],[-285,763],[79,665],[-459,900],[-601,626],[-539,196],[-696,234],[-950,39],[-791,196],[-364,430],[-602,392],[-601,-137],[-570,-59],[-728,157],[-601,156],[-697,489],[-554,431],[-16,-1742],[-63,-2425],[-1409,802],[0,-959],[-31,-958],[-111,-1604],[0,-79],[-1694,-1310],[-870,-118],[-396,333],[-712,411],[-602,215],[-807,274],[-459,117],[-7882,2445],[-2976,920],[-1662,489],[-396,-176],[-744,-333],[-649,-469],[-601,-978],[-965,-2583],[-317,-1271],[-317,-1233],[-158,-821],[-111,-529],[-617,-626],[-301,-723],[-16,-763],[-15,-528],[-349,-666],[-728,-450],[222,-645],[79,-1076],[63,-1389],[95,-861],[301,-919],[79,-783],[317,-626],[111,-782],[-206,-802],[554,-1017],[459,-959],[807,-685],[63,-919],[333,-704],[506,-802],[459,-529],[428,-587],[-80,-1154],[665,-919],[475,-626],[712,-274],[333,-567],[459,-842],[490,-919],[238,-841],[237,-333],[491,-743],[459,-509],[411,-293],[554,-391],[776,-20],[649,-783],[491,-762],[759,-685],[728,-646],[618,-704],[570,-489],[269,-274],[221,-861],[-63,-645],[-222,-1174],[-142,-959],[-111,-1017],[-237,-919],[-222,-626],[-237,-763],[-159,-783],[-411,-1232],[-174,-548],[-190,-861],[-348,-1486],[-190,-802],[-127,-900],[-111,-900],[-253,-1096],[-269,-645],[-348,-978],[-238,-881],[79,-802],[887,-802],[174,-137],[791,-900],[538,-587],[491,-469],[-221,-880],[-396,-1663],[-396,-1663],[-285,-704],[-411,-450],[-1836,-1878],[-364,-431],[-428,-743],[-126,-802],[-618,-4421],[-174,-1096],[-269,-1369],[-364,-2543],[-95,-1350],[-79,-2250],[63,-1193],[143,-1037],[665,-5145],[-2897,-195],[-475,-1859],[-348,-313],[-617,-391],[-792,-548],[-680,-293],[-491,-79],[-871,-234],[-601,430],[-143,548],[-142,724],[-111,587],[-649,665],[-411,-137],[-776,-196],[-554,-117],[-585,-215],[-808,-392],[-680,-254],[-918,-430],[-665,-411],[-348,-255],[-633,-352],[-364,-195],[-570,-352],[-570,-353],[-791,-313],[-649,-58],[-823,-157],[-871,-274],[-507,-606],[-379,-880],[-823,117],[-539,78],[-838,450],[-586,255],[-649,117],[-586,-39],[-601,0],[-950,0],[-506,58],[-618,157],[-680,137],[-649,137],[-887,176],[-696,156],[-1725,431],[-1583,352],[-32,0],[-1456,352],[-63,0],[-1725,430],[-507,137],[-1551,372],[-1425,313],[-490,98],[-1346,313],[-1203,254],[-379,78],[-1283,274],[-1851,450],[-190,-978],[-333,-1545],[-300,-1487],[-95,-685],[-111,-802],[-64,-1154],[32,-822],[-807,-547],[-728,-176],[-570,-137],[-855,-548],[-839,-254],[-554,-98],[-728,-274],[-538,-352],[-870,-489],[-428,-450],[-332,-900],[-459,-215],[-633,-216],[-348,-215],[-792,59],[-1155,156],[-444,59],[-807,118],[-554,117],[-839,274],[-269,880],[-633,489],[-918,-137],[-585,-58],[-444,606],[-475,391],[-759,450],[-586,157],[-712,0],[-744,-98],[-776,-59],[-63,-665],[-332,-567],[-491,-176],[-712,117],[-633,-59],[-634,-176],[-569,-176],[-649,-215],[-713,-235],[-506,-313],[-760,-78],[-870,176],[-903,450],[-553,-20],[-681,20],[-728,-176],[-570,-39],[-807,-157],[-855,-489],[-633,-137],[-570,-97],[-696,-372],[-697,-78],[-601,-59],[-681,0],[-475,332],[-759,470],[-634,450],[-870,117],[-696,0],[-1093,-78],[-348,1115],[-601,978],[-792,39],[-411,20],[-618,0],[-728,-20],[-823,-19],[-902,274],[-728,489],[-617,195],[-665,0],[-554,-78],[-823,39],[-712,118],[-491,117],[-570,254],[-728,176],[-475,-117],[-538,-235],[-918,-98],[-332,822],[-32,822],[-570,645],[-949,235],[-618,156],[-775,20],[-918,176],[-681,333],[-554,176],[-950,371],[-664,294],[-792,332],[-411,98],[-681,176],[-554,157],[-633,117],[-570,98],[-522,59],[-807,19],[-887,-39],[-791,-39],[-522,-59],[-602,-78],[-554,-333],[-142,-1173],[-523,-489],[-696,19],[-966,98],[-633,274],[-554,196],[-918,58],[-712,118],[-633,273],[-1045,-1467],[-585,235],[-554,-176],[-1251,-3365],[-522,-1154],[-333,-626],[-506,-587],[-317,-508],[-364,-626],[-633,-685],[-506,-509],[-380,-606],[-459,-724],[-443,0],[-744,20],[-807,19],[-808,-19],[-664,176],[-602,97],[-1013,-19],[-665,-118],[-427,-117],[-760,-176],[-617,215],[-317,411],[-459,489],[-490,313],[-633,548],[-618,645],[-506,822],[-301,528],[-459,763],[-301,548],[-570,958]],[[367194,6240],[-15,959],[379,763],[491,646],[317,449],[712,177],[918,215],[633,293],[443,431],[523,234],[617,313],[522,509],[174,509],[254,1056],[728,450],[364,645],[16,1076],[601,352],[633,59],[807,724],[285,919],[491,1311],[190,724],[111,626],[142,685],[190,763],[285,567],[538,704],[744,861],[269,1017],[16,528],[237,802],[238,685],[206,646],[269,841],[411,1271],[206,705],[222,763],[237,880],[332,391],[507,391],[459,431],[570,567],[744,528],[728,39],[380,98],[490,665],[127,626],[364,568],[680,528],[444,880],[47,1076],[-174,880],[-412,607],[-237,978],[16,1643],[47,509],[-31,880],[0,1624],[63,978],[-222,1115],[-379,704],[-317,802],[-142,1155],[15,939],[159,723],[775,607],[317,665],[-79,1272],[585,919],[1077,548],[490,567],[64,528],[379,998],[760,3326],[206,1076],[364,1506],[649,1682],[237,646],[159,997],[95,1194],[63,626],[0,1056],[-32,704],[95,666],[95,1506],[16,1311],[95,1193],[79,919],[-79,978],[-237,1565],[-2074,1292],[-1551,1095],[-2010,1409],[-380,234],[-2042,1468],[-1472,684],[-791,313],[-649,137],[-1314,470],[-1472,567],[-1266,489],[-523,391],[-474,528],[-681,763],[-1155,1018],[-2201,3130],[-79,117],[-601,822],[-1583,2171],[-570,1546],[333,528],[380,587],[680,860],[570,568],[380,332],[791,626],[570,470],[570,411],[870,723],[80,1135],[-649,2074],[-301,860],[-1947,4030],[-681,1174],[-965,1663],[-981,1721],[-554,392],[-713,371],[-490,294],[-697,371],[-443,568],[-443,860],[-570,666],[-681,802],[-759,763],[-444,293],[-617,450],[-348,274],[-934,645],[-870,587],[-507,411],[-554,509],[-538,939],[-886,195],[-491,216],[-475,293],[-554,391],[-506,568],[-380,704],[-206,645],[-253,842],[-79,1212],[269,1448],[285,1663],[79,861],[-16,567],[-253,1956],[158,665],[617,1135],[348,724],[333,1115],[-64,1095],[-316,939],[348,881],[633,743],[-332,567],[-380,392],[95,841],[269,626],[538,1526],[570,645],[538,392],[570,899],[222,900],[-16,724],[-32,802],[-206,763],[-300,548],[-270,528],[-348,685],[-221,645],[-111,1057],[332,880],[269,841],[222,450],[301,763],[221,802],[-965,196],[-697,176],[-664,235],[-998,313],[-854,137],[-538,19],[-491,39],[-760,-39],[-791,39],[-602,274],[-554,235],[-522,176],[-570,254],[-586,157],[-743,-98],[-459,-196],[-681,665],[-522,587],[-396,333],[-507,450],[-664,489],[-618,332],[-490,255],[-507,332],[-570,59],[-870,-215],[-776,-98],[-538,156],[-712,196],[-491,59],[-712,58],[-776,-58],[-1013,117],[-823,372],[-823,567],[-601,313],[-570,176],[-871,333],[-854,215],[-618,254],[-617,1115],[-459,842],[-475,489],[-791,273],[-554,372],[-823,646],[-633,684],[-475,294],[-697,235],[-791,-333],[-411,-411],[-681,-215],[-855,215],[-665,137],[-759,196],[-507,58],[-570,-39],[-617,-19],[-427,-39],[-697,0],[-759,39],[-839,235],[-665,528],[-966,254],[-712,470],[-475,234],[-680,-371],[-665,19],[-475,431],[-823,469],[-522,196],[-475,156],[-570,215],[-681,0],[-838,-97],[-950,-59],[-633,195],[-792,470],[-427,333],[-586,567],[-522,626],[-665,821],[-490,470],[-349,430],[-601,489],[-918,137],[-570,255],[-807,117],[-538,20],[-507,0],[-775,-79],[-491,39],[-586,137],[-649,313],[-443,411],[-411,431],[-808,860],[-348,372],[-585,450],[-444,313],[-490,606],[-444,881],[-316,782],[-396,1057],[-585,860],[-507,294],[-807,372],[-412,547],[-316,802],[-428,1037],[-443,489],[-490,528],[-744,705],[-950,352],[-617,98],[-554,78],[-665,19],[-934,40],[-965,78],[-792,98],[-665,195],[-712,352],[-586,372],[-633,567],[-601,157],[-554,78],[-712,-19],[-1092,-79],[-1219,-195],[-1963,-59],[-601,-39],[-570,-39],[-1361,58],[-333,0],[-1187,20],[-681,98],[-1266,117],[-1741,78],[-585,0],[-744,-156],[-887,-196],[-427,-195],[32,-4069],[-1219,352],[-997,215],[-1282,235],[-950,274],[-1092,117],[-1282,176],[-618,59],[-1757,-118],[-189,137],[-1188,118],[-1139,0],[-523,2601],[-2200,-117],[-744,4284],[-759,763],[-254,528],[-569,1155],[-839,1526],[-507,978],[-1171,1271],[-79,78],[-1488,1565],[-1187,1722],[-332,959],[253,880],[79,587],[190,763],[316,410],[1726,1898],[1123,1487],[349,1134],[395,979],[0,762],[-332,529],[-1092,430],[-1630,939],[-1710,1604],[-981,1956],[-238,724],[-269,431],[-585,410],[-649,274],[-760,411],[-839,450],[-1171,665],[-1425,568],[-1503,626],[-1631,547],[-221,79],[-1314,547],[-886,607],[-697,802],[-332,430],[-475,978],[-158,587],[-127,626],[-158,880],[-348,959],[-349,489],[-554,665],[-807,724],[-1424,1017],[-998,744],[-965,997],[-459,1076],[47,802],[16,979],[-174,958],[-301,489],[-633,567],[-949,705],[-839,626],[-301,391],[-190,743],[111,920],[-190,1193],[-412,743],[-775,1174],[-522,881],[-317,371],[-602,431],[-427,137],[-744,97],[-855,235],[-506,509],[-301,1017],[-158,1135],[-127,958],[-47,1272],[-95,2171],[-79,841],[-222,979],[-364,489],[-823,743],[-427,372],[-570,880],[-158,665],[-111,587],[-95,939],[-48,900],[-31,782],[-238,1155],[-380,899],[-743,1331],[-871,1428],[-348,547],[-491,353],[-681,215],[-743,98],[-903,0],[-1108,-176],[-2089,-392],[-1915,-332],[-1440,-98],[-1251,19],[-1139,196],[-1520,391],[-665,1683],[-395,1076],[-459,1467],[-649,1682],[-507,1194],[-411,763],[-475,547],[-333,313],[-617,411],[-696,411],[-713,352],[-791,450],[-886,352],[-523,372],[-538,411],[-396,450],[-443,626],[-380,802],[-427,841],[-396,997],[-348,1076],[-206,744],[-190,919],[-205,978],[-95,959],[-190,704],[-206,685],[-285,528],[-364,528],[-412,411],[-664,509],[-396,313],[-412,860],[-332,2211],[-633,2367],[-586,1624],[-554,1623],[-316,1448],[-507,1917],[-759,1820],[-950,1584],[-1187,1546],[-618,802],[-585,626],[-523,489],[-474,567],[-871,880],[-775,822],[-459,489],[-491,606],[-348,666],[-222,547],[-285,763],[-253,802],[-633,1976],[-507,665],[-807,626],[-443,450],[-301,509],[-285,704],[-269,626],[-237,567],[-285,529],[-396,684],[-633,920],[-317,684],[-269,587],[-269,705],[-332,586],[-412,607],[-585,645],[-333,489],[-649,822],[-285,587],[-316,587],[-253,606],[-222,548],[-253,685],[-158,782],[-254,920],[-300,1076],[-270,900],[-221,684],[-285,841],[-222,881],[-253,821],[-301,587],[-364,607],[-316,567],[-523,1037],[-237,587],[-237,900],[-79,939],[-111,1056],[-174,1232],[-159,822],[-237,724],[-332,821],[-301,920],[-253,606],[-380,724],[-491,763],[-301,665],[-522,1135],[-317,821],[-427,900],[-364,959],[-269,763],[-222,802],[-79,724],[-111,782],[-63,744],[-158,782],[-301,900],[-285,606],[-475,763],[-443,489],[-570,431],[-443,332],[-475,352],[-522,294],[-807,196],[-618,58],[-854,-58],[-887,0],[-1060,-137],[-997,-40],[-760,79],[-918,234],[-791,274],[-871,255],[-459,215],[-728,274],[-538,234],[-633,313],[-554,216],[-444,254],[-648,685],[-159,587],[-47,684],[-32,568],[48,723],[15,1155],[143,1584],[47,900],[32,998],[-111,684],[-237,724],[-222,626],[-506,528],[-507,587],[-585,646],[-444,587],[-427,626],[-459,841],[-586,900],[-775,880],[-443,548],[-459,626],[-491,704],[-459,724],[-412,489],[-522,489],[-617,489],[-713,489],[-395,391],[-807,842],[-618,567],[-538,489],[-554,333],[-554,410],[-538,744],[-174,645],[-95,626],[0,1135],[-32,1115],[-47,880],[-48,881],[-95,1036],[-142,470],[-649,685],[-1013,723],[-522,392],[-459,450],[-507,821],[-253,509],[-301,665],[-285,724],[-316,587],[-380,528],[-428,469],[-490,431],[-348,548],[-222,626],[-253,939],[-222,1036],[-142,646],[-269,528],[-396,665],[-301,431],[-633,586],[-776,900],[-648,665],[-570,783],[-744,998],[-459,626],[-364,489],[-760,919],[-1092,1272],[-602,724],[-1013,1310],[-617,802],[-760,822],[-791,919],[-538,529],[-697,626],[-696,586],[-617,490],[-792,469],[-760,489],[-902,743],[-696,490],[-475,430],[-506,704],[-475,744],[-412,665],[-332,665],[-538,1037],[-507,684],[-506,587],[-285,587],[-222,704],[-206,685],[-221,919],[-190,1076],[-333,1213],[-205,705],[-222,665],[-364,684],[-317,470],[-395,939],[-111,704],[-285,1389],[-285,1056],[-380,1155],[-253,743],[-506,939],[-459,489],[-713,704],[-633,626],[-728,646],[-364,411],[-554,743],[-712,802]],[[82211,457666],[601,294],[649,117],[633,137],[428,59],[696,332],[427,157],[618,273],[744,450],[506,118],[602,117],[490,294],[918,293],[554,509],[697,254],[601,372],[728,313],[507,195],[601,157],[554,156],[728,20],[760,0],[586,39],[854,20],[934,-98],[665,-78],[507,-98],[870,-255],[522,-254],[475,-215],[839,-294],[665,-156],[443,-235],[507,-274],[838,-313],[776,-156],[918,-98],[966,274],[649,274],[1519,-587],[886,-528],[523,-392],[332,-273],[586,-274],[823,-216],[475,-215],[649,-98],[569,-176],[554,-234],[966,-450],[522,-215],[776,-157],[411,-98],[776,-215],[886,39],[792,587],[744,391],[569,313],[665,255],[523,156],[728,78],[838,-19],[966,-59],[791,59],[475,0],[665,137],[696,137],[760,195],[2723,607],[601,156],[950,313],[617,137],[443,0],[649,0],[712,-176],[697,-78],[633,-137],[681,-117],[664,-40],[475,216],[776,352],[585,391],[871,606],[902,274]],[[82211,457666],[-475,626],[-586,607],[-411,273],[-728,450],[-412,255],[-1409,724],[-823,449],[-427,294],[-601,645],[-507,685],[-728,1096],[-475,782],[-617,802],[-792,900],[-364,411],[-712,743],[-950,1252],[-379,607],[-539,900],[-680,1291],[-538,1310],[-380,842],[-333,586],[-348,529],[-395,626],[-349,567],[-316,646],[-174,586],[-285,900],[-238,587],[-332,724],[-285,489],[-396,548],[-316,411],[-665,704],[-744,587],[-1171,743],[-618,548],[-474,509],[-333,547],[-427,861],[-491,665],[-744,783],[-712,626],[-997,1017],[-807,841],[-808,939],[-1756,2054],[-475,724],[-159,509],[-31,939],[31,665],[32,997],[-63,1057],[-95,606],[-348,607],[-665,587],[-602,273],[-1013,353],[-823,645],[-348,724],[-380,724],[-396,587],[-538,626],[-1076,1095],[-491,567],[-285,411],[-284,783],[47,939],[142,508],[396,959],[333,724],[332,861],[491,997],[506,939],[348,763],[301,880],[285,803],[522,215],[633,-352],[618,-255],[886,-352],[697,-137],[759,20],[728,78],[586,39],[681,-156],[696,-724],[491,-626],[680,-646],[285,1057],[174,821],[238,1057],[237,919],[158,685],[95,841],[80,900],[126,1056],[111,1135],[95,978],[79,783],[427,880],[1013,137],[934,58],[554,79],[871,137],[712,215],[649,176],[538,196],[522,567],[-126,919],[-222,607],[-554,665],[-316,352],[-538,606],[-823,1057],[-1283,1721],[-395,607],[-412,841],[-237,528],[-285,548],[-427,724],[-744,1252],[-444,606],[-427,528],[-491,431],[-379,215],[-887,332],[-839,255],[-506,684],[126,783],[175,861],[79,626],[-79,1095],[-190,959],[-507,919],[-506,665],[-349,685],[-63,587],[-16,763],[-111,548],[-300,606],[-459,411],[-1615,919],[-823,509],[-1535,939],[-2406,1545],[-1076,646],[-491,274],[-1219,2484],[-1772,3385],[-1868,2836],[-823,1409],[-586,528],[-823,313],[-807,235],[-475,371],[-776,1272],[-427,900],[-617,1369],[-348,978],[-380,1037],[-364,391],[-728,372],[-570,548],[-2137,3286],[-1630,2622],[-1314,1956],[-1171,1878],[-649,880],[-839,1154],[-206,509],[-317,763],[-253,685],[-95,547],[-158,1194],[-412,1115],[-395,489],[-902,1017],[-1045,1409],[-396,645],[-301,587],[-142,959],[32,1780],[0,1995],[63,2856],[-617,489],[-538,79],[-1061,176],[-586,78],[-601,861],[16,1173],[-16,1096],[111,743],[158,705],[174,723],[158,900],[64,802],[221,1037],[475,685],[-47,645],[-64,842],[-15,704],[-48,704],[-79,802],[-95,978],[-63,626],[-32,607],[-111,1193],[-79,939],[-63,939],[-111,567],[-348,881],[316,1017],[538,78],[459,98],[554,333],[-79,899],[-522,705],[-332,704],[-364,548],[-665,665],[-887,293],[-680,470],[190,802],[253,841],[364,1135],[459,841],[459,704],[301,724],[174,548],[221,626],[365,547],[379,411],[523,548],[348,372],[348,743],[63,1056],[159,568],[285,1134],[158,763],[190,920],[206,665],[285,978],[63,782],[-285,1057],[-79,1213],[174,763],[269,1193],[16,841],[31,724],[80,665],[190,1291],[174,1683],[110,1447],[175,1683],[63,723],[95,959],[32,411],[-16,841],[-32,450],[-237,998],[-396,567],[-427,352],[-808,685],[-664,645],[-523,607],[-506,704],[-570,685],[-412,665],[-348,1115],[-475,743],[-680,411],[-855,607],[-380,410],[-301,842],[-379,1154],[-333,606],[-253,528],[-443,861],[-570,391],[-190,548],[-127,959],[760,430],[791,587],[539,293],[585,118],[348,606],[349,1624],[443,1897],[285,1272],[316,1311],[143,665],[95,880],[0,685],[-95,919],[-111,724],[79,587],[158,626],[238,763],[126,587],[190,978],[111,626],[697,313],[554,-489],[538,39],[760,98],[617,0],[696,235],[523,606],[221,606],[317,900],[190,1096],[31,587],[-110,763],[-190,1036],[-127,861],[-127,763],[-110,548],[-238,645],[-380,587],[-300,1057],[47,626],[301,1076],[570,2034],[300,861],[301,880],[-95,1076],[-190,763],[-237,959],[-127,430],[-285,763],[-221,450],[-475,646],[47,684],[697,489],[775,626],[554,372],[697,293],[459,-802],[158,-274],[506,-762],[1314,-1487],[839,-900],[744,-802],[475,-509],[570,-606],[712,78],[221,959],[206,606],[158,567],[270,861],[221,861],[127,528],[285,1056],[237,626],[238,529],[237,567],[174,626],[222,861],[190,860],[190,842],[47,1056],[-285,822],[238,860],[284,1096],[190,802],[254,939],[348,1056],[348,763],[633,724],[586,-293],[585,-294],[808,-469],[759,-568],[459,509],[190,959],[238,821],[126,665],[127,665],[174,724],[238,1057],[664,-59],[349,-196],[791,548],[127,822],[110,724],[143,1154],[158,1154],[174,1095],[174,1194],[665,-98],[776,-391],[712,-411],[855,-528],[411,-392],[475,-626],[807,-254],[792,196],[174,1115],[206,1213],[205,802],[428,645],[316,626],[443,861],[570,509],[238,489],[332,841],[0,548],[-174,997],[-63,979],[174,626],[380,1056],[190,450],[221,743],[95,528],[143,685],[237,880],[95,842],[332,1252],[127,899],[174,626],[443,2055],[238,2171],[158,1037],[285,1623],[269,1174],[158,568],[301,1486],[1298,-58],[1314,0],[759,78],[887,567],[459,489],[459,509],[443,469],[696,607],[744,587],[776,606],[585,470],[523,410],[538,431],[396,313],[506,391],[443,313],[443,294],[539,293],[854,489],[823,430],[491,196],[538,176],[602,176],[443,118],[633,860],[-285,998],[-142,528],[-16,744],[47,802],[79,567],[143,724],[221,1095],[-47,1780],[-16,1115],[0,666],[127,997],[142,998],[206,724],[127,1174],[31,1173],[127,1057],[95,782],[0,626],[-554,724],[-491,39],[-1456,137],[-934,98],[-839,137],[-506,176],[-507,802],[-728,59],[-760,-176],[-506,-118],[-570,-567],[-886,548],[16,860],[-808,-97],[-728,665],[0,704],[-95,626],[-253,802],[-222,685],[-189,1193],[142,822],[981,78],[633,-157],[966,20],[443,313],[586,-20],[728,-313],[554,626],[696,450],[681,216],[823,39],[348,-235],[792,274],[459,411],[364,743],[617,763],[870,156],[507,-508],[348,-235],[491,-685],[475,-137],[395,-586],[0,-1213],[808,-665],[664,-20],[491,78],[475,489],[633,294],[364,-98],[617,-274],[475,-78],[633,195],[412,157],[696,215],[649,137],[428,-117],[617,-274],[760,-274],[918,-20],[205,822],[871,567],[886,-274],[570,470],[301,841],[680,-59],[760,392],[491,-411],[396,-352],[680,156],[380,509],[206,665],[-111,743],[-16,1037],[792,567],[791,-391],[966,-371],[221,-490],[855,98],[886,470],[728,98],[443,645],[713,626],[934,470],[554,489],[506,978],[728,-59],[744,78],[902,274],[349,411],[522,352],[902,431],[459,469],[412,607],[237,802],[823,391],[776,98],[918,19],[538,587],[174,548],[127,841],[126,587],[950,-98],[522,-645],[792,-137],[490,117],[728,-39],[380,-215],[586,-470],[680,-508],[665,-313],[871,-392],[665,-254],[997,-20],[664,196],[649,313],[554,-391],[175,-646],[110,-919],[491,-509],[665,-274],[665,-97],[585,-59],[697,372],[237,469],[491,646],[174,763],[111,1095],[554,98],[775,-59],[649,-215],[570,-293],[728,-118],[522,118],[713,-137],[554,-646],[395,-352],[744,-391],[633,-137],[523,606],[411,431],[807,371],[523,-117],[902,-391],[522,-313],[475,-216],[697,-137],[933,-39],[760,118],[412,58],[807,137],[538,255],[871,489],[554,78],[617,-372],[680,-684],[839,-79],[665,431],[602,411],[854,313],[934,-235],[554,-274],[681,-372],[744,-508],[427,-333],[681,-372],[585,-195],[649,-157],[586,-98],[554,-293],[506,-430],[713,-568],[664,-293],[808,-59],[490,59],[902,137],[697,-196],[728,-567],[886,-998],[713,-802],[443,-509],[395,-450],[760,-215],[396,470],[285,606],[316,568],[444,586],[838,470],[444,-39],[649,-489],[459,-881],[285,-997],[142,-509],[348,-939],[665,-117],[665,39],[981,-20],[649,-176],[554,-332],[586,-372],[601,-274],[570,137],[633,293],[601,216],[570,176],[507,19],[886,-528],[554,-528],[728,-704],[491,-392],[633,-352],[586,-195],[791,-255],[871,-606],[759,-685],[523,-469],[332,-274],[522,-411],[570,-606],[871,-626],[728,-40],[791,98],[839,137],[839,196],[950,274],[934,19],[506,-411],[839,-743],[617,-548],[554,-469],[475,-215],[681,-79],[474,40],[586,234],[427,274],[618,391],[633,392],[570,234],[728,-156],[570,-39],[775,235],[507,136],[870,137],[570,-97],[507,-255],[379,-411],[475,-489],[697,-195],[506,19],[697,-117],[443,-117],[934,156],[1139,724],[523,215],[538,196],[554,137],[490,117],[792,235],[506,548],[523,880],[285,430],[775,333],[886,-59],[697,59],[997,-78],[443,39],[618,234],[443,137],[633,-215],[538,-508],[491,-548],[380,-998],[379,-587],[697,-782],[364,-607],[237,-587],[301,-723],[633,-763],[712,58],[570,235],[665,254],[696,98],[744,-508],[760,-1076],[332,-822],[206,-822],[238,-547],[459,-842],[269,-528],[570,-665],[664,-254],[428,195],[664,529],[649,430],[523,78],[633,-391],[348,-489],[222,-880],[696,-294],[396,450],[601,607],[744,567],[570,332],[681,40],[395,-235],[728,-372],[380,-156],[633,-372],[317,-567],[411,-920],[824,-685],[554,-39],[743,333],[412,372],[839,528],[950,293],[569,118],[570,117],[792,98],[775,39],[1140,39],[902,0],[744,-20],[823,-19],[301,-78],[759,-724],[444,-528],[411,-450],[396,-352],[490,-431],[697,-469],[665,-235],[506,-352],[728,-724],[475,-352],[665,-313],[950,-372],[379,-156],[554,-431],[823,-1173],[475,-802],[222,-881],[47,-1252],[175,-997],[585,-216],[776,-97],[506,-1037],[-617,-724],[-538,-254],[-807,-431],[79,-880],[332,-391],[791,-783],[143,-939],[-412,-1134],[-142,-803],[174,-645],[301,-470],[617,-645],[427,-333],[-47,-1037],[-997,-97],[-570,-40],[-586,-215],[-237,-880],[269,-528],[158,-1017],[-95,-685],[-190,-665],[-205,-763],[490,-1037],[728,-606],[143,-920],[31,-685],[586,-782],[633,-391],[1077,-646],[775,-567],[681,-607],[490,-410],[744,-607],[823,-430],[602,-274],[680,-254],[396,-59],[681,59],[696,39],[728,58],[570,59],[839,254],[301,607],[411,1076],[618,606],[569,372],[459,548],[317,1095],[491,900],[617,196],[617,-40],[760,666],[95,508],[126,704],[475,803],[618,-137],[443,-59],[585,0],[824,-333],[443,-274],[633,-528],[538,-332],[871,156],[490,215],[586,235],[554,176],[680,-176],[681,-313],[522,-195],[507,-98],[775,195],[459,939],[317,978],[871,587],[854,-352],[618,-156],[870,254],[538,606],[333,1135],[205,724],[808,293],[775,255],[491,528],[680,254],[507,0],[554,-78],[554,-59],[823,-98],[791,0],[760,20],[950,156],[997,0],[807,118],[380,215],[602,235],[474,78],[1124,0],[475,39],[617,294],[728,802],[602,528],[538,411],[918,332],[807,137],[380,118],[602,547],[459,685],[680,548],[712,-78],[459,-822],[175,-626],[300,-783],[554,-137],[364,822],[174,1096],[32,567],[63,998],[333,939],[348,137],[760,-20],[665,-196],[474,-117],[649,-59],[649,294],[491,547],[601,881],[697,548],[791,39],[491,156],[522,744],[333,626],[712,410],[633,-371],[412,-548],[506,-430],[507,-196],[506,-20],[1013,20],[744,-352],[538,-20],[792,-58],[443,-157],[759,-235],[475,-98]],[[367194,6240],[-506,255],[-554,274],[-871,547],[-664,313],[-966,196],[-775,-78],[-681,-294],[-728,-234],[-712,-98],[-459,-78],[-539,-79],[-490,-58],[-538,-59],[-586,-39],[-427,-59],[-776,20],[-902,-59],[-538,-59],[-538,-78],[-887,-235],[-712,-313],[-823,-293],[-823,-333],[-887,-98],[-712,-313],[-554,-645],[-427,-215],[-902,0],[-554,-118],[-776,-352],[-459,-391],[-633,-743],[-665,-333],[-617,-293],[-697,313],[-601,215],[-791,39],[-475,0],[-697,-117],[-522,-177],[-554,-234],[-554,-313],[-918,-313],[-617,-59],[-871,-293],[-823,-450],[-681,97],[-554,626],[-759,842],[-586,450],[-570,273],[-744,177],[-427,0],[-649,-137],[-506,-176],[-554,176],[-618,586],[-411,411],[-586,215],[-965,333],[-776,665],[-855,450],[-459,313],[-522,313],[-586,274],[-459,156],[-585,353],[-380,273],[-570,607],[-491,587],[-253,645],[-285,489],[-570,744],[-538,195],[-728,255],[-855,528],[-712,430],[-427,431],[-776,97],[-585,-58],[-681,58],[-712,79],[-1393,19],[-507,118],[-870,332],[-871,-39],[-696,-274],[-792,-352],[-680,98],[-712,156],[-554,98],[-618,431],[-664,684],[-649,548],[-491,215],[-744,372],[-459,293],[-443,372],[-380,548],[-633,724],[-269,273],[-681,392],[-601,0],[-443,19],[-618,255],[-475,273],[-728,470],[-918,156],[-459,20],[-617,-78],[-696,-215],[-729,-118],[-490,274],[-317,567],[-538,666],[-776,58],[-411,294],[-855,352],[-617,98],[-728,195],[-792,313],[-664,333],[-871,332],[-633,20],[-823,235],[-760,117],[-839,430],[-538,294],[-1060,450],[-538,313],[-333,939],[127,958],[-143,900],[-791,744],[-380,352],[-776,508],[-902,431],[-585,508],[-475,411],[-523,372],[-680,528],[-934,176],[-554,215],[-744,176],[-586,40],[-775,-98],[-443,-215],[-570,-470],[-522,117],[-855,626],[-79,802],[-285,685],[-253,802],[-190,841],[-333,431],[-364,508],[-348,529],[-317,430],[-696,587],[-554,665],[-522,587],[-428,372],[-617,567],[-807,-391],[-570,-137],[-776,-157],[-854,-508],[-538,-392],[-491,-547],[-475,-431],[-744,-274],[-839,-587],[-680,-195],[-412,-274],[-570,-235],[-744,-293],[-981,-352],[-633,-294],[-570,-78],[-823,-39],[-918,-78],[-712,39],[-934,215],[-554,430],[-839,255],[-538,-216],[-602,-254],[-221,-567],[-48,-763],[-554,-802],[-759,332],[-855,157],[-665,98],[-744,97],[-839,137],[-981,118],[-665,58],[-348,294],[-522,548],[-285,489],[-475,587],[-412,313],[-696,469],[-348,470],[-602,626],[-886,156],[-586,176],[-617,450],[-617,333],[-776,97],[-554,176],[-886,-313],[-649,216],[-348,274],[-428,567],[-490,391],[-206,724],[-776,782],[-696,177],[-586,97],[-475,39],[-585,118],[-633,195],[-918,392],[-839,98],[-665,-724],[-364,-1018],[-728,0],[-855,216],[-696,156],[-634,196],[-459,235],[-918,391],[-506,371],[-712,333],[-554,841],[-16,704],[127,783],[158,900],[-48,665],[-696,548],[-649,39],[-918,156],[-649,-58],[-823,-176],[-712,0],[-507,19],[-554,118],[-491,117],[-965,254],[-760,0],[-839,-508],[-459,0],[-649,39],[-839,-509],[-807,-215],[-949,117],[-459,59],[-792,587],[-744,254],[-839,39],[-538,-19],[-649,332],[143,861],[-333,763],[-411,274],[-1140,665],[-316,196],[-618,391],[-680,411],[-570,234],[-1725,607],[-1092,391],[-1647,587],[-997,391],[-300,1076],[142,802],[190,802],[95,528],[111,861],[47,822],[79,1252],[95,567],[190,920],[-728,234],[-601,20],[-586,-235],[-950,118],[-633,371],[-633,118],[-1440,58],[-887,118],[-459,-431],[-253,-567],[-586,-704],[-490,-626],[-665,-1252],[-649,-118],[-1709,-195],[-2612,-548],[-617,-117],[-523,-118],[-1013,-450],[-680,-352],[-697,-137],[-933,0],[-649,176],[-855,274],[-697,137],[-1693,215],[-1282,215],[-2754,490],[126,899],[507,2720],[142,1349],[-997,783],[-855,2328],[-728,0],[-285,-372],[-395,-743],[-111,-704],[-728,-744],[-380,-645],[-522,-489],[-269,-294],[-1346,-508],[-554,-196],[-934,196],[-728,215],[-886,411],[-143,1056],[-190,978],[-237,1174],[-301,1408],[-300,1585],[-190,1017],[-159,743],[-158,920],[-665,548],[-1139,-587],[-697,-431],[-934,-176],[-554,-391],[-759,-880],[-633,-78],[-1203,-177],[-333,59],[-1867,744],[-412,0],[-696,-372],[-238,-98],[-918,-293],[-491,-157],[-823,-176],[-918,-98],[-538,20],[-1266,215],[-681,-98],[-775,-372],[-602,-254],[-554,-332],[-554,-529],[-490,-117],[-649,-59],[-681,-176],[-728,20],[-348,117],[-966,431],[-1488,645],[-965,450],[-918,235],[-950,117],[-886,157],[-1694,274],[-728,117],[-3814,2387],[-3688,58],[-792,196],[-475,117],[-2421,137],[-64,20],[-2041,1134],[-586,509],[-1171,998],[-697,254],[-1108,411],[-2089,430],[-237,157],[-2723,1682],[-2073,1272],[-491,723],[-237,196],[-744,528],[-649,274],[-1852,763],[-966,391],[-395,196],[-1694,0],[-554,0],[-174,1232],[-158,783],[16,685],[47,1173],[-332,392],[-1457,430],[-902,254],[-649,196],[-554,117],[-522,59],[-712,39],[-459,78],[-586,470],[-427,293],[-902,255],[-713,-20],[-965,0],[-728,-19],[-903,19],[-411,59],[-918,411],[-1298,997],[-871,587],[-838,391],[-823,353],[-808,586],[-664,548],[-649,567],[-618,353],[-411,137],[-1266,410],[-681,313],[-1440,763],[-776,431],[-459,254],[-617,548],[-586,469],[-807,235],[-586,-78],[-443,-39],[-776,19],[-490,0],[-1425,39],[-791,0],[-776,215],[-554,333],[-506,333],[-523,371],[-712,607],[-585,391],[-586,293],[-396,98],[-633,-176],[-649,-39],[-554,235],[-601,176],[-713,19],[-474,118],[-602,254],[-902,274],[-380,156],[-554,411],[-491,705],[-443,997],[-1678,157],[-2374,235],[32,1349],[16,900],[16,607],[47,1389],[-1709,-411],[-808,-98],[-791,-254],[-823,-294],[-602,-352],[-696,-430],[-348,-196],[-823,-489],[-697,-450],[-1630,-1095],[-1013,-685],[-411,-254],[-602,391],[-427,372],[-491,410],[-570,607],[-111,802],[-253,1174],[-126,821],[-364,548],[-523,724],[-696,469],[-317,685],[-348,626],[-443,372],[-459,234],[-507,353],[-411,293],[-902,372],[-855,391],[-617,176],[-824,-39],[-1028,-157],[-950,-215],[-791,-78],[-539,332],[-854,313],[-871,-176],[-839,157],[-633,-176],[-712,-39],[-697,137],[-664,58],[-443,-176],[-649,-391],[-713,-215],[-997,-118],[-696,-78],[-269,-665],[-681,-59],[-601,-391],[-444,0],[-649,333],[-965,58],[-871,-332],[-839,-431],[-696,-176],[-649,176],[-617,118],[-554,-235],[-1219,-352],[-712,20],[-475,58],[-1899,215],[-728,-156],[-95,763],[-412,841],[-427,646],[-64,782],[0,626],[-63,1056],[-364,646],[-332,1017],[63,1194],[316,958],[523,470],[855,391],[284,606],[143,1155],[-63,586],[-175,1057],[-221,665],[-158,548],[-175,665],[-221,626],[-32,1017],[48,665],[63,861],[79,646],[48,1017],[95,841],[174,861],[-491,919],[79,1057],[-791,762],[-475,450],[-475,411],[-807,470],[-491,274],[-427,763],[16,626],[31,684],[-680,255],[-554,449],[16,763],[-364,353],[-412,782],[491,626],[-79,1037],[142,606],[-32,646],[-237,1056],[-222,881],[-221,723],[-143,705],[-158,919],[222,978],[633,861],[664,685],[491,391],[333,391],[237,822],[222,645],[47,646],[443,841],[459,430],[143,763],[475,802],[474,548],[364,841],[80,822],[142,470],[285,704],[111,645],[158,959],[554,958],[570,803],[601,860],[333,470],[380,430],[743,587],[444,215],[664,255],[618,97],[1266,59],[1219,78],[364,822],[-222,1272],[-221,1330],[-64,411],[174,880],[428,372],[126,763],[206,1232],[143,841],[126,959],[633,450],[744,743],[649,157],[776,78],[791,176],[285,567],[190,763],[586,607],[965,234],[491,685],[680,841],[760,176],[396,744],[396,782],[775,78],[697,39],[617,627],[364,1095],[380,685],[807,98],[760,-40],[570,216],[316,841],[269,587],[428,489],[2485,2699],[411,568],[491,567],[443,293],[665,98],[1060,137],[934,352],[744,489],[760,607],[696,528],[665,430],[950,607],[1076,606],[1124,626],[902,607],[0,939],[-158,626],[-254,841],[-15,685],[94,802],[-31,645],[-32,998],[776,391],[506,98],[523,39],[933,-39],[760,646],[0,997],[-174,587],[-237,665],[490,841],[792,431],[459,39],[554,-313],[585,-39],[903,215],[823,587],[379,215],[618,0],[506,0],[1314,0],[1361,-39],[902,313],[301,704],[206,431],[332,645],[364,822],[238,567],[253,567],[190,705],[158,1115],[111,1349],[95,666],[348,880],[238,880],[490,548],[554,176],[412,430],[760,118],[443,176],[807,469],[380,333],[475,372],[680,508],[507,1017],[791,705],[428,371],[696,509],[728,39],[475,391],[728,724],[427,470],[744,626],[570,98],[427,410],[428,294],[839,332],[490,274],[554,274],[902,470],[760,254],[475,137],[617,0],[602,489],[870,450],[808,430],[744,313],[886,294],[253,313],[174,1154],[48,293],[237,1331],[63,508],[143,1115],[127,1076],[205,1683],[95,997],[95,1311],[95,1428],[111,1663],[127,1624],[126,1643],[143,1858],[126,1937],[127,1741],[142,2015],[80,2289],[63,1310],[-158,724],[-475,900],[-301,704],[-174,685],[-48,1076],[254,861],[585,704],[950,626],[364,352],[364,665],[174,1135],[79,1330],[16,2582],[79,3659],[79,1369],[111,1096],[143,841],[253,997],[586,1526],[1187,2367],[2073,3072],[1836,2621],[1219,1819],[776,1194],[142,724],[-332,919],[-934,-39],[-618,-352],[-506,-607],[-459,-78],[-554,98],[-412,528],[-142,528],[47,881],[-664,1232],[-665,137],[-602,196],[-775,802],[-380,958],[285,724],[79,685],[-459,684],[174,607],[127,763],[-206,763],[412,528],[553,0],[776,-274],[253,880],[32,1037],[32,646],[-16,821],[696,900],[665,665],[380,509],[522,587],[348,763],[507,1056],[206,1193],[316,626],[285,411],[586,294],[744,117],[854,98],[570,137],[887,450],[728,469],[649,841],[506,998],[238,548],[379,606],[444,529],[522,606],[317,391],[348,920],[111,587],[110,841],[127,1037],[79,958],[32,411],[111,1271],[110,1213],[127,1468],[142,1467],[190,1897],[143,1389],[126,1018],[222,743],[586,763],[158,1115],[285,998],[79,684],[79,978],[871,607],[237,235],[665,743],[554,1017],[-127,861],[16,646],[48,723],[316,998],[158,509],[16,763],[570,939],[918,684],[1029,744],[459,293],[823,-59],[791,177],[649,117],[586,548],[586,137],[648,489],[349,547],[253,842],[522,273],[902,196],[475,-117],[633,606],[206,646],[64,939],[126,1193],[285,1213],[348,1526],[333,1487],[269,939],[285,1604],[0,195],[126,1096],[127,939],[32,626],[94,1134],[127,1605],[-506,958],[-728,235],[-396,137],[-491,450],[-111,606],[16,998],[0,1135],[-16,1819],[0,1447],[-15,1468],[-32,1213],[-16,1330],[-47,978],[-32,313],[-206,1330],[-206,1389],[-126,900],[-364,274],[-728,-78],[-681,-196],[-396,20],[-490,586],[-1092,1116],[-1172,919],[-665,528],[-648,646],[-934,1076],[-633,939],[-903,1486],[-870,1565],[-918,1741],[-1171,2015],[-1425,2524],[-1345,2445],[-1298,2309],[-1789,3306],[-538,919],[-364,372],[-760,489],[-981,802],[-522,567],[-380,548],[-238,567],[-206,939],[-443,1448],[-538,1585],[-633,1799],[-1314,3776],[-1124,3267],[-459,1487],[-633,880],[-854,646],[-618,508],[-601,665],[-617,939],[-697,1448],[-253,1193],[-63,763],[-238,1135],[-221,567],[-491,1017],[-412,470],[-538,332],[-1060,685],[-1346,1135],[-886,1056],[-886,1506],[-475,1311],[-174,959],[16,1369],[79,2485],[269,2523],[506,2269],[887,2661],[1092,2465],[1250,2523],[1108,1917],[681,959],[823,978]]],"bbox":[99.71973,14.90666,100.35152,15.41784],"transform":{"scale":[6.317906317906269e-7,5.111805111805107e-7],"translate":[99.71973,14.90666]}}