{"type":"Topology","objects":{"districts":{"type":"GeometryCollection","geometries":[{"type":"Polygon","arcs":[[0,1,2,3,4]],"properties":{"CODE":"2601","PARENT":"26","NAME_TH":"เมืองนครนายก","NAME_EN":"Mueang Nakhon Nayok","NAME_CN":"Mueang Nakhon Nayok","COLOR_IDX":1}},{"type":"Polygon","arcs":[[-1,5]],"properties":{"CODE":"2602","PARENT":"26","NAME_TH":"ปากพลี","NAME_EN":"Pak Phli","NAME_CN":"Pak Phli","COLOR_IDX":3}},{"type":"Polygon","arcs":[[-4,6,7]],"properties":{"CODE":"2603","PARENT":"26","NAME_TH":"บ้านนา","NAME_EN":"Ban Na","NAME_CN":"Ban Na","COLOR_IDX":3}},{"type":"Polygon","arcs":[[-3,8,-7]],"properties":{"CODE":"2604","PARENT":"26","NAME_TH":"องครักษ์","NAME_EN":"Ongkharak","NAME_CN":"Ongkharak","COLOR_IDX":2}}]}},"arcs":[[[859345,765937],[-405,-616],[-608,-617],[-1791,-1269],[-709,-544],[-929,-1052],[-1706,-1885],[-1318,-1469],[-1115,-1088],[-1503,-1414],[-236,-218],[-592,-598],[-996,-1324],[-1419,-1940],[-1115,-1686],[-1149,-1813],[-473,-671],[-1891,-1596],[-1065,-906],[-2415,-1052],[-1098,-399],[-1621,-508],[-896,-290],[-726,-308],[-541,-308],[-506,-744],[-642,-1142],[-1284,-3391],[-1790,-1341],[-8801,-3554],[-9645,-3880],[-6587,-2122],[-3750,-652],[-929,-164],[-1723,-707],[-2736,-1124],[-1554,-852],[-2551,-1451],[-642,-362],[-3615,-2067],[-1706,-925],[-6976,-3808],[-2365,-1958],[-4054,-1904],[-6097,-852],[-3176,-435],[-777,-18],[-523,236],[-389,398],[-1436,5241],[-388,670],[-355,436],[-692,616],[-2534,1614],[-574,471],[-457,363],[-1351,1614],[-203,235],[-945,1143],[-642,598],[-406,236],[-760,308],[-2196,272],[-777,90],[-287,-54],[-1436,-308],[-895,-73],[-625,200],[-473,344],[-1503,1596],[-473,489],[-912,436],[-777,326],[-439,91],[-727,54],[-878,-91],[-642,-181],[-557,-145],[-693,-200],[-642,-181],[-726,-217],[-946,-327],[-1571,-453],[-540,-272],[-659,-508],[-794,-1142],[-135,-345],[-34,-1051],[253,-816],[271,-870],[33,-1106],[-287,-635],[-557,-544],[-693,-635],[-456,-417],[-422,-362],[-456,-417],[-405,-472],[-642,-816],[-473,-634],[-389,-526],[-405,-1034],[34,-616],[422,-870],[321,-562],[219,-1070],[406,-816],[388,-363],[423,-761],[-34,-581],[-186,-834],[-152,-525],[-135,-599],[0,-1033],[169,-599],[202,-725],[119,-689],[-592,-453],[-1418,-399],[-845,-236],[-676,-308],[-777,-399],[-1030,-508],[-507,-344],[-895,-1686],[-405,-762],[-592,-888],[-625,-472],[-810,-381],[-507,-126],[-676,18],[-1435,72],[-761,-127],[-439,-145],[-794,-453],[-574,-490],[-557,-1541],[-34,-925],[169,-961],[355,-906],[354,-580],[693,-1197],[405,-907],[2737,-5911],[236,-308],[1470,-1269],[371,-616],[490,-871],[68,-779],[-102,-581],[-219,-1305],[50,-943],[254,-562],[236,-490],[693,-1523],[253,-417],[2331,-2339],[828,-852],[236,-236],[777,-797],[439,-454],[862,-1069],[236,-291],[693,-870],[709,-888],[473,-871],[51,-634],[-152,-599],[-743,-834],[-1216,-834],[-609,-417],[-962,-689],[-2382,-1632],[-811,-580],[-287,-272],[-743,-1287],[-659,-1142],[-355,-1052],[-827,-2484],[-237,-725],[-84,-417],[34,-1034],[67,-1886],[1351,-3698],[-16,-1088],[-153,-1106],[-84,-381],[-405,-1052],[-1385,-2647],[-625,-907],[-372,-489],[-321,-599],[-355,-652],[-169,-562],[-337,-1143],[-68,-272],[-270,-1106],[-186,-979],[101,-979],[287,-943],[473,-852],[608,-725],[1065,-1142],[3986,-3101],[270,-308],[3497,-4733],[371,-489],[1656,-1505],[2331,-2140],[1013,-906],[321,-798],[169,-635],[169,-761],[118,-780],[68,-779],[17,-780],[-34,-780],[-68,-779],[-135,-780],[-270,-798],[-1385,-2756],[-1014,-1976],[-490,-925],[-1925,-3681],[1115,-5367],[67,-1033],[68,-635],[84,-616],[152,-1052],[85,-1759],[67,-1196],[-17,-1088],[-33,-1306],[-17,-925],[-17,-1033],[-169,-5530],[-1318,-2557],[-371,-961],[-1115,-1940],[-422,-725],[-625,-1088],[-2061,-3536],[-1233,-2176],[-237,-453],[-371,-689],[-473,-888],[-490,-780],[-828,-1033],[-777,-726],[-1098,-326],[-912,-254],[-371,-109],[-2348,-380],[-321,-55],[-1250,-199],[-591,-200],[-727,-399],[-760,-671],[-794,-634],[-489,-490],[-389,-417],[-1503,-2756],[-524,-507],[-709,-399],[-541,-272],[-422,-272],[-642,-381],[-946,-490],[-1875,-743],[-709,-272],[-558,-199],[-490,-109],[-692,-163],[-997,-309],[-540,-453],[-439,-417],[-575,-562],[-827,-635],[-929,-471],[-592,-181],[-557,-200],[-591,-217],[-541,-309],[-692,-870],[-85,-109],[-658,-852],[-254,-580],[-321,-2430],[-84,-562],[-34,-689],[51,-852],[50,-816],[34,-689],[68,-870],[50,-472],[406,-2085],[135,-671],[287,-779],[1047,-1832],[710,-906],[-152,-562],[-68,-798],[-34,-490],[0,-798],[-709,-652],[-760,-182],[-642,-562],[-591,200],[-743,54],[-575,36],[-878,-362],[-152,-580],[-203,-816],[-625,-327],[-456,-90],[-676,-254],[-608,-635],[-591,-489],[-490,-490],[-1047,73],[-574,54],[-642,-290],[-490,-290],[-456,-454],[-338,-924],[-253,-490],[-575,-544],[-861,-127],[-473,-163],[-844,-308],[-186,-490],[-169,-797],[456,-617],[794,-363],[-1436,-1160],[-608,272],[-878,-635],[-423,-652],[-658,-145],[-710,127],[-692,-617],[-152,-979],[-659,-435],[-1200,961],[-472,-852],[-490,-998],[-389,-834],[-574,-1378],[-85,-145],[-1114,18],[-693,-18],[-794,-18],[-844,0],[-828,-54],[-456,-18],[-676,36],[-591,127],[-828,-37],[-777,-471],[-439,-453],[-743,-417],[-828,-218],[-827,-217],[-777,290],[-862,562],[-422,290],[-473,344],[-1064,653],[-473,290],[-456,308],[-777,399],[-1537,-127],[-760,-72],[-305,-290],[-405,-580],[-338,-254],[-1469,308],[-152,453],[-1774,-2121],[-507,-725],[-827,-1487],[-135,-1288],[-558,-670],[68,-563],[-237,-598],[-574,-780],[540,-797],[372,-671],[270,-562],[473,-1124],[-17,-1016],[-118,-1088],[-84,-1033],[-271,-671],[-253,-798],[-355,-689],[-405,-272],[-557,-616],[-305,-834],[-388,-345],[-439,-508],[-51,-580],[-405,-598],[-727,-599],[-793,164],[-592,-182],[-777,-181],[-675,-218],[-828,-163],[-236,-1106],[-17,-109],[-288,-1504],[-101,-980],[-135,-942],[-456,-853],[-980,-1867],[879,-907],[1790,-1323],[574,-1469],[152,-91],[2264,943],[1284,-290],[-676,-1922],[-220,-526],[-557,-852],[-591,-435],[-169,-508],[-1537,-1015],[-1723,-1487],[338,-1378],[-304,-490],[-693,-453],[-355,-580],[-439,-471],[-760,-1487],[845,-671],[-186,-1396],[-85,-490],[-84,-798],[236,-471],[473,-743],[-33,-798],[101,-653],[557,-798],[524,-272],[828,-362],[270,-907],[-237,-490],[-287,-1087],[-202,-689],[-693,-853],[-608,-272],[-541,-761],[-1013,91],[-541,308],[-979,-254],[-676,-290],[-541,-91],[-844,-381],[-355,-380],[-523,-472],[-456,-562],[253,-761],[0,-490],[0,-816],[-760,-671],[-473,-707],[-118,-816],[-304,-562],[-794,-199],[-135,-798],[-372,-780],[-811,-653],[321,-562],[203,-634],[-169,-834],[321,-454],[253,-797],[406,-907],[84,-635],[-811,-253],[-827,-73],[-473,-816],[33,-1106],[-456,-526],[-895,18],[-912,-562],[-507,-725],[-355,-635],[-219,-471],[-220,-580],[-219,-907],[67,-725],[-456,-943],[-219,-671],[-862,-435],[-135,-671],[-84,-1088],[456,-362],[-135,-943],[-440,-834],[-202,-381],[-524,-580],[-541,145],[-962,254],[-575,163],[-591,362],[-625,109],[-743,-326],[-304,-653],[-389,-997],[-608,-490],[-1030,-181],[-878,73],[-845,0],[-287,924],[-456,726],[-237,634],[-219,544],[-169,544],[-625,308],[-811,-507],[-473,-399],[-405,-562],[-591,-671],[-524,-1179],[777,-743],[490,-272],[473,-272],[591,-526],[186,-888],[34,-708],[50,-924],[-642,-1632],[-675,-653],[-659,109],[-389,508],[-777,-91],[-439,-345],[-456,-398],[-540,-73],[-744,-127],[-1216,490],[-1030,326],[-1571,580],[-676,0],[-709,-163],[-963,417],[-980,417],[-625,272],[-84,762],[-507,272],[-1283,344],[-609,163],[-743,200],[-523,163],[-608,181],[-473,200],[-507,254],[-608,344],[-710,363],[-642,127],[-523,-37],[-355,798],[270,1088],[490,653],[186,743],[1503,-36],[423,-127],[810,435],[507,-127],[794,-217],[524,253],[337,835],[0,525],[17,726],[-557,689],[-760,235],[-541,0],[-861,73],[-879,91],[-658,145],[-575,127],[-945,163],[-811,-109],[-2247,-290],[-1013,-145],[-642,-109],[-895,-145],[-845,-272],[-861,-254],[-913,-254],[-861,-90],[-1334,-91],[-541,-36],[-1368,36],[-1689,163],[-1335,181],[-878,55],[-1081,-871],[118,-2338],[-2280,-1469],[-574,-290],[-710,-454],[-524,-362],[-625,-508],[-523,-290],[-524,-254],[-692,-254],[-591,-199],[-592,-381],[-1199,-344],[-659,163],[-506,653],[-727,362],[-912,-308],[-608,-272],[-1216,-326],[-575,670],[-658,417],[-34,-163],[-524,-852],[-354,-689],[-456,-707],[-1521,-2448],[-50,-90],[-1554,-490],[-220,-2883],[-1774,0],[34,-1052],[-3935,-253],[-169,-907],[-287,-272],[-642,-363],[-777,-54],[-2112,254],[-574,72],[-541,-888],[-777,-526],[-861,-18],[-608,-308],[-912,127],[-727,-127],[-726,-218],[-659,-127],[-608,-236],[-1013,-217],[-507,-54],[676,-1397],[405,-1069],[355,-1197],[321,-1378],[0,-109],[219,-1886],[169,-1668],[51,-834],[135,-2103],[84,-961],[34,-453],[68,-1034],[101,-1523],[68,-870],[84,-1142],[118,-1669],[-625,-272],[-641,-326],[-389,-127],[-777,-254],[-1317,-997],[-761,-471],[-641,-309],[-1673,-1033],[-642,-490],[-287,-235],[-557,-490],[-186,-526],[-1976,-1940],[338,-1124],[-1504,-544],[389,-1160],[-4713,-1632],[-304,-1342],[439,-2393],[-692,-363],[-693,-435],[-625,-345],[-1436,363],[-320,580],[-997,236],[-490,-254],[-540,-181],[-929,-127],[-794,-91],[-912,-181],[-423,-5240],[524,-37],[1047,-90],[-338,-3645],[1081,-90],[-253,-671],[-574,-580],[-558,-871],[-473,-544],[-506,-399],[-761,-670],[-202,-544],[-541,-581],[-659,-290],[-354,-145],[-895,-399],[-609,-145],[-405,-852],[85,-906],[-119,-780],[-236,-689],[-254,-762],[-169,-417],[-506,-634],[-1537,-599],[-777,-217],[-68,-997],[405,-1179],[744,-1650],[371,-798],[-3040,-1414],[-1351,3898],[-389,997],[-557,1614],[-440,1070],[-219,725],[-203,707],[-135,707],[-760,291],[-895,-345],[-659,-217],[-1064,-272],[-997,-345],[-1790,-580],[-1098,-363],[-524,-181],[-1216,1559],[-169,453],[-743,200],[-828,-635],[-203,-290],[-929,-1287],[-1047,-889],[-844,-652],[-1065,-744],[-1334,-1305],[-574,-562],[523,-526],[710,-290],[473,18],[726,471],[1199,780],[744,490],[591,-581],[675,-779],[254,-272],[692,-671],[946,-163],[760,90],[423,-18],[608,-870],[-811,-544],[-760,-526],[-591,-562],[-304,-598],[67,-599],[321,-580],[743,-943],[-692,-598],[-490,-381],[-659,-145],[-422,-290],[-608,-435],[-355,-417],[-422,-834],[-118,-635],[-169,-834],[-169,-852],[-68,-472],[-321,-797],[0,-562],[-186,-635],[-152,-888],[34,-436],[304,-689],[625,-163],[591,163],[794,-671],[558,-580],[557,-326],[490,-163],[1081,-37],[642,164],[760,326],[591,145],[929,-943],[-523,-707],[-642,-526],[-355,-254],[-608,-362],[-490,-272],[-507,-200],[-523,-253],[-456,-309],[-642,-435],[-912,-526],[-676,-308],[-828,-471],[-709,-526],[-845,-490],[-473,-399],[-608,-489],[-371,-272],[-558,-345],[-642,-362],[-506,-272],[-592,-145],[761,-2738],[236,-871],[220,-580],[962,-362],[541,-544],[68,-526],[236,-671],[557,-598],[507,-526],[507,-744],[625,-725],[236,-707],[51,-725],[507,-961],[507,-580],[608,-816],[658,-998],[338,-616],[591,-889],[423,-417],[490,-870],[253,-761],[371,-653],[338,-399],[389,-526],[287,-417],[355,-544],[338,-435],[641,-635],[372,-435],[557,-308],[693,54],[743,37],[811,-599],[34,-906],[523,-925],[642,-562],[811,-617],[676,-72],[929,-399],[608,-580],[270,-508],[-135,-635],[-186,-979],[-51,-725],[-84,-798],[-253,-652],[-372,-907],[-338,-671],[-219,-689],[-169,-852],[-237,-743],[-202,-635],[-659,-435],[-591,-218],[-1065,-145],[-912,18],[-827,36],[-473,91],[-794,163],[-693,-254],[-388,-1033],[50,-743],[0,-635],[-439,-762],[-540,-616],[-389,-544],[-219,-707],[-152,-889],[-51,-1087],[-152,-744],[-270,-526],[-423,-580],[-523,-471],[-642,-871],[-169,-979],[135,-1106],[17,-816],[-17,-616],[-68,-635],[-84,-526],[-236,-670],[-575,-689],[-608,-327],[-405,-217],[-558,-399],[-337,-363],[-406,-526],[-405,-689],[-338,-671],[-287,-471],[-490,-617],[-541,-380],[-608,-145],[-642,-73],[-743,-91],[-642,-72],[-675,-55],[-794,-54],[-777,-217],[-659,-726],[-152,-616],[-68,-834],[-304,-1052],[-844,-671],[-710,-145],[-574,-91],[-692,-145],[-744,-163],[-777,-181],[-760,-181],[-591,-145],[-642,-200],[-523,-290],[-541,-544],[-642,-653],[-625,-199],[-540,181],[-592,363],[-878,90],[-490,-290],[-659,-399],[-422,-217],[-760,-308],[-473,-236],[-523,-308],[-845,-435],[-1064,-508],[-321,-163],[-777,-363],[-456,-236],[-727,-380],[-793,-417],[-473,-272],[-507,-708],[-118,-888],[33,-580],[51,-653],[85,-508],[202,-997],[254,-780],[33,-54],[541,-979],[304,-580],[321,-599],[811,-471],[506,-508],[271,-834],[878,-471],[490,-163],[709,-526],[929,254],[507,634],[895,490],[828,272],[405,109],[693,217],[828,145],[760,-217],[540,-490],[135,-562],[-236,-798],[-524,-616],[-354,-417],[-304,-635],[101,-653],[186,-489],[523,-707],[287,-617],[203,-798],[68,-616],[-17,-707],[-186,-998],[-726,-1196],[-372,-617],[-270,-816],[253,-961],[389,-525],[490,-508],[557,-907],[34,-979],[-85,-798],[-17,-689],[304,-961],[288,-544],[270,-525],[355,-671],[84,-762],[-355,-779],[-506,-726],[-389,-598],[-270,-671],[-693,-816],[-642,399],[-287,653],[-422,834],[-372,725],[-354,617],[-372,453],[-676,562],[-489,254],[-693,272],[-557,236],[-558,-236],[-878,-381],[-912,-562],[-321,-399],[-254,-598],[321,-979],[254,-689],[-169,-526],[-507,-472],[-439,-127],[-608,-126],[-659,-218],[-557,-399],[-389,-490],[-659,-634],[-962,-326],[-879,-146],[-625,164],[-895,181],[-811,-562],[-17,-689],[-219,-1070],[-912,-399],[-946,-435],[-440,-725],[-219,-1088],[10084,-15430],[51,-55],[1266,-1958],[305,-453],[4729,-7198],[2517,-3808],[2990,-4605],[17,-19],[3834,-5874],[3159,-4823],[33,-55],[1183,-1813],[946,-1432],[506,-780],[1166,-1795],[540,-834],[2196,-3373],[1014,-1541],[1148,-1795],[490,-671],[338,-507],[456,-707],[642,-907],[507,-526],[895,-508],[473,-235]],[[488902,147973],[676,-599],[371,-525],[254,-635],[84,-979],[-101,-671],[-169,-508],[-271,-652],[-253,-417],[-608,-726],[-473,-453],[-372,-272],[-540,-453],[-422,-309],[-777,-634],[-389,-653],[-186,-471],[-202,-653],[-119,-453],[-152,-707],[-169,-853],[-185,-943],[-169,-779],[-135,-907],[17,-671],[101,-525],[135,-726],[101,-761],[-84,-490],[-220,-761],[-405,-798],[-473,-762],[-389,-435],[-523,-417],[-625,-381],[-490,-253],[-608,-327],[-405,-236],[-592,-471],[-692,-743],[-406,-526],[-236,-635],[-186,-888],[135,-871],[287,-707],[321,-689],[592,-834],[692,-616],[693,-472],[591,-362],[659,-435],[405,-345],[574,-616],[507,-744],[203,-471],[236,-671],[186,-961],[-152,-816],[-811,-707],[-929,-381],[-557,-199],[-794,-55],[-608,145],[-575,327],[-709,507],[-557,363],[-608,508],[-693,707],[-422,598],[-271,435],[-591,562],[-490,-145],[-726,-362],[-540,-290],[-490,-309],[-473,-362],[-608,-762],[-152,-1124],[135,-453],[388,-762],[541,-598],[692,-762],[625,-816],[490,-797],[287,-653],[169,-526],[220,-798],[84,-598],[135,-907],[237,-1505],[152,-888],[355,-1015],[287,-472],[490,-725],[456,-671],[236,-580],[254,-1052],[-34,-725],[-118,-943],[-136,-689],[-540,-816],[-574,-308],[-794,-18],[-524,254],[-541,380],[-506,472],[-608,598],[-659,490],[-811,489],[-777,290],[-490,37],[-963,-164],[-641,-181],[-406,-145],[-794,-290],[-658,-200],[-913,-272],[-1351,-453],[-608,-308],[-507,-345],[-473,-326],[-574,-453],[-507,-435],[-608,-399],[-777,-472],[-1013,-380],[-980,-146],[-456,-54],[-693,-91],[-1655,-253],[-84,-19],[-1014,-145],[-1351,-235],[-1014,-91],[-726,36],[-946,109],[-1638,200],[-304,54],[-777,91],[-929,54],[-777,18],[-575,-36],[-692,-181],[-338,-726],[101,-598],[237,-707],[270,-653],[220,-635],[304,-906],[202,-653],[17,-1160],[-270,-617],[-456,-816],[-490,-634],[-861,-671],[-811,-145],[-625,90],[-811,490],[-524,381],[-337,417],[-321,798],[-237,797],[-253,599],[-270,652],[-203,472],[-406,725],[-574,798],[-371,508],[-321,453],[-608,634]],[[438921,91075],[-85,744],[-608,363],[-659,253],[-540,73],[-828,-254],[-642,-72],[-946,253],[-574,309],[-591,380],[-271,689],[119,871],[-152,562],[-541,362],[-946,-362],[-84,-762],[-118,-598],[-608,-345],[-828,272],[-406,417],[-574,762],[-67,689],[253,743],[-557,907],[-744,-127],[-557,-199],[-541,-381],[-658,-363],[-946,236],[-811,-36],[-456,-109],[-659,-381],[-473,-761],[-743,-617],[-591,-91],[-558,562],[-422,889],[-1165,-508],[-558,-217],[-1419,-562],[-777,-309],[-946,-362],[-658,-236],[-744,-254],[-861,-363],[-676,-271],[-675,-291],[-727,-308],[-1283,-489],[-440,-164],[-726,-290],[-1182,-453],[-862,-326],[-743,-272],[-861,-290],[-609,-200],[-506,-109],[-862,671],[-439,544],[-591,870],[-372,563],[-354,525],[-355,526],[-422,671],[-946,1432],[-1014,1560],[-236,381],[-524,761],[-270,417],[-608,943],[-541,852],[-473,707],[-642,998],[-743,1106],[-794,1196],[-17,18],[-760,1161],[-777,1160],[-507,816],[-912,1360],[-50,91],[-1841,2701],[-4375,6510],[-2855,4242],[-2196,3482],[-439,671],[-524,816],[-540,852],[-490,743],[-388,580],[-372,562],[-1520,2285],[-1284,2049],[-1149,1759],[-962,1468],[-473,762],[-507,761],[-524,798],[-338,508],[-1233,1849],[-135,236],[-777,1197],[-338,526],[-321,489],[-388,617],[-574,906],[-406,653],[-456,707],[-371,580],[-625,871],[-1588,2375],[-85,127],[-1098,1686],[-878,1305],[-17,19],[-794,1196],[-861,1306],[-287,417],[-541,834],[-557,852],[-304,508],[-355,580],[-439,725],[-1047,1632],[-389,617],[-355,525],[-574,780],[-625,816],[-507,526],[-912,217],[-2044,218],[-1351,163],[-878,109],[-1166,145],[-743,91],[-811,127],[-1047,126],[-1318,146],[-794,90],[-945,109],[-1065,91],[-912,72],[-1047,218],[-625,199],[-1030,-145],[-659,36],[-1284,145],[17,1143],[-34,1142],[17,1904],[0,2266],[-17,2212],[0,164],[0,2157],[-101,961],[-34,816],[135,689],[17,744],[0,1722],[0,290],[17,3917],[-17,1396],[-50,2357],[33,3971],[0,1323],[17,2376],[0,4079],[0,1868],[17,924],[51,1614],[17,889],[-34,2266],[0,145],[0,3427],[0,2194],[0,8341],[0,1523],[0,3408],[-17,363],[0,1414],[-17,1632],[-135,1070],[-828,1088],[-118,181],[-676,907],[-692,852],[-811,1197],[-743,1051],[-862,1088],[-439,562],[-574,762],[-237,344],[-456,635],[-506,725],[-473,689],[-423,580],[-608,780],[-642,834],[-591,816],[-1436,1904],[-810,1033],[-237,327],[-912,1269],[-169,199],[-895,1215],[-203,272],[-794,1124],[-777,1106],[-17,37],[-574,779],[-608,834],[-84,109],[-777,1052],[-220,272],[-963,1305],[-659,871],[-388,489],[-473,617],[-1047,1378],[-169,235],[-980,1342],[-507,689],[-760,1034],[-557,743],[-389,526],[-523,707],[-186,236],[-1233,1650],[-220,290],[-1419,1867],[-439,599],[-473,652],[-506,671],[-507,653],[-439,580],[-896,1251],[-540,726],[-980,1341],[-253,345],[-1183,1595],[-777,1016],[-608,816],[-1537,2067],[-118,145],[-1351,1795],[-473,634],[-777,1070],[-1166,1578],[-456,616],[-1334,1795],[-338,435],[-1723,2303],[-422,562],[-1402,1922],[-254,345],[-827,1160],[-642,870],[-1368,1795],[-676,961],[-1132,1469],[-456,580],[-675,871],[-473,689],[-406,580],[-895,1178],[-118,145],[-1385,1850],[-34,18],[-1014,1396],[-101,145],[-557,744],[-1183,1613],[-101,109],[-1199,1632],[-136,199],[-1334,1814],[-456,598],[-1199,1577],[-1233,1632],[-288,399],[-574,762],[-169,235],[-963,1270],[-1351,1813],[-642,870],[-253,345],[-912,1214],[-135,182],[-744,979],[-777,1070],[-67,90],[-1149,1560],[-84,90],[-676,943],[-591,743],[-828,980],[-608,707]],[[258403,336869],[51,72],[878,889],[507,507],[439,454],[693,707],[321,344],[489,490],[490,508],[794,797],[102,109],[743,762],[1148,1178],[119,127],[895,943],[912,943],[1385,1432],[439,345],[811,471],[625,181],[895,182],[963,127],[929,145],[1098,181],[1250,200],[642,108],[3023,526],[440,73],[1891,290],[5811,979],[591,91],[2686,417],[3108,525],[51,0],[2787,472],[743,127],[1216,181],[405,73],[946,181],[777,109],[879,145],[979,163],[946,145],[912,145],[372,73],[929,145],[760,127],[203,670],[67,508],[85,816],[135,1233],[68,725],[33,617],[135,1015],[304,834],[321,798],[186,707],[135,653],[203,471],[743,635],[777,634],[524,454],[186,779],[-135,472],[-304,834],[-271,562],[-321,743],[-135,490],[-236,798],[-169,471],[-237,707],[-219,689],[-85,617],[-33,562],[-34,816],[-17,906],[-17,508],[51,707],[67,1142],[68,744],[118,707],[135,562],[203,780],[101,435],[102,635],[304,525],[388,526],[524,544],[709,816],[625,689],[237,254],[861,816],[405,236],[946,326],[1436,8594],[-1115,272],[-3125,1324],[-827,489],[-406,599],[-354,653],[-338,544],[-355,689],[-372,598],[-320,526],[-321,1033],[-744,1505],[423,399],[743,762],[388,779],[-270,1052],[-777,1958],[-34,562],[304,598],[625,182],[456,127],[693,290],[574,508],[321,380],[439,580],[271,345],[540,616],[895,998],[406,471],[996,55],[1149,-544],[878,54],[524,272],[557,417],[608,471],[997,-54],[507,-363],[659,-834],[658,-816],[423,-344],[557,-381],[777,-290],[321,508],[321,961],[338,1523],[574,798],[439,145],[625,-472],[254,-471],[236,-707],[253,-689],[794,-454],[642,-36],[1301,-72],[912,-127],[507,-91],[1756,-399],[473,-91],[929,-72],[727,272],[489,780],[169,616],[186,1033],[389,581],[1469,725],[541,453],[523,726],[355,689],[794,1631],[591,762],[524,363],[929,924],[608,635],[321,580],[51,762],[-102,797],[-203,925],[-506,1360],[-220,671],[-321,1033],[-219,1052],[219,1070],[710,834],[-220,689],[-676,761],[-337,526],[-406,544],[-625,725],[-709,798],[-862,1124],[-321,436],[-354,707],[-642,834],[304,961],[169,598],[405,1342],[220,508],[304,979],[67,834],[51,616],[-51,707],[-50,816],[-34,472],[-118,816],[0,489],[743,780],[861,-200],[744,-108],[591,380],[-169,925],[-102,1052],[17,544],[592,507],[473,200],[692,290],[659,254],[1250,616],[1469,327],[507,126],[558,200],[523,199],[507,164],[591,-816],[220,-1125],[17,-36],[1452,871],[1976,1196],[490,363],[946,888],[524,435],[507,581],[591,127],[1706,-853],[1689,-979],[946,-526],[1453,-815],[354,1178],[152,580],[186,544],[862,435],[1300,-489],[372,-109],[659,-272],[574,-217],[777,-291],[1064,-398],[2584,-1415],[1149,-725],[811,-290],[675,-254],[169,798],[186,1051],[152,961],[34,653],[372,889],[472,1015],[305,798],[-34,961],[321,925],[219,543],[169,961],[17,635],[-51,762],[-152,598],[-287,925],[-169,779],[-202,689],[-152,472],[-203,634],[-169,472],[-118,779],[34,871],[-85,761],[-287,780],[-237,761],[-304,1215],[-101,689],[-51,798],[-101,707],[-152,635],[-186,526],[-557,834],[-456,562],[-389,399],[-929,870],[-760,689],[-405,925],[-34,906],[34,707],[-34,744],[-51,798],[-169,634],[-236,671],[-287,617],[-558,580],[-473,308],[-540,236],[-608,127],[-591,127],[-1571,326],[-575,163],[-506,163],[-558,236],[-625,399],[-490,381],[-675,798],[-1014,1323],[-692,979],[-169,236],[-676,816],[-692,834],[-355,1015],[0,943],[-68,671],[-67,707],[118,1070],[439,689],[321,344],[338,708],[186,362],[439,599],[524,852],[168,671],[220,906],[321,707],[220,925],[101,1052],[34,634],[-119,689],[-219,454],[-355,562],[51,870],[169,743],[-203,508],[-186,635],[-405,689],[135,598],[726,780],[-67,979],[-186,779],[-203,490],[-186,798],[-33,834],[-186,653],[-135,924],[-51,998],[34,1106],[591,562],[777,-37],[524,55],[557,417],[557,780],[152,598],[119,834],[118,526],[405,580],[558,580],[422,508],[541,671],[320,689],[186,435],[355,743],[-118,581],[-254,979],[0,616],[288,961],[33,798],[169,435],[304,743],[102,689],[169,635],[118,617],[50,525],[119,708],[17,616],[-51,798],[-152,671],[338,888],[-254,617],[-270,453],[-152,671],[321,471],[524,780],[574,0],[895,-580],[693,145],[388,217],[422,635],[237,508],[625,199],[709,743],[693,562],[355,544],[405,599],[676,36],[658,598],[794,272],[744,-671],[675,-253],[558,507],[540,-652],[1014,163],[608,816],[506,489],[457,454],[557,326],[946,489],[828,73],[827,671],[608,780],[760,72],[490,326],[-152,798],[-101,1034],[84,725],[-253,508],[-118,834],[-51,526],[118,707],[-338,1051],[-16,744],[253,870],[68,1034],[202,852],[0,834],[-659,707],[-371,653],[-710,0],[-895,163],[-574,72],[-676,272],[-574,-36],[-608,-36],[-608,671],[101,671],[-118,888],[118,798],[-405,725],[-490,200],[-287,616],[-203,490],[-490,453],[-676,671],[-287,798],[-219,1124],[-186,870],[-557,399],[-592,453],[-591,617],[-929,544],[-794,-218],[-659,-635],[-625,-54],[-675,435],[-743,834],[-321,454],[-203,580],[-51,888],[-219,580],[-287,907],[-575,562],[-270,381],[-34,870],[-675,617],[-186,489],[-135,689],[-220,671],[-236,744],[405,924],[135,689],[-67,907],[-186,761],[-490,454],[-541,906],[-489,526],[-305,689],[-658,-18],[-473,489],[34,635],[-558,453],[-118,1088],[388,889],[507,453],[85,762],[-85,888],[-186,616],[135,889],[119,1124],[-237,889],[118,453],[1065,-381],[979,-36],[710,-18],[709,-381],[574,508],[929,199],[777,399],[169,979],[186,580],[254,998],[625,906],[6030,-3173],[4155,7090],[-743,326],[-270,707],[253,653],[219,562],[305,653],[388,671],[574,543],[676,563],[456,870],[456,562],[422,344],[744,218],[354,-54],[1504,-182],[1655,1251],[591,454],[980,326],[676,109],[405,36],[625,381],[34,925],[810,253],[811,708],[490,290],[726,634],[271,508],[540,743],[575,998],[591,1323],[456,744],[659,707],[861,1015],[929,-181],[473,-73],[676,-217],[844,-272],[794,-254],[726,-54],[997,253],[-203,2666],[-50,598],[-1588,2248],[-101,744],[-136,943],[-101,652],[1520,2448],[186,834],[152,725],[-118,508],[-85,635],[-67,1051],[-389,1959],[-439,2266],[-1993,1342],[-963,1487],[-844,1305],[-304,580],[-879,1668],[-321,635],[-979,1088],[-1318,1432],[-338,1088],[34,744],[-203,652],[-1892,1723],[-456,707],[-574,1523],[-135,671],[-68,707],[-202,1995],[-169,1559],[-135,1160],[-34,780],[203,453],[591,1415],[422,616],[1318,1886],[1081,1541],[2854,3481],[659,1070],[1301,2593],[2821,5494],[1452,1904],[321,435],[710,362],[608,145],[1351,345],[1233,508],[3378,1414],[5794,689],[236,109],[1386,652],[1925,871],[1892,906],[169,73],[1351,562],[895,417],[1385,852],[2247,218]],[[426100,690999],[68,1341],[84,1469],[135,399],[51,925],[51,2901],[675,3191],[3091,1759],[490,72],[811,0],[1317,-254],[1994,-543],[810,-689],[372,-327],[659,-127],[2871,-562],[203,0],[1622,218],[1047,-381],[878,-308],[389,-200],[1013,-471],[963,-200],[878,200],[541,272],[625,888],[287,1052],[84,1088],[-67,653],[1621,1196],[2906,2140],[4155,3100],[625,417],[1030,526],[592,308],[304,599],[236,961],[-659,4351],[0,798],[17,1179],[17,489],[186,635],[490,997],[490,743],[304,599],[388,961],[85,308],[101,943],[34,1777],[33,3717],[85,4079],[84,653],[355,925],[608,236],[1689,145],[1453,217],[1419,653],[1368,1179],[2314,2719],[777,726],[473,471],[659,163],[1182,-326],[1571,-653],[2264,-852],[1300,-381],[1656,-199],[1486,-18],[777,108],[1368,218],[118,54],[1842,1106],[1266,979],[1048,581],[371,163],[693,199],[1537,127],[1740,127],[574,-36],[912,-345],[710,-417],[625,-199],[996,0],[2382,834],[676,526],[506,290],[1115,544],[169,743],[541,1034],[50,163],[287,1396],[0,73],[-101,1359],[68,653],[388,3064],[169,635],[828,1632],[253,943],[-68,1233],[-287,1196],[119,744],[185,779],[423,1650],[-17,454],[-271,689],[-675,344],[-895,36],[-1200,182],[-506,888],[-355,1269],[-389,1342],[-304,1070],[-152,526],[-304,580],[-1182,2230],[-1655,2339],[-676,943],[-524,617],[-625,707],[-473,344],[-861,653],[-946,798],[-676,870],[-456,979],[-169,1016],[68,942],[253,961],[169,436],[929,2320],[541,2158],[17,617],[16,707],[-84,1323],[-118,943],[-118,399],[-524,1142],[-152,254],[-659,889],[-591,906],[-625,979],[-456,726],[-422,834],[-372,779],[-237,671],[-168,1142],[0,889],[270,816],[253,399],[591,816],[1402,1142],[710,707],[388,725],[119,762],[236,943],[422,1015],[271,435],[929,998],[6824,7162],[2094,2737],[372,617],[118,526],[51,943],[-17,779],[-220,871],[-304,598],[-642,1251],[-17,2285],[-135,834],[17,598],[220,1378],[321,1614],[135,1650],[-220,1595],[-540,2992],[-237,2103],[-152,1306],[-473,1450],[-1131,2339],[-288,816],[203,907],[608,1233],[1200,1777],[810,1069],[625,1288],[237,961],[84,1432],[85,870],[236,653],[270,671],[608,943],[1690,2901],[1435,2013],[625,525],[473,164],[625,217],[879,0],[489,-145],[609,-362],[962,-544],[1048,-399],[1452,-508],[1200,-326],[1233,-327],[1030,-526],[1098,-689],[625,-471],[1132,-689],[1199,-598],[405,-182],[1284,-725],[1841,-1686],[2483,-3391],[862,-997],[625,-163],[743,72],[574,435],[507,780],[169,399],[726,1759],[152,562],[287,508],[473,652],[558,399],[810,725],[-523,653],[-270,635],[-237,707],[-338,961],[-422,1759],[-304,888],[-389,762],[-1013,1414],[-1385,1741],[-608,1305],[-304,1142],[-338,526],[-676,1179],[-861,1269],[-422,616],[-896,1596],[-439,598],[-811,653],[-1250,979],[-810,617],[-541,471],[-405,635],[101,888],[642,1070],[1284,1668],[608,453],[506,381],[2027,1251],[1233,1233],[457,979],[236,381],[422,671],[575,852],[760,780],[777,399],[591,217],[760,182],[811,72],[1942,-399],[912,36],[372,-18],[726,272],[355,290],[253,689],[1115,1814],[1352,2611],[1182,2846],[152,2049],[-34,1179],[118,906],[-135,562],[-388,744],[-693,1704],[-692,1342],[-929,1106],[-372,290],[-371,598],[-676,653],[-777,490],[-878,290],[-913,90],[-675,-72],[-439,-109],[-625,-417],[-794,-399],[-845,-199],[-439,-37],[-642,73],[-422,109],[-811,362],[-693,562],[-540,708],[-304,743],[34,1106],[236,1070],[186,508],[355,725],[929,1450],[118,599],[-34,743],[-236,689],[-592,780],[-962,1124],[-254,508],[-354,779],[-321,816],[-254,834],[-219,834],[-135,562],[-34,871],[152,852],[422,653],[760,961],[102,54],[1165,562],[1757,816],[811,363],[844,163],[828,-73],[3243,-1142],[2263,-907],[2466,-942],[3784,-1143],[3159,-743],[1402,-254],[675,-127],[2095,-127],[794,-36],[3412,127],[760,1287],[287,1034],[-152,1360],[-625,1251],[-1132,2883],[-253,961],[-236,924],[16,1378],[271,2376],[84,652],[-304,889],[-473,471],[-507,508],[-354,798],[0,779],[118,689],[220,1016],[219,526],[490,834],[0,1142],[-169,707],[135,798],[490,1650],[135,362],[406,689],[506,889],[321,671],[85,471],[1790,3917],[1047,1178],[406,653],[912,236],[1250,-853],[270,-362],[625,-308],[862,72],[996,218],[287,0],[946,272],[794,562],[777,489],[422,309],[625,580],[372,562],[253,689],[102,616],[0,707],[-203,762],[-287,725],[-135,744],[67,906],[203,580],[490,726],[726,689],[575,417],[743,544],[5287,3517],[1182,780],[794,326],[405,91],[710,-617],[929,-398],[811,-37],[743,55],[760,435],[2162,2230],[524,363],[625,163],[490,199],[996,653],[118,73],[997,707],[507,344],[642,725],[388,726],[389,471],[709,290],[1486,345],[186,36],[929,490],[1352,1142],[895,943],[625,1160],[34,127],[439,1578],[118,2067],[17,326],[371,1886],[558,1069],[574,617],[1723,1033],[2162,689],[1149,581],[709,761],[558,1124],[473,2829],[253,1106],[270,399],[642,290],[1030,236],[2331,54],[1690,-326],[67,0],[1943,-272],[912,-544],[659,-653],[726,-1160],[-34,-309],[-186,-1160],[-202,-870],[118,-1125],[304,-544],[439,-979],[51,-961],[-119,-816],[-439,-1051],[-321,-1269],[271,-599],[777,-308],[962,-743],[727,-617],[1486,-761],[591,-200],[1081,-127],[997,-272],[608,-689],[574,-852],[423,-671],[608,-634],[625,-544],[388,-1052],[-34,-544],[-185,-870],[-558,-1070],[-659,-1197],[-202,-362],[-895,-889],[-372,-634],[-17,-816],[135,-889],[85,-634],[439,-1741],[1047,-3336],[169,-1197],[338,-3010],[-51,-3934],[-84,-599],[-68,-997],[507,-181],[980,-19],[962,200],[2331,689],[2973,453],[1284,218],[524,163],[1114,544],[507,91],[845,-381],[743,-145],[439,54],[845,145],[608,218],[1064,671],[1453,1178],[1452,1813],[203,508],[84,852],[304,744],[456,580],[507,435],[490,345],[760,362],[1622,744],[777,707],[608,634],[625,1106],[490,816],[304,798],[506,1251],[1048,889],[810,145],[575,-145],[574,-182],[1014,-489],[996,-236],[895,109],[710,417],[794,562],[929,471],[625,200],[844,-18],[1014,-145],[963,-490],[709,-544],[287,-508],[-405,-725],[-389,-326],[-1030,-943],[-760,-997],[-321,-889],[-270,-1106],[-68,-798],[236,-815],[541,-653],[1182,-1487],[1031,-1614],[574,-1432],[169,-435],[34,-907],[-118,-471],[-389,-907],[-557,-580],[-1200,-1668],[-506,-1197],[-220,-943],[-17,-906],[253,-1052],[676,-1033],[118,-164],[845,-852],[51,-236],[810,-1976],[1318,-2738],[625,-1106],[608,-1033],[709,-1523],[338,-708],[423,-1160],[861,-2702],[236,-1486],[119,-1523],[84,-943],[-101,-1088],[203,-979],[726,-2158],[507,-816],[1334,-1940],[861,-925],[1065,-616],[1317,-472],[878,-36],[659,73],[659,127],[591,36],[879,-200],[861,-471],[-169,-617],[456,-670],[406,-454],[878,254],[709,453],[625,381],[794,91],[1014,-109],[1047,-616],[743,-581],[693,-380],[473,-145],[709,0],[929,72],[659,236],[1064,217],[557,19],[609,36],[692,-73],[828,-90],[1402,-689],[1604,-907],[186,-707],[-219,-671],[-338,-471],[540,-780],[760,-36],[507,-37],[625,-217],[710,-961],[1283,-1759],[1014,-72],[1182,199],[929,127],[422,562],[896,508],[777,0],[473,-218],[625,-508],[202,-725],[186,-1088],[929,-634],[524,-889],[844,-671],[642,-453],[575,-852],[287,-417],[625,-889],[574,-380],[878,-327],[625,-145],[727,-127],[912,-326],[675,-417],[473,-363],[372,-399],[338,-507],[422,-671],[372,-454],[591,-308],[709,-308],[541,-326],[1064,-961],[591,-454],[507,-380],[659,-744],[658,-598],[288,-599],[-51,-707],[355,-906],[2331,-1306],[827,-471],[3024,-979],[2855,-1705],[1401,-725],[1470,54],[1841,1451],[591,218],[541,127],[760,72],[524,54],[726,-36],[659,-399],[810,-562],[727,-417],[709,-326],[406,-308],[388,-472],[237,-562],[118,-798],[507,-761],[1925,-1523],[760,-617],[389,-925],[388,-417],[575,-90],[912,-544],[-51,-961],[794,-73],[845,0],[793,-453],[828,-127],[811,-199],[1267,-309],[692,200],[220,508],[371,598],[406,290],[692,218],[896,471],[608,218],[456,0],[659,-55],[827,-272],[1031,-417],[574,-308],[811,-526],[-85,-834],[-118,-580],[-51,-762],[-253,-544],[-405,-689],[-338,-417],[-608,-616],[-304,-327],[-828,-779],[507,-852],[810,0],[727,-254],[456,-254],[777,-417],[203,-345],[388,-616],[524,-181],[675,-290],[760,-345],[659,-363],[220,-598],[490,-435],[996,-453],[1233,-562],[203,-726],[-372,-1033],[0,-1161],[-17,-1831],[-50,-1015],[-51,-943],[101,-961],[406,-943],[743,-435],[642,906],[473,635],[253,580],[-169,943],[507,907],[524,-345],[794,-91],[1317,-36],[862,-399],[692,-1577],[693,-381],[743,-109],[844,-199],[524,-435],[490,-726],[456,-924],[-68,-744],[-33,-779],[169,-454],[304,-598],[574,-653],[861,-380],[558,-109],[1402,-145],[557,199],[828,345],[625,-417],[929,-381],[574,-236],[1250,-471],[878,-218],[423,-689],[-321,-671],[-270,-489],[-406,-925],[-50,-1324],[-305,-417],[-456,-852],[541,-870],[574,-490],[541,-743],[67,-599],[0,-598],[-506,-979],[-558,109],[-1013,471],[-440,-779],[-33,-689],[-642,-399],[-862,634],[-337,671],[-862,-471],[-372,-454],[-152,-725],[-624,-906],[-237,-1106],[693,-653],[354,-327],[102,-1015],[473,-761],[726,-671],[321,-816],[186,-472],[405,-652],[338,-436],[591,-489],[1351,671],[507,326],[845,73],[642,-73],[793,254],[929,471],[710,91],[642,0],[625,-91],[523,-471],[608,-236],[946,417],[828,-489],[557,-345],[794,-362],[625,90],[524,236],[845,-254],[456,-743],[185,-562],[203,-689],[118,-689],[119,-907],[84,-616],[287,-508],[710,-417],[709,-744],[507,-652],[1740,-998],[4341,-961],[3209,-580],[-355,-906],[-101,-1360],[1182,-1922],[1048,-816],[152,-1106],[-879,-1070],[-878,-1360],[67,-1994],[930,-2738],[405,-3282],[490,-2357],[1283,-1559],[2078,-671],[2432,-653],[862,-381],[709,-761],[845,-889],[236,-163],[1487,-1033],[2246,72],[2872,-399],[946,-925],[338,-1087],[760,-1922],[2060,-1650],[1031,-1650],[1453,-2466],[2584,-2394],[2398,-2121],[473,-979],[1233,-2666],[1149,-2302],[3193,-6383],[4881,-7053],[2500,-1922],[2095,-2429],[67,-73]],[[859345,765937],[642,490],[524,852],[1233,2955],[1875,4171],[675,797],[980,961],[709,726],[608,344],[1875,743],[406,55],[895,18],[760,36],[811,-72],[591,-109],[591,-127],[946,-236],[2922,-1124],[1014,-308],[1216,-363],[1824,-816],[2602,-1160],[3243,-1306],[1858,-942],[1604,-1070],[1453,-943],[828,-635],[878,-616],[1115,-417],[1368,-345],[1453,-163],[1148,-181],[794,-290],[5997,-2648],[3074,-1450],[3159,-1487],[861,-580],[2111,-1614],[3075,-1849],[3530,-2412],[3057,-2502],[3159,-2611],[2432,-2212],[3412,-2502],[2213,-1668],[1183,-798],[3412,-1577],[3614,-1759],[473,-327],[1554,-1287],[1571,-1360],[1723,-1686],[1571,-1831],[997,-1070],[743,-1106],[101,-290],[152,-1251],[-67,-1705],[-68,-1505],[-17,-1595],[-17,-1614],[152,-435],[608,-1215],[744,-1668],[912,-1360],[810,-852],[1504,-1795],[1115,-1614],[1469,-2357],[541,-1559],[337,-1777],[-33,-2085],[-68,-1705],[17,-272],[51,-1505],[67,-435],[591,-1813],[862,-1505],[490,-689],[405,-598],[1622,-1795],[1554,-1832],[1469,-1722],[2534,-2484],[2128,-1741],[1774,-1360],[1723,-1251],[929,-562],[1250,-888],[67,-55],[1588,-1323],[828,-853],[1621,-1686],[575,-634],[489,-544],[1318,-1687],[490,-906],[203,-617],[101,-562],[186,-1559],[-17,-1432],[-169,-1669],[-135,-1196],[-34,-399],[-118,-1342],[34,-1759],[135,-2357],[-119,-1124],[-321,-1015],[-422,-653],[-608,-508],[-912,-580],[-794,-526],[-1182,-997],[-929,-743],[-456,-798],[-119,-744],[-17,-1124],[305,-1614],[574,-2357],[439,-2194],[405,-1795],[372,-743],[676,-907],[861,-797],[1774,-1197],[2432,-1922],[135,-127],[1047,-907],[642,-580],[1858,-1849],[321,-308],[1977,-1632],[1317,-871],[760,-489],[1470,-834],[608,-363],[1959,-816],[34,0],[1098,-580],[304,-943],[-17,-1450],[-169,-1596],[-371,-1432],[-423,-1451],[-675,-1324],[-1031,-1541],[-1250,-1541],[-929,-997],[-1351,-1904],[-1132,-1541],[-1148,-1650],[-304,-725],[-186,-961],[-135,-1777],[118,-1723],[490,-1922],[1300,-3499],[524,-2521],[389,-2465],[84,-2031],[84,-1922],[-67,-1596],[-287,-1777],[-423,-1704],[-574,-1759],[-794,-2012],[-726,-1596],[-422,-1287],[-68,-1179],[287,-2248],[287,-1813],[541,-2249],[67,-308],[490,-2901],[102,-1451],[388,-2411],[338,-2158],[186,-1487],[304,-1341],[84,-1668],[186,-1342],[-17,-1433],[-591,-906],[-1165,-417],[-1639,-308],[-1588,-272],[-152,-19],[-1368,-90],[-1503,-435],[-507,-127],[-1892,-943],[-1841,-725],[-1740,72],[-1030,109],[-1216,344],[-811,381],[-1267,707],[-1470,1088],[-1368,816],[-1334,762],[-1622,453],[-1587,435],[-1217,490],[-1587,290],[-1267,-91],[-1132,-362],[-1081,-635],[-1385,-671],[-1639,-943],[-929,-417],[-1182,-906],[-1030,-780],[-1436,-1324],[-1757,-1577],[-1655,-1977],[-1909,-1142],[-1419,-1287],[-692,-617],[-1081,-1106],[-980,-471],[-1892,-363],[-1993,73],[-2703,90],[-1790,399],[-1926,490],[-1233,435],[-659,236],[-1824,344],[-1182,0],[-1233,-453],[-1436,-743],[-1132,-889],[-1334,-1269],[-1351,-1215],[-1791,-1215],[-2314,-1360],[-1554,-888],[-1841,-1052],[-1554,-1323],[-1014,-798],[-1250,-780],[-1334,-580],[-1115,-580],[-1132,-363],[-929,-308],[-878,-200],[-236,-54],[-1081,-199],[-1234,72],[-810,55],[-1369,398],[-1182,381],[-963,218],[-827,-18],[-423,-73],[-1368,-344],[-2044,-581],[-1740,-453],[-2145,-544],[-2331,0],[-1976,145],[-2078,127],[-1587,181],[-1132,109],[-2720,454],[-1672,489],[-1334,598],[-1791,653],[-1537,308],[-844,109],[-845,0],[-980,-181],[-1064,-417],[-1385,-780],[-1115,-671],[-1571,-634],[-1537,-345],[-2956,-489],[-1942,-218],[-2297,-363],[-2889,-398],[-2939,-436],[-1689,-272],[-1284,-253],[-1013,-145],[-1064,-55],[-811,145],[-676,236],[-760,598],[-693,599],[-827,961],[-591,816],[-440,689],[-456,743],[-810,1033],[-1031,1288],[-1233,1360],[-777,834],[-1436,1523],[-743,689],[-811,743],[-219,200],[-743,761],[-744,834],[-371,526],[-490,635],[-270,344],[-592,798],[-321,471],[-405,798],[-287,599],[-237,562],[-287,852],[-422,852],[-372,526],[-388,381],[-659,616],[-760,707],[-1301,943],[-625,598],[-540,544],[-439,526],[-558,635],[-388,507],[-608,726],[-575,779],[-540,671],[-439,689],[-338,653],[-422,762],[-440,761],[-523,925],[-625,852],[-389,635],[-625,707],[-658,580],[-625,453],[-423,200],[-1554,743],[-1841,762],[-811,199],[-574,73],[-709,-109],[-625,-272],[-676,-272],[-997,-689],[-793,-435],[-490,-145],[-828,-109],[-1030,54],[-1554,0],[-896,36],[-1081,0],[-709,-108],[-676,-91],[-591,-109],[-777,-181],[-895,72],[-828,145],[-946,418],[-388,290],[-642,217],[-642,-54],[-929,-399],[-456,-417],[-777,-689],[-405,-453],[-676,-907],[-186,-798],[-17,-598],[68,-580],[270,-798],[169,-453],[220,-653],[473,-780],[456,-290],[388,-508],[203,-471],[270,-617],[287,-543],[439,-544],[642,-417],[558,-726],[-34,-888],[-608,-744],[-254,-652],[51,-853],[-980,-453],[-794,-761],[-84,-671],[-17,-889],[51,-580],[152,-834],[236,-653],[355,-634],[253,-762],[-33,-526],[-254,-797],[-152,-399],[-473,-961],[-202,-762],[-321,-489],[-372,-961],[-777,-671],[-861,-435],[-558,-236],[-709,-55],[-406,-308],[-675,-72],[-524,-73],[-557,-435],[-287,-616],[-17,-689],[118,-871],[17,-562],[67,-707],[271,-417],[608,-471],[270,-599],[372,-580],[337,-471],[406,-581],[439,-942],[186,-708],[405,-961],[625,-725],[287,-471],[406,-562],[473,-689],[304,-327],[287,-652],[67,-1016],[676,-906],[574,-780],[220,-725],[-287,-998],[-287,-689],[-879,-399],[-338,-797],[34,-544],[372,-617],[456,-453],[456,-671],[-625,-689],[-608,-363],[-253,-362],[-406,-671],[-439,-925],[-186,-834],[-17,-653],[-50,-1106],[-51,-779],[-34,-707],[-287,-780],[-557,-635],[-186,-580],[-338,-979],[-169,-526],[-456,-997],[-338,-725],[-270,-472],[-659,-924],[-253,-563],[33,-580],[440,-743],[642,-780],[388,-508],[389,-670],[320,-708],[186,-652],[490,-617],[1047,-181],[913,-290],[523,-308],[963,-762],[-68,-780],[102,-870],[439,-363],[743,-489],[676,-508],[439,-489],[270,-599],[85,-997],[-406,-725],[-321,-290],[-574,-454],[-456,-253],[-693,-454],[51,-852],[186,-598],[152,-544],[-68,-816],[-371,-997],[287,-363],[574,-471],[777,-363],[473,598],[879,-453],[16,-997],[-16,-581],[118,-852],[101,-562],[743,-779],[642,398],[507,-272],[304,-852],[591,-489],[237,-562],[-119,-653],[-253,-870],[-321,-417],[-355,-816],[-540,-798],[405,-907],[406,-544],[118,-725],[-456,-616],[-254,-980],[507,-326],[642,-272],[726,-761],[288,-689],[-744,-653],[-675,381],[-693,308],[-912,18],[0,-689],[304,-725],[321,-363],[591,-689],[-439,-961],[-524,-544],[-456,-308],[17,-1161],[152,-453],[-473,-743],[-912,-345],[-51,-888],[-743,-689],[-1030,0],[-591,-544],[-85,-490],[-118,-671],[-405,-380],[-406,-798],[152,-472],[-118,-815],[-659,-853],[-523,-453],[625,-888],[625,-798],[743,-272],[388,-979],[-777,-562],[-1013,127],[-625,398],[-541,581],[-709,-73],[-879,-72],[-878,-291],[-625,-253],[-726,598],[-473,598],[-726,689],[-997,182],[-557,-399],[-609,-852],[-405,-581],[-338,-489],[-777,-580],[-659,-19],[-895,-18],[-811,-290],[-625,-906],[-439,-871],[-253,-634],[-338,-1052],[17,-616],[34,-780],[-203,-671],[-422,-925],[-203,-634],[-270,-871],[-68,-489],[-321,-780],[-692,-290],[-625,-272],[-845,-326],[-709,-254],[-879,-272],[-472,-163],[-659,-182],[-1081,-344],[-760,-163],[-608,109],[-727,-291],[-540,-979],[-558,-816],[-506,-435],[-85,-616],[-676,-798],[-777,471],[-506,218],[-727,18],[-422,689],[-203,598],[-743,508],[-574,236],[-693,54],[-371,-272],[-287,-689],[371,-689],[68,-526],[-102,-652],[-810,-345],[-913,345],[-270,380],[-219,653],[-237,1088],[-760,508],[-608,109],[-625,-381],[-439,-435],[-575,-472],[-929,-127],[-692,37],[-895,417],[-760,-19],[-490,-145],[-423,-616],[-405,-671],[-912,-399],[-642,91],[-878,199],[-642,-90],[-845,-200],[-490,-163],[-608,-580],[-219,-599],[-710,-707],[-946,-344],[-608,-290],[-456,-109],[-675,0],[-524,-290],[-726,-18],[-440,90],[-641,109],[-794,-290],[-304,-689],[0,-580],[17,-617],[0,-526],[-85,-834],[17,-743],[-760,-326],[-541,199],[-540,254],[-558,236],[-506,108],[-608,-235],[-541,-580],[-997,-363],[-641,0],[-997,272],[-524,199],[-743,-272],[-355,-870],[-135,-635],[-185,-906],[-119,-689],[17,-580],[270,-744],[220,-580],[51,-943],[-456,-453],[-794,-254],[-946,-145],[-693,-218],[-338,-344],[-472,-526],[-305,-290],[-608,-490],[-439,-290],[-692,-507],[-102,-1034],[254,-852],[-34,-671],[-237,-490],[-337,-562],[-423,-489],[-726,-834],[-101,-127],[-845,-870],[-372,-381],[-777,-526],[-557,-109],[-1165,-127],[-997,-145],[-861,-127],[-828,-308],[-422,-616],[-271,-508],[-371,-635],[-372,-598],[-574,-526],[-625,36],[-980,-145],[-422,-943],[84,-816],[85,-779],[-186,-635],[-777,-526],[-743,-253],[-879,-327],[-962,-362],[-592,-236],[-658,-381],[-794,-598],[-524,-599],[-811,-544],[-827,-145],[-676,-326],[-169,-616],[-270,-490],[-422,-544],[-237,-780],[-118,-1051],[-456,-435],[-338,-834],[-17,-490],[-51,-1160],[-50,-1070],[-119,-1070],[-405,-2702],[-203,-888],[-253,-743],[-270,-363],[-575,-363],[-523,-72],[-693,18],[-456,236],[-574,435],[-507,344],[-591,381],[-574,435],[-473,327],[-558,308],[-642,344],[-979,55],[-997,-309],[-760,-344],[-557,-290],[-862,-381],[-642,-308],[-794,-526],[-692,-562],[-406,-326],[-641,-436],[-676,-18],[-878,254],[-676,73],[-456,36],[-625,-91],[-912,-90],[-946,-454],[-304,-562],[202,-779],[457,-418],[253,-580],[-574,-616],[-727,-36],[-523,145],[-693,652],[-236,707],[-811,508],[-625,-54],[-625,-798],[186,-780],[135,-1033],[-118,-725],[-794,-381],[-490,127],[-608,163],[-727,72],[-456,-199],[-287,-725],[-17,-671],[-84,-689],[-338,-780],[-456,-580],[-389,-163],[-777,-327],[-658,-870],[84,-616],[102,-581],[-85,-652],[270,-816],[710,54],[557,-943],[-405,-489],[-693,-345],[-321,-453],[-17,-925],[355,-707],[51,-1033],[-710,-671],[-625,108],[-540,-398],[-929,-508],[-794,-236],[-574,18],[-828,37],[-608,145],[-372,362],[-777,-526],[-388,-525],[-659,-744],[-1013,-308],[-609,-18],[-489,-689],[-304,-381],[-659,-236],[-456,182],[-575,471],[-473,345],[-1013,-309],[-51,-852],[-608,-598],[-321,-508],[-506,-381],[-913,-235],[-253,-671],[-287,-472],[-574,-598],[-625,-381],[-777,-217],[-271,-381],[-118,-744],[-371,-707],[-710,-145],[-777,218],[-473,-91],[-659,-544],[-101,-888],[845,-417],[-271,-1016],[-777,37],[-557,-73],[-608,689],[-389,490],[-658,181],[-946,127],[-912,-73],[-85,-652],[186,-562],[388,-581],[102,-562],[-389,-616],[-202,-526],[-271,-707],[-895,-381],[-676,163],[-929,-580],[-608,-580],[-388,-363],[-760,-544],[-794,-163],[-423,-381],[-844,-417],[-946,182],[-997,-363],[-760,-236],[-422,-689],[321,-888],[152,-635],[0,-979],[-642,-489],[-507,126],[-777,-308],[85,-761],[304,-472],[-389,-725],[-709,-145],[-355,-562],[-270,-508],[186,-779],[287,-925],[67,-1016],[102,-453],[253,-943],[-34,-725],[220,-925],[321,-997],[-304,-562],[-304,-381],[-439,-634],[219,-526],[152,-798],[-135,-508],[-186,-725],[-304,-907],[-135,-598],[220,-616],[186,-671],[-321,-907],[-220,-399],[-355,-634],[-473,-399],[-608,-508],[-304,-580],[-456,-798],[-135,-544],[186,-780],[0,-507],[118,-1106],[507,-381],[557,-653],[135,-507],[85,-798],[-51,-943],[-439,-308],[-777,-472],[-574,-326],[-287,-490],[-119,-743],[-67,-490],[-169,-689],[-456,-779],[118,-798],[490,-617],[304,-417],[355,-580],[185,-634],[17,-581],[355,-743],[625,-725],[338,-309],[523,-417],[625,-870],[440,-326],[844,-562],[726,-472],[389,-417],[456,-725],[220,-780],[304,-526],[591,-870],[507,-816],[236,-689],[490,-816],[524,-290],[574,-508],[659,-543],[473,-418],[574,-761],[473,-671],[523,-417],[896,-363],[658,-217],[777,-308],[609,-272],[929,-436],[810,-344],[659,-345],[558,-272],[945,-507],[524,-363],[659,-435],[625,-381],[861,-453],[676,-363],[946,-399],[574,-253],[1183,-526],[726,-345],[659,-290],[692,-254],[608,-217],[760,-599],[169,-562],[338,-1051],[355,-1088],[203,-871],[168,-652],[456,-852],[372,-599],[507,-508],[388,-308],[541,-562],[439,-1033],[541,-998],[574,-580],[321,-362],[439,-581],[338,-525],[338,-653],[219,-435],[220,-1106],[422,-599],[710,-725],[-34,-979],[-186,-1034],[-51,-652],[-50,-834],[-51,-853],[-118,-924],[-237,-780],[-17,-471],[186,-798],[439,-925],[68,-780],[-338,-942],[-101,-1070],[135,-599],[-152,-779],[-152,-508],[-186,-725],[68,-689],[-203,-943],[-51,-852],[0,-689],[-371,-617],[-152,-834],[118,-689],[-439,-888],[84,-762],[152,-653],[186,-779],[101,-961],[186,-1052],[152,-689],[118,-562],[203,-671],[287,-671],[237,-580],[304,-852],[270,-743],[186,-581],[219,-489],[524,-562],[405,-435],[372,-526],[405,-508],[490,-671],[439,-435],[625,-399],[558,-435],[354,-399],[541,-798],[490,-652],[473,-653],[321,-399],[456,-453],[405,-417],[422,-1052],[34,-816],[355,-598],[287,-399],[405,-599],[372,-634],[220,-725],[321,-544],[287,-454],[405,-489],[524,-417],[473,-925],[760,-707],[422,-508],[254,-598],[760,-453],[625,-291],[540,-344],[642,-381],[507,-145],[1013,-308],[389,-762],[219,-725],[-50,-1052],[84,-815],[287,-508],[439,-490],[406,-961],[17,-979],[135,-598],[355,-762],[50,-616],[-50,-725],[67,-454],[625,-634],[405,-363],[169,-780],[-17,-562],[288,-961],[354,-725],[102,-508],[-575,-326],[-591,-326],[-591,-345],[-591,-326],[-760,-417],[-659,-363],[-541,-308],[-608,-345],[-692,-399],[-777,-417],[-1824,-1033],[-879,-508],[-1267,-689],[-625,-362],[-675,-381],[-929,-526],[-760,-417],[-625,-363],[-710,-399],[-659,-362],[-641,-363],[-794,-453],[-727,-417],[-642,-345],[-591,-344],[-625,-345],[-777,-435],[-321,-181],[-1013,-544],[-895,-526],[-693,-381],[-507,-308],[-658,-344],[-879,-508],[-625,-363],[-659,-362],[-523,-290],[-760,-436],[-541,-290],[-642,-381],[-574,-308],[-946,-526],[-574,-344],[-422,-218],[-727,-417],[-878,-489],[-490,-290],[-692,-363],[-592,-344],[-506,-291],[-794,-435],[-659,-381],[-507,-290],[-456,-253],[-895,-490],[-456,-254],[-845,-489],[-456,-254],[-574,-327],[-591,-326],[-575,-326],[-810,-454],[-659,-362],[-743,-435],[-473,-254],[-896,-526],[-827,-453],[-423,-254],[-743,-399],[-591,-327],[-726,-417],[-912,-525],[-761,-417],[-658,-363],[-727,-435],[-506,-290],[-473,-254],[-541,-308],[-490,-272],[-591,-327],[-692,-399],[-609,-326],[-506,-290],[-524,-290],[-574,-345],[-591,-326],[-592,-345],[-489,-272],[-761,-435],[-489,-272],[-693,-399],[-456,-253],[-540,-291],[-473,-253],[-744,-436],[-490,-272],[-523,-308],[-828,-471],[-456,-254],[-743,-417],[-490,-272],[-760,-417],[-591,-345],[-423,-253],[-591,-309],[-861,-489],[-524,-290],[-574,-327],[-591,-326],[-423,-254],[-33,852],[743,73],[-34,852],[-405,508],[-321,834],[-811,-37],[-372,-380],[-709,380],[-524,980],[-253,525],[-524,526],[-405,254],[-456,562],[219,689],[136,943],[0,671],[-558,852],[-844,399],[-1031,109],[-794,90],[-946,145],[-709,236],[-693,36],[-388,109],[-625,290],[-456,200],[-693,217],[-861,19],[-406,126],[-895,182],[-709,72],[-423,37],[-912,199],[-1891,508],[-946,199],[-777,91],[-997,235],[-794,164],[-676,235],[-523,91],[-659,-145],[-507,-145],[-895,-181],[-676,-91],[-996,-18],[-507,18],[-760,109],[-743,181],[-541,-36],[-709,54],[-794,182],[-676,36],[-810,36],[-524,145],[-710,73],[-557,-164],[-726,-181],[-811,-217],[-473,-127],[-760,-164],[-760,-145],[-828,-145],[-828,-127],[-540,-90],[-862,-145],[-557,-91],[-828,-326],[-996,-254],[-1031,-181],[-692,-127],[-929,-182],[-574,-54],[-913,54],[-489,37],[-727,0],[-625,-55],[-709,-163],[-541,-163],[-658,-272],[-777,-435],[-929,-363],[-862,-254],[-912,-145],[-726,-54],[-828,-109],[-963,-145],[-608,-109],[-760,-163],[-980,-181],[-642,-236],[-827,-381],[-507,18],[-929,-54],[-726,-236],[-929,-272],[-693,-36],[-659,0],[-574,-236],[-287,-779],[-625,-508],[-541,-91],[-642,-91],[-506,-90],[-642,-109],[-625,-109],[-693,-109],[-895,-145],[-659,-108],[-506,-73],[-761,-127],[-1047,-199],[-540,-91],[-1014,-163],[-574,-91],[-541,-90],[-709,-109],[-574,-109],[-693,-127],[-692,-109],[-1014,-235],[-659,-164],[-827,254],[-642,-399],[-895,-634],[-862,-599],[-557,-344],[-203,-744],[929,-290],[845,-507],[168,-907],[85,-653],[101,-779],[-523,-689],[-642,-218],[-727,-272],[-912,-544],[-658,-471],[-659,-454],[-507,182],[-490,707],[-591,435],[-338,526],[-405,743],[-980,91],[-507,-417],[-304,-417],[-608,-308],[-675,36],[-828,199],[-524,218],[-506,218],[-896,290],[-625,-73],[-625,-18],[-709,417],[-490,598],[-203,363],[-473,725],[-439,345],[-861,217],[-710,-145],[-625,-380],[-912,-291],[-1047,145],[-760,254],[-456,182],[-676,253],[-692,399],[-592,399],[-591,345],[-946,362],[-1216,417],[-490,109],[-608,-453],[-507,-870],[-202,-635],[-102,-562],[-67,-816],[-68,-780],[-118,-689],[-186,-743],[-202,-345],[-440,-634],[-321,-435],[-422,-581],[-608,-707],[-388,-507],[-541,-617],[-574,-689],[-608,-743],[-406,-399],[-422,-363],[-659,-489],[-692,-417],[-592,-454],[-456,-544],[-202,-489],[-135,-798],[-119,-979],[-152,-816],[-388,-580],[-879,-580],[-591,-254],[-422,-163],[-693,-200],[-912,-145],[-979,54],[-625,236],[-912,580],[-761,363],[-439,127],[-743,-145],[-557,-381],[-440,-399],[-439,-453],[-321,-834],[-17,-997],[237,-907],[169,-834],[118,-544],[490,-725]],[[258403,336869],[-574,-581],[-3091,-3154],[-1352,-1397],[-1368,-1414],[-219,-236],[-2044,-2085],[-4257,-4369],[-1925,-2031],[-963,-979],[-1757,-1795],[-355,-363],[-2077,-2140],[-2787,-2846],[-2264,-2303],[-743,-761],[-355,54],[-743,888],[-388,472],[-879,1070],[-473,580],[-1334,1595],[-676,834],[-591,744],[-490,616],[-844,1088],[-862,1124],[-929,1179],[-473,616],[-608,780],[-17,707],[51,852],[-389,1161],[-287,852],[-354,1070],[-288,870],[-152,417],[-321,617],[-405,634],[-405,508],[-389,544],[-67,671],[-102,870],[-405,1015],[-1284,943],[-422,544],[-338,707],[-355,472],[-557,634],[-152,726],[-17,580],[17,906],[-51,1088],[-270,708],[-220,380],[-287,889],[-203,1070],[-253,707],[-355,562],[-354,652],[-372,726],[-372,689],[-337,671],[-220,489],[-507,635],[-1098,1468],[423,363],[658,689],[85,707],[-220,490],[-557,507],[-389,254],[-591,290],[-811,508],[-473,453],[-489,925],[0,780],[67,417],[270,707],[828,489],[929,182],[507,417],[439,1396],[-490,707],[-338,308],[-439,726],[-371,997],[-51,816],[17,562],[202,1015],[625,1614],[34,907],[-557,417],[-963,-109],[-777,-254],[-389,-109],[-709,-18],[-844,562],[-372,671],[-152,689],[-186,526],[-490,562],[-979,36],[-659,-544],[-423,-290],[-726,-109],[-912,544],[-338,889],[17,489],[85,1052],[67,816],[34,689],[-253,1088],[-305,598],[-101,870],[726,1433],[136,779],[-304,617],[-423,435],[-642,653],[-692,653],[-304,942],[743,744],[1098,689],[372,435],[118,635],[34,2719],[-68,798],[-1605,1995],[-1469,1704],[-879,834],[-1452,1360],[-372,344],[-878,907],[-34,36],[-861,-689],[-237,272],[-388,689],[-507,454],[-862,126],[-1030,236],[-540,308],[-693,653],[-811,236],[-557,-55],[-727,-54],[-641,91],[-794,308],[-490,54],[-710,381],[-236,925],[236,979],[-101,798],[676,235],[523,418],[271,761],[321,399],[33,888],[-185,490],[-676,272],[-439,471],[-355,508],[-422,925],[-439,598],[-592,526],[51,943],[-642,852],[-692,943],[-744,1015],[-878,1197],[-726,1052],[-727,997],[-354,526],[-727,72],[-912,-743],[-557,-417],[-895,-762],[-558,-489],[-1030,-816],[-727,-562],[-793,-617],[-1149,-906],[-1098,-871],[-659,-489],[-1858,-1487],[-2804,3771],[-1655,2194],[-963,1306],[-2415,3227],[-2804,-2248],[-1926,2665],[-1909,2665],[-557,762],[-3581,4986],[-1672,-1342],[-4730,-3807],[-1402,-961],[-557,1432],[-389,1034],[-2483,6636],[-338,834],[-253,707],[-388,1016],[-254,616],[-270,780],[-372,924],[-236,617],[-574,1523],[-2348,6183],[-912,2375],[-119,290],[304,272],[811,635],[507,453],[-1199,1578],[-203,290],[-2297,3064],[-3243,4370],[-2940,3916],[-67,109],[-3733,5059],[-1841,2538],[-68,73],[-50,-19],[-2011,-1650],[-3141,-2538],[-558,-453],[-1047,-816],[-946,-762],[-405,399],[-575,472],[-337,253],[-625,581],[-1014,961],[-709,670],[-1098,1088],[-1183,1143],[-692,671],[-659,634],[-929,870],[-287,327],[-811,18],[-540,798],[-963,489],[-1993,1378],[-1132,780],[-1335,925],[-270,163],[-929,544],[-67,36],[-1048,399],[-1064,399],[-152,72],[-3412,1233],[135,1088],[338,2521],[355,2792],[355,2702],[219,1776],[-304,816],[-743,-417],[-1571,3318],[-862,1904],[-793,1686],[-1267,2666],[-34,54],[-828,1741],[-1419,3137],[-1469,3173],[-693,1487],[-287,598],[-743,1487],[-912,2012],[-389,780],[-321,254],[-2314,-1124],[-2314,-1161],[-101,-54],[-1301,-653],[-2804,-1505],[-1841,-961],[-1554,-780],[-2027,-1069],[-2365,-1161],[-2905,-1450],[-1030,-490],[-169,-54],[-1047,-290]],[[55708,500163],[337,580],[0,598],[34,1233],[17,635],[34,671],[135,852],[-118,852],[-152,689],[-119,725],[-101,816],[-67,925],[16,997],[17,816],[-135,1251],[152,961],[-186,979],[-388,834],[-372,454],[-321,816],[-169,670],[-152,998],[51,598],[152,598],[169,671],[220,562],[67,780],[-371,707],[-558,852],[186,689],[709,345],[1014,-91],[608,526],[422,925],[-50,779],[-136,490],[-118,798],[51,725],[304,689],[591,743],[574,744],[355,761],[338,689],[642,707],[490,363],[692,780],[-338,526],[-371,362],[-423,617],[-287,1088],[-337,761],[-254,490],[-84,779],[878,417],[490,91],[794,18],[507,363],[320,671],[355,834],[422,634],[558,925],[152,580],[135,580],[-68,835],[34,1069],[439,508],[-337,653],[-440,199],[-236,762],[270,562],[68,580],[-490,598],[-287,508],[-186,889],[-169,979],[-287,1450],[-101,834],[67,762],[220,924],[236,744],[254,961],[118,526],[253,544],[304,453],[575,761],[760,671],[456,309],[169,1033],[-237,453],[-338,707],[-506,816],[709,454],[895,507],[8260,4116],[3176,1687],[473,235],[2415,1632],[2584,1759],[4257,2810],[1622,1016],[236,362],[-2449,3735],[5642,3464],[8851,5911],[6249,4079],[3176,2647],[355,436],[523,290],[1183,489],[861,254],[777,109],[574,18],[575,36],[844,0],[744,-90],[979,-127],[760,-164],[439,-108],[896,127],[658,-19],[389,-398],[524,-816],[793,-399],[169,-1342],[85,-707],[169,-1541],[726,-544],[558,-581],[557,-1069],[642,-327],[608,127],[794,635],[726,54],[456,635],[270,616],[338,617],[507,906],[338,581],[371,816],[288,1069],[-17,1034],[-51,1088],[34,1142],[-68,1940],[-101,1124],[-287,526],[-102,1088],[-33,852],[-119,635],[-422,1033],[-828,2049],[575,689],[439,-54],[861,18],[2264,725],[1942,653],[3328,1179],[4003,1649],[220,-90],[1723,-1505],[996,-200],[1824,91],[473,-36],[5186,1070],[794,181],[963,54],[2229,-163],[2213,345],[3007,-327],[135,1505],[3463,-145],[1503,-653],[760,708],[760,852],[439,453],[896,345],[456,54],[810,-36],[693,797],[524,653],[591,-72],[980,72],[-980,7126],[456,1704],[473,1288],[456,1178],[591,1777],[287,526],[524,943],[338,616],[219,381],[372,816],[219,471],[423,726],[405,743],[220,490],[456,1432],[642,1451],[17,471],[84,798],[1436,1487],[4510,-454],[439,3826],[2094,-109],[541,1922],[1064,816],[287,417],[845,399],[-287,1650],[675,1451],[2247,1867],[1436,780],[2128,1994],[693,1959],[4222,-291],[152,653],[34,907],[-17,580],[2433,-326],[67,544],[51,888],[-68,780],[0,544],[1183,906],[-355,907],[-135,489],[-34,816],[3040,1487],[186,109],[2551,2085],[51,36],[1385,-671],[236,834],[118,708],[68,1015],[152,598],[304,1179],[1368,-417],[541,2139],[1655,-272],[1014,2267],[-693,1088],[1419,-91],[101,2122],[997,-291],[709,2539],[2956,-943],[490,1451],[3176,344],[50,2103],[1115,-235],[135,1160],[1402,-308],[980,2448],[236,797],[372,3246],[-152,3391],[-591,670],[67,798],[85,671],[118,1487],[169,1233],[169,2139],[135,1886],[-1199,0],[439,3681],[1149,-109],[168,1469],[456,634],[625,435],[321,436],[152,652],[169,925],[186,870],[203,689],[203,998],[50,1033],[-219,635],[422,834],[152,2085],[135,580],[3176,-308],[962,544],[693,0],[1655,-236],[152,0],[592,2122],[506,2302],[152,526],[372,1324],[659,2176],[743,544],[828,290],[219,580],[-507,906],[2061,1904],[558,490],[996,1468],[507,708],[828,1233],[1249,1867],[609,236],[625,-453],[1317,3499],[625,1958],[101,345],[625,2973],[254,3318],[-68,2267],[0,2357],[-84,1124],[-135,961],[-321,598],[-744,744],[-641,526],[-879,652],[-777,744],[-405,816],[-287,290],[-946,761],[-1993,1850],[-1977,2375],[-1250,2031],[-591,1650],[-1013,3572],[-456,2484],[-355,1196],[-372,526],[-777,562],[-540,581],[-355,507],[0,635],[321,1523],[524,598],[304,617],[236,997],[152,762],[541,924],[490,454],[270,471],[101,1033],[710,544],[912,381],[861,562],[422,943],[254,816],[0,762],[-169,1559],[-85,761],[-84,726],[-422,1613],[84,1016],[-557,707],[-220,798],[-236,961],[135,1650],[270,1958],[-169,1142],[-608,1034],[-101,943],[118,1087],[439,1378],[135,1016],[-354,1342],[-524,797],[-17,853],[-355,743],[-591,471],[-912,526],[-1402,508],[-1318,381],[-608,399],[-574,834],[862,761],[1334,961],[439,272],[1824,1088],[1538,617],[456,-37],[84,-145],[693,-1033],[574,-653],[794,-490],[726,200],[490,36],[676,417],[996,1088],[1064,1034],[744,272],[658,-73],[659,-145],[2162,-2176],[1047,-1469],[777,-1776],[-405,-1705],[-51,-852],[186,-399],[895,-816],[744,-1015],[287,-508],[473,-1324],[338,-471],[523,-526],[642,-671],[524,-525],[743,-563],[540,-362],[794,-290],[1183,-254],[2077,-200],[744,-108],[1283,-399],[710,-200],[388,-399],[102,-725],[152,-1722],[-169,-1868],[-220,-1994],[-17,-998],[355,-1124],[1301,-2411],[152,-218],[354,-1722],[51,-1415],[101,-961],[17,-399],[338,-870],[68,-199],[1165,-2720],[490,-671],[1284,-4533],[878,-1940],[-101,-1015],[118,-1016],[338,-761],[490,-617],[979,-707],[119,-54],[1233,-599],[2483,-1196],[895,-399],[946,-472],[1233,-1069],[980,-490],[456,-181],[2060,-200],[1115,-72],[1031,-327],[945,-652],[727,-816],[338,-617],[185,-689],[102,-779],[236,-853],[541,-90],[1672,-91],[220,54],[912,55],[321,18],[827,-471],[1504,-617],[1739,-780],[1453,-380],[2399,-272],[2162,-454],[844,55],[963,90],[743,91],[710,-18],[473,-199],[338,-581],[202,-562],[473,-399],[456,-526],[727,-743],[996,-236],[862,417],[17,998],[-355,562],[-473,689],[-372,562],[-270,743],[68,907],[118,707],[422,743],[710,91],[1165,-54],[1858,-91],[439,-36],[1267,-73],[135,2412],[304,90],[1588,-18],[2365,55],[1098,0],[84,0],[1689,217],[879,544],[912,36],[5912,-1940],[34,-127],[1959,-507],[1098,-490],[1013,-471],[710,616],[236,218],[710,526],[405,435],[405,598],[625,671],[203,635],[811,598],[557,-689],[237,-798],[-186,-743],[237,-852],[371,-345],[676,-363],[169,-1051],[878,-399],[709,362],[305,418],[523,580],[693,-200],[523,0],[625,309],[693,308],[456,0],[507,671],[777,36],[946,-544],[810,72],[879,-235],[253,943],[709,707],[457,90],[591,-362],[388,-707],[237,-671],[760,-145],[405,816],[575,-145],[709,199],[388,-36],[676,598],[777,-72],[34,-708],[861,-380],[355,-526],[710,-472],[591,-72],[642,-363],[608,-544],[540,-235],[456,-943],[34,-997],[304,-544],[473,-671],[541,-707],[337,-780],[338,-1106],[118,-580],[186,-798],[676,-689],[1638,-1233],[2112,-1396],[2061,-979],[658,-91],[473,-199],[1740,-689],[861,-73],[727,18],[473,163],[675,-36],[693,-381],[1453,-1124],[946,-508],[574,-126],[828,126],[591,200],[963,91],[709,-127],[1334,-454],[963,-399],[574,-272],[727,-398],[659,-363],[1013,-236],[439,36],[811,272],[1368,200],[980,344],[709,-163],[473,-616],[1200,-2212],[1098,-943],[388,-327],[456,-398],[659,-309],[692,-725],[473,-344],[642,-182],[439,-54],[744,-36],[337,-454],[68,-888],[456,-1360],[507,-979],[574,-979],[912,-1324],[237,-906],[-68,-1469],[-17,-254],[439,-888],[119,-164],[1165,-1595],[490,-907],[591,-1251],[304,-616],[1706,-2466],[355,-889],[236,-616],[406,-544],[355,-290],[456,-472],[1250,-1777],[236,-634],[186,-961],[0,-907],[-760,-1994],[-524,-1179],[-169,-399],[-422,-616],[-287,-671],[-17,-1015],[490,-1125],[186,-997],[84,-544],[51,-852],[-34,-816],[186,-1632],[101,-779],[203,-1415],[34,-2629],[236,-725],[490,-653],[726,-417],[946,-417],[845,-399],[962,-199],[288,-73],[1030,-326],[693,-109],[641,-163],[946,-363],[575,-217],[574,-254],[557,-254],[575,-272],[540,-290],[558,-290],[320,-852],[186,-1251],[389,-1070],[1317,-744],[558,-163],[574,-1033]],[[438921,91075],[-490,236],[-625,91],[-558,-145],[-456,-327],[-405,-525],[-338,-562],[-338,-581],[-405,-743],[-439,-743],[-406,-671],[-304,-490],[-456,-870],[-135,-852],[-17,-544],[220,-816],[338,-635],[439,-961],[236,-725],[135,-744],[17,-743],[-101,-544],[-473,-997],[-574,-417],[-744,-254],[-456,0],[-912,163],[-574,345],[-558,707],[-304,598],[-405,979],[-253,689],[-271,979],[-152,762],[-135,544],[-253,834],[-541,852],[-506,490],[-558,326],[-591,127],[-946,-54],[-929,-381],[-608,-707],[-355,-508],[-523,-979],[-338,-780],[-169,-779],[-34,-563],[34,-815],[101,-581],[321,-671],[574,-961],[406,-580],[659,-852],[371,-435],[423,-508],[371,-906],[51,-708],[-355,-670],[-490,-345],[-1064,-91],[-929,236],[-692,363],[-828,471],[-625,363],[-591,326],[-490,145],[-794,-90],[-743,-218],[-507,-218],[-524,-235],[-625,-254],[-1013,-363],[-1014,18],[-743,218],[-895,598],[-760,726],[-558,670],[-591,671],[-490,653],[-489,635],[-980,-417],[0,-671],[-34,-889],[-51,-671],[-84,-580],[-220,-671],[-304,-652],[-658,-871],[-524,-652],[-591,-526],[-676,-454],[-439,-272],[-625,-290],[-490,-163],[-845,-290],[-844,-308],[-929,-381],[-929,-417],[-760,-326],[-558,-218],[-726,-326],[-743,-417],[-422,-327],[-693,-344],[-760,-653],[-406,-435],[-439,-381],[-506,-435],[-440,-399],[-540,-435],[-895,-471],[-1014,72],[-912,526],[-507,326],[-405,272],[-726,744],[-321,743],[-85,580],[-67,725],[-17,943],[135,1251],[84,526],[186,1324],[118,852],[68,798],[-237,870],[-354,399],[-997,399],[-608,0],[-676,-109],[-743,-145],[-540,-145],[-541,-145],[-557,-181],[-777,-272],[-456,-182],[-1740,-670],[-642,-454],[220,-834],[337,-598],[152,-453],[372,-1922],[169,-1233],[236,-1378],[119,-708],[236,-1668],[102,-906],[67,-762],[34,-743],[0,-961],[0,-1505],[0,-1849],[0,-1288],[51,-1287],[50,-689],[118,-943],[152,-1795],[119,-1541],[152,-1269],[202,-943],[119,-653],[185,-580],[220,-617],[389,-816],[135,-399],[490,-1432],[253,-762],[152,-616],[236,-1197],[271,-1414],[101,-490],[186,-942],[186,-1106],[135,-1251],[169,-1723],[67,-997],[0,-834],[-17,-1070],[68,-1034],[152,-580],[219,-997],[473,-2375],[169,-1106],[85,-998],[17,-779],[-68,-744],[-101,-634],[-406,-961],[-270,-454],[-473,-652],[-760,-744],[-524,-435],[-608,-399],[-540,-362],[-507,-218],[-692,-236],[-879,-199],[-726,-127],[-659,-54],[-794,-109],[-422,-91],[-709,-381],[-305,55],[-1283,145],[-271,36],[-2077,326],[-17,0],[-1233,200],[-7061,997],[-1942,236],[-1132,145],[-2601,363],[-4105,580],[-5810,852],[-2399,308],[-929,109],[-1250,163],[-1807,290],[-879,145],[-1351,182],[-2584,326],[-11165,1541],[-2771,363],[-2601,344],[-1588,309],[-1098,199],[-675,54],[-1943,73],[-5388,163],[-8327,417],[-5608,272],[-2939,109],[-9544,308],[-1841,91],[-490,36],[-3970,218],[-3648,145],[-4578,254],[-2601,90],[-253,18],[-3683,55],[-6705,326],[-4240,181],[-1267,91],[-625,0],[-625,-36],[-2179,236],[-6182,253],[-4409,218],[-4408,145],[-1470,54],[-4561,272],[-2280,37],[-1706,54],[-1385,-18],[-1655,-36],[-929,-91],[-946,-145],[-997,-254],[-2888,-780],[-3699,-961],[-693,-217],[-1284,-453],[-490,-164],[-912,-108],[-726,-127],[-693,-182],[-996,-344],[-118,-36],[-1335,-508],[-2432,-598],[-1284,-327],[-1216,-326],[-1318,-345],[-2212,-652],[-3328,-907],[-3632,-1033],[-3851,-1107],[-1267,-344],[-810,-73],[-355,-36],[-1216,-72],[-1706,-37],[-1808,55],[-354,0],[-2619,-18],[-1959,-18],[-2179,-19],[-2669,-72],[-3395,-55],[-4493,-108],[-3328,-55],[-962,-18],[-1318,-36],[-2145,54],[-287,18],[-2010,19],[-710,-19],[-1030,-54],[-1976,-163],[-710,0],[-1013,36],[-1656,0],[-4003,-109],[-4392,-90],[-8327,-127],[-5017,-37],[-3243,37],[-1453,-37],[-861,-72],[-507,-54],[-3158,-508],[-1267,-200],[-4071,-634],[-929,-127],[-2872,-417],[-6756,-943],[-3412,-471],[-5963,-871],[-6165,-906],[-2112,-254],[-1570,-218],[-558,-72],[-2280,-309],[-1723,-290],[-4426,-761],[-4493,-707],[-1098,-182],[-2179,-344],[-3918,-381],[-17,0],[-17,-18],[-7787,-1106],[-4138,-617],[-1859,-271],[-16,0],[-3818,-581],[-321,-36],[-1824,-272],[-862,-127],[-2246,-290],[-7280,-1160],[-4375,-671],[-625,-109],[-2669,-399],[-3631,-526],[-3548,-489],[-1824,-272],[-642,-91],[-3006,-435],[-186,-18],[-4645,-635],[-169,-18],[0,1541],[0,2394],[-17,1958],[51,1523],[33,1795],[34,5748],[34,5439],[17,4062],[17,2665],[17,1070],[16,616],[0,671],[-16,1487],[16,4605],[17,3445],[0,3445],[17,2358],[0,3245],[17,3862],[17,4370],[0,4025],[17,4370],[51,5584],[16,6002],[51,4950],[17,1487],[-17,2828],[0,345],[34,4533],[17,9156],[34,7416],[33,1868],[85,8123],[-17,2375],[17,2756],[67,5856],[-17,2684],[51,8467],[-34,3246],[203,6963],[0,1051],[0,6473],[0,726],[-34,6037],[51,1288],[51,7488],[0,2194],[50,6328],[51,2702],[34,6781],[0,3427],[0,127],[0,906],[0,3101],[34,5566],[50,2176],[34,4660],[17,2212],[34,3844],[50,2012],[-33,2194],[-220,1741],[-17,127],[-34,1287],[-50,3192],[-119,2393],[-202,4134],[-135,4333],[-102,1777],[-236,5204],[-118,1741],[-220,4243],[-439,10516],[-102,2847],[-84,3481],[-220,5095],[-169,4007],[-33,7235],[-17,3372],[0,4007],[-34,3953],[0,3409],[101,6219],[17,1777],[17,943],[68,5058],[33,1705],[68,1414],[0,109],[-34,7814],[17,3863],[-51,5602],[34,3336],[34,4171],[0,1450],[17,961],[0,562],[34,4823],[0,1233],[0,3518],[34,4079],[16,2666],[0,7144],[17,1813],[0,4950],[0,2629],[34,6908],[17,4878],[17,4768],[34,3862],[33,1106],[34,7742],[51,5277],[-17,4914],[34,4551],[-17,3626],[34,3318],[-51,3409],[34,3336],[17,3354],[33,3754],[0,1468],[17,2031],[34,3264],[51,1650],[-34,1360],[0,725],[17,6455],[-17,6980],[17,3300],[-17,1542],[17,1432],[321,417],[1419,689],[2787,1378],[4138,2121],[4003,2031],[3412,1777],[4865,2557],[3801,1904],[5101,2538],[2618,1324],[5963,3046],[3361,1795],[4240,2121],[2618,1342],[2483,1360],[980,453],[608,381],[388,344],[541,309],[1267,707]]],"bbox":[100.91346,13.96128,101.50548,14.5128],"transform":{"scale":[5.920205920205971e-7,5.515205515205516e-7],"translate":[100.91346,13.96128]}}