{"type":"Topology","objects":{"districts":{"type":"GeometryCollection","geometries":[{"type":"Polygon","arcs":[[0,1,2,3,4]],"properties":{"CODE":"7301","PARENT":"73","NAME_TH":"เมืองนครปฐม","NAME_EN":"Mueang Nakhon Pathom","NAME_CN":"Mueang Nakhon Pathom","COLOR_IDX":0}},{"type":"Polygon","arcs":[[5,6,-5,7]],"properties":{"CODE":"7302","PARENT":"73","NAME_TH":"กำแพงแสน","NAME_EN":"Kamphaeng Saen","NAME_CN":"Kamphaeng Saen","COLOR_IDX":3}},{"type":"Polygon","arcs":[[8,9,-2,10,11]],"properties":{"CODE":"7303","PARENT":"73","NAME_TH":"นครชัยศรี","NAME_EN":"Nakhon Chai Si","NAME_CN":"Nakhon Chai Si","COLOR_IDX":3}},{"type":"Polygon","arcs":[[-11,-1,-7,12]],"properties":{"CODE":"7304","PARENT":"73","NAME_TH":"ดอนตูม","NAME_EN":"Don Tum","NAME_CN":"Don Tum","COLOR_IDX":2}},{"type":"Polygon","arcs":[[13,-12,-13,-6,14]],"properties":{"CODE":"7305","PARENT":"73","NAME_TH":"บางเลน","NAME_EN":"Bang Len","NAME_CN":"Bang Len","COLOR_IDX":1}},{"type":"Polygon","arcs":[[15,-3,-10,16]],"properties":{"CODE":"7306","PARENT":"73","NAME_TH":"สามพราน","NAME_EN":"Sam Phran","NAME_CN":"Sam Phran","COLOR_IDX":1}},{"type":"Polygon","arcs":[[17,-17,-9,-14]],"properties":{"CODE":"7307","PARENT":"73","NAME_TH":"พุทธมณฑล","NAME_EN":"Phutthamonthon","NAME_CN":"Phutthamonthon","COLOR_IDX":2}}]}},"arcs":[[[464589,498924],[1070,-415],[822,-208],[478,-641],[268,-1095],[229,-509],[612,-717],[822,-623],[726,-1132],[383,-755],[325,-396],[1663,-793],[420,-358],[344,-679],[77,-567],[-39,-717],[364,-905],[458,-227],[593,-566],[554,-755],[899,-792],[955,-491],[994,-509],[325,-359],[555,-509],[-172,-661],[-96,-566],[573,-868],[536,151],[688,19],[764,-38],[574,-37],[1070,-57],[612,-19],[612,-37],[707,-76],[631,-57],[1166,-75],[745,-57],[784,19],[956,132],[439,57],[918,57],[745,18],[478,19],[2600,-226],[1357,-396],[401,-925],[-535,-566],[-439,-227],[-765,-169],[-382,-774],[95,-736],[-497,-641],[-306,-510],[-325,-774],[-955,-547],[-459,-396],[-631,-717],[899,-189],[9136,-1906],[-114,-754],[76,-680],[249,-717],[172,-547],[153,-925],[-153,-1018],[-707,-963],[477,-1811],[555,-1208],[650,-1151],[879,-1792],[612,-642],[994,-491],[1433,-566],[1434,-37],[1185,188],[956,302],[1089,151],[765,-434],[1491,-1396],[344,-566],[1300,-95],[860,-37],[1682,-1246],[4396,-2981],[3021,-2076],[4243,-2623],[1720,-1056],[746,-453],[1013,-755],[1185,-868],[1013,-736],[478,-339],[1185,-1057],[1338,-1302],[727,-868],[783,-1189],[402,-924],[-38,-2887],[783,-1019],[-382,-302],[-1109,-472],[-688,-227],[-917,-226],[-1013,-245],[-650,-566],[-975,-680],[-593,-264],[-363,-717],[115,-547],[-268,-1057],[-248,-773],[-937,-3472],[459,-264],[1185,-378],[1051,-340],[784,-415],[937,-1113],[286,-887],[-153,-679],[708,-981],[879,-340],[1032,-434],[2772,-1057],[745,189],[1166,264],[612,76],[1357,113],[765,19],[1663,56],[1605,57],[937,19],[1778,57],[898,37],[2294,76],[1032,37],[1472,38],[2256,76],[401,19],[937,0],[860,0],[1261,56],[1071,38],[1147,19],[1127,56],[1052,19],[516,0],[860,38],[1185,38],[937,37],[1204,38],[822,19],[1013,19],[1051,38],[612,0],[879,37],[364,0]],[[577578,420012],[0,-679],[-230,-641],[-95,-906],[38,-661],[-58,-717],[-57,-905],[19,-1151],[38,-850],[345,-1717],[1242,227],[554,75],[803,-113],[918,-641],[669,-944],[1280,-1943],[536,-963],[172,-528],[133,-906],[115,-2340],[77,-924],[267,-812],[727,-962],[726,-642],[1147,-811],[1854,-981],[459,-245],[688,-642],[1223,-1604],[1071,-1453],[2045,-3189],[3307,-4113],[2007,-2434],[3651,-3642],[1414,-1698],[1033,-1567],[860,-1547],[172,-1208],[95,-962],[96,-1604],[0,-528],[-172,-1094],[-765,-2623],[-936,-2359],[-631,-1038],[-421,-773],[-152,-623],[-134,-1151],[-268,-1019],[-210,-1095],[-191,-509],[-497,-887],[-593,-887],[-134,-811],[-478,-585],[-286,-472],[-344,-755],[-172,-1151],[-153,-773],[-230,-1132],[-344,-812],[-955,-585],[-574,-321],[-956,-471],[-1529,-4982],[-229,-604],[-1262,-4792],[-440,-1529],[-172,-1151],[-324,-1019],[-115,-792],[153,-755],[-134,-793],[-631,-622],[-153,-604],[1128,-906],[76,-302],[-382,-887],[-287,-679],[-95,-1057],[38,-811],[-210,-1170],[-210,-623],[-96,-1169],[325,-755],[707,-547],[363,-397],[77,-981],[-669,-717],[-402,-377],[-76,-831],[1529,-8057],[115,-981],[248,-1415],[115,-925],[153,-2981],[-57,-868],[-593,-547],[-631,-680],[-803,-754],[-382,-887],[-707,-2000],[-1357,-2076],[-1893,-2887],[-994,-1717],[-2523,-4340],[-764,-1755],[-555,-792],[-764,-793],[-803,-1094],[-440,-680],[-325,-792],[-459,-981],[-611,-434],[-707,-415],[-593,-416],[-631,-547],[-1319,-1358],[-535,-680],[-497,-1075],[-268,-453],[-822,-1076],[-324,-547],[-784,-1792],[-134,-397],[-210,-1019],[-39,-226],[-707,-1981],[-114,-397],[-115,-830],[-249,-604],[-210,-585],[-210,-849],[-38,-528],[114,-1340],[-19,-811],[-841,-623],[-1930,566],[-4435,1510],[-382,-604],[-517,-453],[-1796,-2245],[-689,-925],[-2389,-3812],[-2122,-3623],[-114,-584],[-306,-1378],[-918,-3736],[-611,-2227],[-325,-113],[-1663,264],[-363,-94],[-306,-1208],[-344,-2056],[-325,-2850],[-153,-811],[-96,-434],[-420,-1604],[-822,-2264],[-402,-604],[-2102,-962],[-153,-1151],[-536,-1170],[-363,-944],[-114,-585],[-172,-698],[-402,-1038],[-592,-811],[-784,-679],[-497,-736],[-516,-963],[-287,-585],[516,-452],[0,-944],[-134,-755],[134,-1075],[249,-604],[344,-962],[-402,-831],[-630,-981],[-134,-660],[516,-831],[459,-415],[822,-528],[1089,-604],[612,-981],[134,-849],[267,-887],[382,-736],[306,-491],[191,-849],[-76,-717],[-210,-1245],[-58,-472],[19,-924],[134,-1699],[191,-1528],[39,-1453],[-19,-849],[267,-736],[841,-340],[402,-169],[420,-793],[-76,-1057],[420,-471],[784,-95],[631,-849],[-459,-887],[-478,-604],[-229,-924],[-115,-264],[-688,-1019],[-650,-1000],[-172,-699],[76,-641],[421,-1396],[478,-717],[879,-736],[134,-1283],[191,-1963],[-38,-868],[-249,-717],[-344,-792],[-382,-1284],[-325,-1037],[-593,-793],[-363,-943],[58,-1472],[76,-2227],[38,-1132],[134,-434],[918,-1415],[1204,-1755],[516,-811],[57,-321],[-420,-1925],[0,-811],[267,-2113],[325,-2812],[268,-2396],[363,-2604],[325,-2812],[134,-924],[153,-774],[-688,-962],[-880,377],[-745,113],[-822,245],[-879,189],[-994,-358],[-325,-510],[-383,-509],[402,-849],[325,-529],[229,-1056],[383,-982],[649,-1641],[287,-849],[115,-604],[38,-661],[77,-924],[305,-981],[364,-1114],[305,-679],[172,-510],[134,-735],[134,-661],[459,-1868],[306,-887],[267,-622],[574,-1397],[229,-868],[77,-679],[267,-698],[268,-774],[172,-604],[382,-1566],[249,-1113],[248,-1113],[172,-567],[554,-1792],[459,-1246],[172,-754],[669,-1717],[77,-472],[76,-755],[96,-868],[38,-509],[-19,-1208],[134,-1038],[401,-755],[153,-868],[153,-1396],[325,-868],[478,-1038],[229,-736],[249,-603],[898,-1944],[172,-321]],[[560202,104800],[-3536,-528],[-784,-623],[-2447,-75],[-630,-302],[-3422,-1340],[-2256,-924],[-2599,-1001],[-3613,-1471],[57,-1114],[-554,-320],[-2848,-189],[-1147,-76],[-745,-75],[-612,-38],[-1376,-75],[-669,-57],[-1778,-302],[-1778,-245],[-841,-113],[-4205,-604],[-631,151],[-1223,-151],[-268,189],[-325,1679],[-344,94],[-3938,-358],[-592,-151],[115,-1547],[-58,-114],[-1281,132],[-573,38],[-1032,0],[-1185,-151],[-3517,-1000],[-1778,-396],[-230,-57],[-1013,-19],[-1319,151],[-917,-547],[-440,-321],[-1452,151],[-1491,-132],[-784,-245],[-4244,-38],[-955,-19],[-612,-1000],[-77,-56],[-994,849],[-477,-604],[-899,-1227],[-1414,-1962],[-172,-208],[-1816,-2226],[-77,-57],[-3746,-2962]],[[484660,83214],[-1090,1283],[-688,962],[-248,925],[-689,566],[-458,283],[-631,547],[-899,-151],[-210,-811],[-344,-1529],[-459,-339],[-688,-189],[-1147,-38],[-822,57],[-650,38],[-1376,0],[-860,19],[-1013,-19],[-746,188],[-57,1057],[-516,491],[-1185,-95],[-1931,-151],[-611,-151],[-689,-169],[-535,-114],[-994,-207],[-2141,-623],[-1166,-75],[-860,245],[-1032,340],[-650,207],[-765,245],[-497,208],[-1013,472],[-898,377],[-688,245],[-937,-56],[-1051,-302],[-1281,-302],[-822,189],[172,1019],[-822,226],[-879,660],[-592,755],[-364,472],[-764,547],[-421,-19],[-2523,-471],[-3995,-321],[-3460,-396],[-573,-340],[-822,-510],[-784,-754],[-210,-868],[-134,-566],[-210,-906],[-172,-717],[-153,-717],[-268,-1095],[-210,-1170],[-459,-754],[-688,-246],[-669,-56],[-5467,-113],[-1472,-19],[-1930,-76],[-1682,-528],[-593,132],[-382,887],[-306,773],[-363,850],[-555,1283],[-516,1283],[-459,641],[-649,415],[-956,453],[-1032,434],[-746,340],[-764,396],[-861,246],[-669,56],[-630,208],[-1109,415],[-1682,585],[-1759,679],[-764,302],[-861,453],[-764,396],[-1071,378],[-573,377],[-841,509],[-96,453],[2026,2510],[1033,1264],[-478,830],[-707,510],[-669,472],[382,868],[287,754],[-1090,340],[-1166,358],[-841,265],[-574,830],[497,1000],[306,755],[39,1113],[-211,1057],[-420,1641],[-172,944],[-115,830],[-115,585],[-172,887],[344,774],[287,886],[-306,1755],[58,944],[0,528],[-96,1623],[-134,1679],[478,415],[-134,793],[-191,1226],[-248,1868],[-268,1661],[-210,1736],[-153,1698],[-77,925],[0,1245],[77,1359],[19,2000],[0,1056],[115,1284],[-516,226],[-230,1283],[-420,2755],[267,472],[115,3038],[-57,2698],[133,868],[-19,849],[-38,585],[-268,1227],[-267,1132],[-153,906],[0,641],[191,1151],[115,1378],[57,1320],[-19,1170],[-268,2982],[-114,887],[0,1151],[248,1207],[363,906],[344,641],[612,982],[287,604],[382,1056],[402,793],[363,622],[1166,95],[286,19],[1358,207],[688,340],[172,924],[3498,416],[917,113],[115,1151],[19,1094],[-153,661],[-325,1113],[-325,1830],[-191,1151],[497,378],[727,19],[879,18],[2122,265],[-58,1320],[-210,1491],[-96,1000],[-38,868],[-57,774],[-38,736],[-39,773],[-76,1114],[-38,547],[-191,887],[-192,509],[-363,793],[-229,754],[-459,2152],[-115,603],[-153,812],[-152,887],[-173,868],[-191,1037],[-114,548],[-1052,0],[-439,-189],[-1262,-208],[-803,-56],[-363,-378],[-707,-547],[-669,-264],[-612,-434],[-535,-434],[-535,-698],[-688,-1246],[-325,-547],[-803,-585],[-574,-207],[-1013,-38],[-783,-226],[-555,-265],[-803,-509],[-554,-623],[-535,-773],[-306,-566],[-249,-548],[-592,-905],[-478,-755],[-478,-528],[-401,-416],[-535,-754],[-383,-491],[-879,-547],[-975,-151],[-765,-113],[-649,-189],[-1262,-208],[-1185,-151],[-784,-94],[-994,-321],[-516,-434],[-650,-679],[-841,-472],[-1663,-415],[-1510,-245],[-956,19],[-650,75],[-630,151],[-650,227],[-956,94],[-1032,-491],[-421,-698],[-115,-547],[-152,-642],[-402,-1056],[-879,-868],[-1013,-831],[-918,-754],[-707,-566],[-1013,-491],[-421,-170],[-764,-94],[-593,207],[-688,623],[-669,472],[-1185,-113],[-554,-170],[-994,-604],[-555,-415],[-592,-396],[-841,-585],[-880,-1019],[-382,-472],[-401,-528],[-516,-491],[-631,-509],[-918,-585],[-1070,-472],[-631,189],[-440,396],[-955,906],[-1090,1169],[-745,699],[-1530,1566],[-841,-170],[-478,509],[-1777,1982],[-688,-359],[-2352,-1245],[-554,-321],[-554,-340],[-879,-528],[-1434,-811],[-841,-566],[-765,-585],[-38,-472],[363,-679],[58,-868],[-899,-416],[-1682,-679],[-573,-226],[-1224,-529],[-1586,-773],[114,-1057],[306,-1359],[421,-1811],[95,-566],[-669,-585],[-879,-528],[-918,-378],[-783,-226],[-650,-19],[-650,189],[-822,94],[-726,-113],[-841,-264],[-880,-378],[-917,-207],[-841,-38],[-688,57],[-1166,113],[-1071,-340],[-478,-151],[-1529,-604],[-612,-245],[-554,-208],[-898,-339],[-440,-585],[-459,-245],[-1128,-76],[-1491,-38],[-1682,-226],[-3345,-1132],[-2351,-906],[-210,-358],[592,-2284],[-114,-226],[-2504,-736],[-2065,-868],[-3861,-2359],[-4817,-2396],[-4932,-2095],[-4759,-2547],[-7187,-3793],[-842,132],[-917,736],[-401,661],[-1434,-510],[-879,378],[-344,1170],[-287,1000],[-230,849],[-229,736],[-210,754],[-459,1095],[-440,717],[-974,-359],[-1166,-415],[-1778,-622],[-230,566],[20,754],[0,793],[-39,641],[-95,699],[-58,641],[-76,679],[-38,774],[0,981],[-115,793],[-287,490],[-248,793],[-115,585],[-95,774],[-77,434],[-115,849],[612,717],[153,415],[-134,962],[-114,774],[-574,830],[-535,-94],[-765,-132],[-822,-76],[-516,1057],[-172,849],[-420,868],[-650,-38],[-841,-75],[-860,-38],[-612,-208],[-765,-264],[-1166,-377],[-1013,-340],[-267,774],[-96,811],[-115,717],[-153,906],[-248,1377],[-230,1038],[-210,1038],[-210,717],[-172,1057],[-306,1981],[-688,1434],[-574,774],[-1968,1830],[-784,585],[-1759,1189],[-688,472],[-2676,1736],[-153,113],[-879,849],[-287,340],[-363,698],[-210,509],[-115,661],[268,2962],[1204,8378],[-4014,7472],[-77,170],[-153,1151],[-114,1095],[-1243,6906],[-1797,10001],[-2121,8283],[1319,-38],[688,-226],[783,226],[478,95],[2371,-19],[1663,321],[477,75],[956,76],[1587,37],[2867,-37],[1032,188],[784,472],[1128,1170],[2045,1736],[287,113],[1395,189],[516,170],[631,547],[497,547],[745,510],[631,207],[918,-56],[745,-265],[975,604],[860,321],[727,887],[630,962],[39,793],[114,2321],[-76,1188],[-516,2736],[573,340],[765,170],[573,377],[536,1604],[133,510],[115,679],[306,1943],[172,1095],[707,3774],[115,113],[1128,75],[153,114],[-115,1245],[210,2925],[-19,547],[-172,830],[325,3246],[-134,1000],[-306,1925],[727,434],[1319,320],[-39,755],[-516,1962],[-439,1057],[-1243,2736],[726,736],[-477,1793],[3134,924],[689,208],[669,207],[822,189],[554,132],[860,113],[1453,151],[2905,189],[3479,245],[3976,283],[4167,283],[96,699],[306,585],[477,509],[746,321],[879,377],[555,453],[726,94],[898,-245],[1013,321],[249,1019],[38,623],[-95,660],[-172,962],[229,849],[497,246],[765,132],[458,660],[-554,963],[-401,679],[-115,472],[363,773],[287,963],[0,811],[-421,358],[-879,529],[-822,453],[-516,358],[-459,434],[-459,642],[58,1038],[306,603],[305,434],[478,1019],[134,264],[516,831],[478,585],[1032,547],[440,849],[-497,472],[-688,396],[-421,358],[-76,1095],[439,472],[96,660],[-573,528],[-937,359],[-401,207],[-612,453],[-707,548],[-631,509],[-707,453],[-1568,1019],[-1032,736],[-860,321],[-1166,-133],[-536,-245],[-1108,-453],[-707,-151],[-918,-37],[-669,94],[-917,679],[-153,680],[114,603],[383,680],[611,1453],[58,1000],[-211,1377],[-76,830],[191,1170],[363,453],[765,774],[229,472],[-95,735],[-249,510],[-478,943],[-95,623],[57,811],[115,1246],[-58,717],[-325,1000],[-305,566],[-421,509],[-669,699],[-593,452],[-1299,812],[-975,623],[-478,528],[-38,736],[822,490],[917,95],[975,37],[593,133],[516,490],[936,529],[516,452],[287,566],[191,906],[306,774],[421,660],[-134,944],[-382,321],[-880,717],[-267,1037],[-77,604],[-229,661],[-287,471],[-268,849],[-114,755],[-230,1529],[-19,660],[0,1132],[-554,1019],[-421,302],[-649,264],[-880,208],[-726,75],[-516,132],[-631,283],[-1051,642],[-1319,925],[-249,339],[77,868],[325,1359],[-77,736],[-287,434],[-630,604],[-1147,226],[-708,-208],[-496,-226],[-689,-415],[-478,-415],[-1051,-548],[-688,-283],[-535,-415],[-421,-415],[-554,-736],[-172,-604],[-77,-943],[-363,-377],[-439,-680],[-593,-566],[-1051,-377],[-1205,-94],[-745,-95],[-1090,378],[-592,717],[-1051,-472],[-574,-1038],[-822,-113],[-1128,377],[-611,-660],[-287,-717],[-497,-566],[-459,-491],[-401,-717],[-727,-547],[-439,-95],[-1071,38],[-898,0],[-937,95],[-955,415],[-536,377],[-764,-94],[-535,-378],[-1721,-1056],[-573,75],[-918,1378],[-783,-208],[-517,-547],[-974,-604],[-841,-226],[-708,773],[-153,1661],[-516,528],[-631,-57],[-936,-584],[-879,-453],[-574,94],[-1223,509],[-383,340],[-573,811],[-822,567],[-1128,188],[-879,774],[-287,623],[-382,415],[-574,358],[-783,321],[-516,491],[-669,1679],[153,1057],[669,585],[1949,943],[325,208],[1625,1320],[382,397],[-19,792],[-420,661],[-669,641],[-612,981],[344,717],[382,246],[669,415],[249,509],[-134,736],[-287,547],[-325,623],[-401,472],[-1032,491],[-860,113],[-1453,113],[-631,189],[-879,641],[-994,1113],[-707,736],[-593,302],[-746,264],[-726,151],[-1089,151],[-1090,132],[-1414,151],[-1377,265],[-860,94],[-1204,-113],[-631,-132],[-765,-321],[-1261,-755],[-1147,-321],[-1166,114],[-860,320],[-1032,548],[-1014,320],[-860,378],[-650,245],[-841,396],[-1299,698],[-708,812],[-439,358],[-994,359],[-230,56],[-2141,1038],[-1185,-75],[-1491,-774],[-573,-132],[-707,-113],[-708,-170],[-1051,-396],[-2160,-491],[-1414,-283],[-574,-151],[-707,-321],[-593,-339],[-611,-434],[-689,-340],[-841,-358],[-783,56],[-650,245],[-899,472],[-439,472],[-765,755],[-497,339],[-554,359],[-746,849],[-191,755],[363,1038],[364,1113],[-574,792],[-879,114],[-1243,132],[-611,0],[-612,-19],[-1166,-283],[-765,-283],[-764,-698],[-249,-887],[-38,-736],[-57,-1264],[-765,-906],[-765,-189],[-420,-226],[-593,-661],[-458,-566],[-689,-283],[-592,-321],[-421,-509],[-630,-510],[-517,-301],[-477,-661],[592,-868],[421,-509],[153,-585],[-994,-453],[-1185,-245],[-631,-378],[-746,-94],[-611,-113],[-727,-133],[-516,-56],[-707,245],[-363,453],[-211,679],[-745,510],[-325,94],[5123,12756],[1185,2962],[2294,5680],[1663,4189],[1376,3378],[1491,3698],[1548,3887],[1204,2925],[1339,3359],[1949,4849],[1338,3359],[1281,3170],[344,811],[421,1095],[-58,1641],[-114,661],[-765,905],[-841,831],[-1376,1226],[-58,528],[153,680],[650,1528],[-287,472],[-1376,585],[-1930,830],[-20,19],[727,2736],[-421,642],[-478,226],[-3096,1038],[-765,604],[-1185,1283],[-478,641],[-1204,1434],[-1166,1378],[-268,321],[19,1075],[689,396],[172,1057],[305,868],[230,585],[248,623],[459,905],[325,623],[287,717],[114,698],[39,755],[95,1113],[134,1151],[268,774],[229,472],[459,962],[497,717],[611,510],[937,188],[746,434],[401,246],[765,207],[783,849],[249,925],[267,679],[364,981],[344,642],[420,755],[363,566],[459,1094],[593,1736],[955,1359],[994,1170],[1434,1453],[1395,1056],[1969,1208],[2332,1000],[3364,491],[2619,113],[2237,-396],[5065,-1680],[1606,4189],[95,246],[2810,6849],[5047,12435],[-497,94],[-1950,642],[-3766,283],[-4492,283],[-2370,849],[-1969,944],[-4014,2019],[-2772,1415],[4856,3415],[172,113],[7168,5038],[1854,2227],[803,1962],[669,4869],[669,1585],[76,981],[-57,887],[95,566],[-535,679],[-573,906],[134,774],[95,679],[134,1509],[19,491],[172,925],[153,830],[153,585],[153,604],[382,962],[287,962],[287,793],[420,1000],[325,736],[459,1075],[478,1095],[516,1207],[134,397],[305,736]],[[215406,537248],[364,1679],[516,2264],[210,1000],[229,1453],[306,1434],[497,1132],[727,133],[726,-548],[879,-679],[956,-717],[803,-434],[745,-321],[650,-207],[918,-264],[497,-284],[-631,-1169],[-249,-812],[287,-755],[1434,-226],[994,-94],[745,-302],[574,-491],[841,-132],[669,19],[726,75],[746,340],[573,245],[574,170],[993,302],[822,774],[689,528],[554,434],[1013,510],[745,452],[402,302],[631,585],[382,472],[631,642],[382,283],[784,528],[1051,358],[746,114],[783,75],[746,170],[554,226],[1147,868],[554,736],[402,849],[401,850],[421,924],[745,1623],[727,1679],[554,529],[497,358],[879,472],[1759,943],[1013,642],[459,283],[822,453],[1108,547],[669,302],[631,189],[1166,113],[1223,-378],[2180,-811],[592,-38],[1071,-19],[382,19],[1586,227],[555,-19],[783,-151],[918,-302],[573,-321],[1434,-962],[2848,-2113],[1491,-1397],[1032,-1226],[688,-906],[1358,-1925],[363,-453],[554,-811],[229,-774],[230,-1037],[497,-2038],[459,-1265],[611,-1018],[727,-604],[1720,-1378],[1070,-321],[440,19],[841,95],[1071,75],[1624,38],[784,56],[841,189],[612,189],[688,377],[994,812],[688,660],[497,679],[344,585],[593,1397],[497,1245],[630,830],[708,1076],[267,472],[421,566],[592,547],[689,887],[439,924],[363,585],[612,529],[172,415],[-76,981],[95,1321],[77,490],[344,1076],[439,736],[784,887],[822,585],[554,-472],[536,-377],[153,-1133],[-383,-679],[-554,-2151],[-631,-2000],[-994,-3189],[-210,-1000],[-57,-906],[764,-811],[975,-623],[650,-491],[1070,-905],[230,-208],[783,-792],[689,-699],[726,-717],[401,-547],[306,-1038],[440,-1490],[325,-944],[306,-641],[669,-717],[745,-623],[784,-717],[764,-604],[822,-509],[746,-491],[726,-415],[612,-359],[516,-283],[784,-452],[516,-284],[631,-358],[936,-642],[727,-585],[535,-415],[1261,-962],[727,-623],[325,-302],[650,-528],[439,-755],[287,-1132],[153,-604],[191,-868],[363,-792],[421,-585],[306,-396],[554,-1057],[115,-717],[-19,-2246],[57,-962],[-363,-755],[-555,-490],[-688,-717],[38,-793],[268,-623],[249,-735],[344,-1114],[344,-981],[401,-585],[344,-358],[612,-453],[841,56],[631,57],[745,94],[669,114],[1052,207],[1013,0],[630,-321],[1300,-604],[516,-132],[918,114],[745,-114],[727,-339],[516,-397],[516,-434],[516,-830],[249,-1056],[688,-963],[439,-604],[421,-641],[267,-359],[383,-792],[0,-1000],[-58,-812],[96,-471],[497,-812],[879,-830],[2256,736],[2198,717],[1969,660],[917,-434],[1109,-490],[631,-208],[745,-226],[688,-227],[708,-849],[267,-528],[287,-623],[363,-868],[306,-547],[421,-604],[363,-358],[669,-453],[401,-208],[822,-245],[612,-76],[1166,76],[860,38],[803,-76],[994,-641],[650,-736],[420,-736],[727,-830],[707,-472],[707,-755],[535,-604],[746,-566],[325,-245],[688,-415],[535,-227],[1032,-604],[669,-415],[459,-283],[612,-396],[497,-396],[401,-623],[344,-490],[593,-699],[287,-585],[458,-754],[861,-623],[726,-113],[784,19],[630,37],[689,-264],[401,-358],[612,-434],[382,-453],[401,-604],[192,-774],[324,-887],[497,-943],[555,-849],[497,-642],[439,-339],[880,-529],[439,-377],[631,-491],[535,-302],[631,-622],[440,-925],[134,-566],[305,-1038],[153,-509],[96,-812],[573,-717],[612,0],[1109,19],[783,-56],[1033,302],[420,358],[937,849],[841,585],[669,245],[497,114],[688,169],[860,397],[803,75],[516,-226],[765,-340],[478,-151],[420,-1660],[1224,-2567],[1223,-1924],[325,-491],[3173,-4302],[898,-925],[-7206,-5302],[420,-340],[803,-283],[956,-169],[918,-38],[841,-227],[382,-452],[248,-604],[803,-132],[612,226],[688,113],[650,-113],[1510,-321],[3785,-981],[2695,-1472],[1128,-717],[1911,-1056],[1931,-755],[1032,-378],[1204,-188],[1071,-76],[707,-207],[784,-434],[172,1151],[-58,924],[192,812],[420,811],[-688,510],[325,905],[344,642],[401,717],[899,19],[860,-113],[1090,132],[669,434],[974,0],[574,-246],[784,-377],[1013,-208],[707,-56],[516,-76],[765,-321],[726,-94],[516,94],[746,397],[860,585],[516,585],[0,1151],[-38,509],[-134,774],[134,943],[57,906],[115,755],[306,811],[38,679],[-134,1151],[-191,604],[191,661],[707,566],[402,396],[726,849],[57,736],[-248,1019],[267,1094],[650,189],[440,1227],[268,811],[-708,698],[-745,359],[-899,320],[-707,170],[-573,95],[-822,18],[-975,227],[-421,623],[-573,434],[-688,415],[-784,302],[-1013,622],[-803,717],[-2007,1567],[-841,528],[-917,377],[-784,208],[-726,415],[-459,566],[-478,868],[-516,1094],[401,1038],[344,812],[383,981],[401,1075],[306,604],[363,812],[516,924],[822,453],[975,698],[306,623],[172,623],[153,905],[-134,1114],[210,603],[707,831],[555,679],[764,811],[727,548],[420,603],[1052,-75],[764,-170],[765,-38],[822,0],[822,-245],[1816,-962],[535,-340],[191,-887],[-96,-981],[708,-396],[1510,-774],[344,245],[478,1170],[401,831],[554,868],[306,452],[383,566],[535,623],[325,396],[516,510],[745,698],[975,208],[2542,-2887],[192,-38],[2599,1226],[402,19],[764,-1868],[383,-264],[3574,604],[573,151],[1014,1132],[401,113],[803,-641],[936,-340],[784,-19],[1568,377],[2198,567],[325,622],[57,849],[956,302],[95,1283],[249,491],[420,1094],[478,717],[516,774],[268,453]],[[476134,936277],[497,-3868],[153,-1038],[-38,-1132],[-287,-2170],[-210,-2038],[-287,-2566],[-535,-3415],[-363,-2265],[-363,-1321],[-77,-717],[77,-603],[917,-4416],[765,-3642],[-306,-981],[-898,-490],[57,-2359],[19,-3057],[96,-2170],[0,-396],[5161,-1113],[76,-2208],[-191,-2661],[-19,-2490],[268,-265],[1911,-37],[612,-548],[134,-1886],[133,-736],[172,-623],[-325,-1000],[-879,-679],[-172,-57],[-2447,-415],[-2083,-302],[-2925,-415],[39,-642],[0,-1340],[38,-9661],[1529,-1339],[-497,-3680],[-1013,-604],[-669,-2868],[1701,-1962],[-19,-453],[-96,-2227],[650,-792],[994,-547],[1205,-548],[1108,-169],[650,-76],[918,-453],[478,-471],[496,-661],[1205,-2302],[267,-453],[459,-566],[650,-472],[765,-490],[-20,-736],[-95,-1944],[-287,-2283],[-172,-755],[-459,-1075],[-802,-1642],[-727,-1207],[-1319,-1887],[-210,-38],[-1090,226],[-860,661],[-420,754],[-440,1302],[-248,529],[-631,547],[-956,75],[-554,-396],[-841,-1415],[-287,-491],[-401,-811],[-1415,-2472],[-593,-566],[-936,-660],[-612,-415],[-592,-661],[-211,-641],[-325,-1812],[383,-1302],[248,-2453],[153,-679],[249,-1151],[325,-1642],[-115,-189],[-1396,-37],[-152,-736],[19,-491],[19,-1132],[-19,-415],[-211,-1170],[0,-1000],[-19,-1170],[-57,-2849],[0,-1208],[440,-377],[1242,-19],[229,-264],[153,-1491],[134,-1057],[-134,-660],[0,-642],[58,-641],[95,-1019],[115,-359],[1453,-37],[210,-189],[115,-1378],[286,-94],[1319,94],[249,19],[994,95],[306,-227],[1452,-5849],[-286,-396],[-822,-170],[133,-1189],[-2293,-283],[-77,-132],[134,-2076],[-57,-56],[-2026,-151],[-2180,-170],[-1395,-113],[-784,-359],[39,-1679],[-153,-1736],[0,-1585],[879,-397],[1147,-339],[95,-1510],[134,-2189],[77,-207],[478,-6869],[172,-2660],[38,-510],[0,-1396],[0,-1038],[19,-773],[-96,-868],[-76,-831],[-153,-1000],[0,-396],[-77,-925],[-38,-490],[-95,-830],[-19,-623],[-77,-736],[-76,-887],[-96,-604],[-1204,-207],[-2447,-359],[-1147,-226],[-1261,-283],[-1262,-321],[-1147,-359],[-1816,-528],[-1204,-377],[-1147,-340],[-1644,-491],[-1281,-377],[-1490,-472],[-306,-320],[650,-1189],[535,-1076],[325,-943],[2141,-7020],[3402,774],[115,-623],[-96,-811],[-784,-227],[459,-2207],[-1949,-491],[764,-2604],[554,-1774],[345,-1132],[191,-622],[286,-982],[268,-830],[268,-868],[516,-1717],[478,-1491],[229,-773],[229,-774],[-38,-490],[-994,-567],[-497,-1037],[210,-925],[192,-887],[497,-321],[1070,-547],[1109,-792],[3402,-2718],[994,-207],[1548,207],[2332,491],[1950,377],[1682,529],[784,-868],[401,-340],[803,-170]],[[477759,723412],[-822,-1830],[-401,-566],[-344,-396],[-363,-604],[-58,-1170],[383,-585],[267,-868],[153,-585],[-57,-811],[-344,-887],[-536,-661],[-248,-547],[191,-811],[363,-1095],[-267,-811],[-268,-396],[-1051,-434],[-746,-19],[-879,-245],[-688,-963],[306,-717],[344,-509],[631,-963],[-39,-1019],[-267,-660],[-975,-679],[-899,-170],[-1013,-57],[-783,-396],[-440,-453],[-516,-660],[382,-585],[1166,-1095],[478,-434],[402,-622],[248,-831],[57,-754],[-764,-831],[-707,-169],[-440,-680],[1051,-6453],[306,-1849],[841,151],[746,113],[936,151],[746,57],[975,-19],[363,-2227],[38,-528],[153,-1189],[115,-679],[325,-623],[401,-358],[573,-567],[287,-377],[516,-1057],[249,-585],[306,-622],[1013,-1472],[-249,-981],[-803,-925],[-478,-641],[-344,-529],[-439,-1038],[-134,-849],[-535,-1056],[-822,-397],[-994,-471],[-937,-472],[-1720,-453],[19,-1057],[115,-717],[133,-1000],[153,-1207],[-38,-736],[77,-887],[267,-830],[268,-529],[631,-1245],[0,-736],[-880,-510],[-554,-641],[-421,-1000],[-152,-774],[114,-830],[191,-1094],[688,-567],[1759,-1037],[363,-906],[-191,-604],[57,-1170],[230,-717],[382,-773],[402,-793],[-192,-585],[-1319,-19],[-497,-207],[-363,-906],[-4224,1396],[-96,246],[1128,4151],[19,453],[-287,811],[-1032,264],[-2618,-339],[-918,-283],[-478,-793],[-535,-2340],[420,-547],[421,-906],[669,-528],[-134,-849],[-95,-1132],[-134,-699],[-325,-434],[-344,-1037],[-306,-1359],[191,-528],[1051,-547],[1071,-170],[1128,207],[898,547],[1453,-94],[1892,-19],[669,-679],[612,75],[1395,529],[1243,207],[0,-547],[-1052,-245],[-516,-170],[-2179,-830],[-1032,-472],[-841,-94],[-612,56],[-956,95],[-592,169],[-746,359],[-1070,113],[-765,-75],[-726,-189],[-822,-321],[-937,-509],[-688,-434],[-592,-208],[-631,-132],[-765,-113],[-917,-94],[-899,-19],[-516,-76],[-783,-339],[-440,-321],[-554,-510],[-478,-754],[-669,-1359],[-421,-736],[-898,-547],[-879,-868],[-1300,-679],[-803,-434],[-325,-472],[-1376,-2529],[-344,-151],[-3403,1963],[-287,-57],[-1319,-1189],[-783,-679],[-746,0],[-1147,0],[-822,19],[-1108,415],[-1357,76],[-1434,226],[-918,340],[-917,698],[-803,509],[-631,472],[-478,226],[-783,19],[-784,-320],[-650,-812],[-879,-566],[-1071,-226],[-57,-661],[-440,-1094],[-344,-566],[-344,-698],[-267,-850],[0,-1037],[-77,-1944],[-516,-151],[-765,132],[-592,-19],[-344,-1773],[19,-1057],[631,-642],[57,-679],[134,-5963],[-363,-151],[-1013,114],[-1090,19],[-592,-189],[-574,-208],[-631,-226],[-1089,-528],[-2466,-1416],[-1071,95],[-936,226],[-1147,302],[-459,264],[-420,849],[-134,642],[-77,736],[77,1151],[-230,792],[-1051,472],[-803,-113],[-936,-113],[-956,-19],[-937,717],[-554,622],[-688,680],[-707,339],[-1014,-264],[-611,-566],[-306,-585],[-669,-453],[-1147,-415],[-573,-132],[-899,94],[-229,-566],[-96,-754],[-76,-1434],[-115,-1887],[0,-585],[0,-1472],[-707,-830],[-650,94],[-784,-76],[-631,-18],[-860,94],[-822,283],[-1147,113],[-1070,-188],[-1663,188],[-746,19],[-554,-811],[0,-1019],[96,-981],[458,-963],[345,-1113],[497,-566],[210,-547],[-58,-699],[-248,-509],[-134,-660],[58,-736],[-670,-831],[-401,-717],[-325,-471],[-382,-736],[-344,-1114],[-478,-773],[-77,-755],[-133,-2094],[-77,-529],[-287,-962],[115,-736],[172,-528],[-459,-1000],[-611,-95],[-1893,-189],[-2466,-377],[-1548,-453],[-1605,-698],[-1166,-660],[-440,-491],[-784,-943],[-879,-1302],[-249,-1208],[192,-1962],[76,-321],[669,-2982],[1262,-3207],[917,-1283],[1071,-567],[1452,-188],[574,358],[2007,1717],[2274,1774],[1511,1038],[1089,472],[765,-19],[478,-189],[516,-736],[210,-1132],[153,-2132],[76,-887],[-191,-755],[-879,-1623],[440,-868],[1663,-207],[4702,-1510],[669,-1660],[210,-774],[363,-1283],[631,-2944],[229,-868],[39,-301],[-153,-1944],[-134,-1623],[-172,-2811],[-115,-95],[-3632,1151],[-2924,906],[-1051,340],[-746,283],[-2198,660],[-574,-358],[-344,-831],[-248,-924],[-230,-604],[-286,-1038],[841,-604],[2274,-1453],[631,-377],[612,-1132],[420,-1057],[861,-698],[1930,-679],[975,-19],[669,170],[612,264],[879,-585],[459,-849],[363,-661],[1128,-415],[650,-660],[650,-642],[497,-622],[344,-416],[439,-773],[344,-661],[211,-754],[554,-378],[650,-264],[1166,3755],[268,906],[324,1151],[96,377],[153,1000],[0,1170],[803,566],[1013,-358],[937,-378],[1261,-302],[459,-264],[191,-1056],[631,-397],[631,-302],[783,-94],[822,-302],[650,-113],[1051,-604],[842,-566],[821,-830],[345,-566],[210,-604],[650,-340],[554,246],[726,679],[364,434],[630,641],[574,453],[803,227],[860,-510],[0,-717],[-230,-1170],[-229,-736],[363,-1773],[4454,1226],[707,-717],[612,-924],[726,-604],[516,-585],[727,-963],[592,-1000],[1893,566],[745,434],[1950,1378],[1128,623],[879,-736],[554,-755],[803,-510],[1013,-37],[612,358],[1090,151],[95,-811],[19,-491],[-38,-736],[19,-471],[268,-755],[114,-642],[115,-1019],[421,-981],[3326,1302],[2313,925],[1739,660],[1873,113],[-19,-604],[172,-792],[440,-717],[1128,-1359],[630,-471],[593,603],[917,416],[727,56],[1682,-19],[937,529],[305,490],[-191,774],[-860,906],[-172,962],[-57,1189],[-96,396],[2065,-755],[3154,-1056],[-784,-2359],[-516,-472],[38,-1981],[38,-1038],[96,-906],[707,-1151],[937,19],[1223,76],[287,0],[-191,-1868],[-58,-340],[-248,-962],[-383,-887],[-382,-264],[-3364,-1359],[-172,-189],[-287,-1056],[-76,-642],[573,-1377],[-172,-416],[-344,-1132],[287,-377],[611,-1113],[631,-1133],[574,-886],[478,-642],[477,-792],[-19,-718],[-76,-1018],[-191,-680],[-19,-566],[-115,-943],[-363,-548],[-497,-584],[-306,-434],[-382,-774],[-230,-491],[-229,-943],[-191,-736],[2427,-321],[880,-113],[707,-623],[306,-641],[191,-1114],[191,-471],[440,-887],[-1759,-1755]],[[215406,537248],[-4950,2320],[-2753,1208],[-2714,1095],[-765,264],[-784,151],[-2217,283],[-5715,811],[0,1076],[-1013,566],[-344,113],[-1166,170],[-975,37],[-688,-169],[-612,0],[-669,56],[-707,302],[-2848,1189],[-918,283],[-956,151],[-726,170],[-669,151],[-1013,283],[-803,94],[-898,0],[-1300,0],[-1797,57],[-1147,-76],[-1338,38],[-2141,377],[-5104,642],[-936,113],[-1128,453],[-1529,604],[-650,264],[-1166,491],[-784,452],[-1338,1057],[-573,434],[-516,378],[-1855,1396],[-860,679],[-592,453],[-478,359],[-1740,1434],[-1395,1000],[-1663,1132],[-3173,2472],[-593,339],[-592,132],[-3288,736],[-421,151],[-745,1566],[-2447,1359],[-1319,660],[-153,114],[-955,453],[-803,509],[-574,189],[-764,-246],[-937,-207],[-879,226],[-2581,-830],[-898,76],[-612,584],[-420,491],[-1319,1642],[-383,566],[-248,773],[-268,529],[-669,906],[-802,1585],[-325,528],[-1186,1245],[-382,378],[-459,566],[-994,1226],[-401,793],[-96,622],[-210,1170],[-95,491],[-841,2547],[-173,793],[-152,906],[-268,717],[-382,962],[-383,453],[-688,943],[-439,453],[-1033,377],[-974,95],[-631,56],[-994,95],[-708,94],[-783,227],[-1032,452],[-1281,472],[-612,189],[-592,75],[-1128,434],[-555,170],[-1357,283],[-975,132],[-630,151],[-765,340],[-612,415],[-936,660],[-1396,1095],[-994,792],[-669,510],[-650,509],[-764,585],[-535,359],[-746,453],[-478,132],[-1032,0],[-688,37],[-918,227],[-516,38],[-879,18],[-554,-37],[-1434,-491],[-478,-75],[-898,-19],[-650,-95],[-765,-207],[-1013,-340],[-745,-207],[-612,-359],[-1051,-1094],[-612,-283],[-822,-38],[-2160,-19],[-1281,0],[-1127,-38],[-765,-94],[-765,-94],[-477,415],[-669,604],[-880,773],[-382,359],[-516,547],[-497,679],[-268,529],[-286,660],[-440,906],[-535,1075],[-574,1208],[-516,1038],[-1032,1679],[-344,491],[-497,698],[-669,981],[-1013,1396],[-268,378],[-1166,1698],[-268,377],[-745,1057],[-745,887],[-536,566],[-1319,1302],[-688,811],[-344,906],[-229,925],[-191,660],[-459,1680],[-478,1547],[-287,943],[-516,774],[268,660],[-96,982],[-229,717],[-459,1037],[-975,2604],[-497,755],[-726,378],[-1510,452],[-784,151],[-784,76],[-1166,-340],[-1166,-434],[-1433,-490],[-211,415],[-420,811],[-726,1019],[-803,1132],[-1606,2189],[-3536,3906],[-4110,5151],[-2561,4020],[-1510,3528],[248,1717],[-191,830],[-77,585],[-19,1265],[-2676,1056],[-955,510],[-631,415],[516,811],[478,698],[325,510],[478,736],[363,528],[382,566],[306,453],[554,717],[363,453],[688,849],[765,925],[497,604],[707,528],[688,604],[115,1075],[440,1095],[497,641],[344,812],[-134,849],[0,830],[382,1132],[574,736],[191,547],[-19,1189],[-134,1094],[-96,585],[96,717],[325,1359],[-38,623],[-134,1019],[344,754],[975,699],[726,169],[822,189],[650,359],[459,377],[229,1094],[-401,736],[-363,529],[-765,622],[-631,566],[-726,416],[-535,622],[-115,2529],[76,434],[784,2057],[-95,754],[-39,1000],[19,566],[230,887],[248,1000],[344,906],[612,887],[1109,1415],[554,736],[478,698],[306,566],[363,1019],[0,566],[-115,698],[-38,585],[-516,831],[-401,509],[-459,547],[-650,642],[4607,2283],[-230,547],[-267,548],[-383,830],[-267,641],[-287,642],[-344,849],[-497,1132],[-402,1019],[-191,944],[-76,1188],[2389,189],[956,-132],[745,-76],[670,944],[-77,755],[516,811],[2103,547],[19,1038],[975,283],[611,227],[536,283],[-134,2226],[-402,1491],[-764,2849],[1969,623],[1013,340],[1013,188],[879,113],[555,-75],[860,189],[497,585],[611,207],[708,19],[974,76],[-210,1981],[555,981],[936,189],[268,56],[745,642],[-822,5264],[172,132],[1950,397],[1071,-529],[1013,76],[210,132],[-344,2208],[745,113],[-344,2585],[-554,849],[-344,755],[-134,736],[-96,736],[-286,3019],[688,132],[554,453],[287,1075],[19,1038],[0,585],[-19,1000],[-287,1132],[-459,453],[-917,1057],[-650,490],[-478,189],[-4874,1359],[-306,94],[-937,208],[-611,188],[-841,453],[-880,830],[-630,510],[-345,226],[-783,340],[-2390,623],[-1108,320],[-708,359],[-439,377],[-497,566],[-478,548],[-535,452],[-516,321],[-1033,547],[-745,265],[-650,339],[-745,510],[-1530,1075],[-554,548],[-382,452],[-3269,2680],[-879,698],[-440,245],[-745,302],[-727,227],[-841,226],[-535,38],[-1262,19],[-1204,-76],[-478,-56],[-841,-283],[-879,-416],[-631,-207],[-612,-38],[-936,19],[-1051,94],[-612,76],[-746,283],[-554,547],[-688,604],[-918,528],[-669,264],[-803,114],[-649,0],[-1147,-19],[-765,-57],[-707,-170],[-478,-188],[-975,-397],[-631,-302],[-783,-169],[-1052,0],[-439,56],[-765,208],[-765,321],[-420,226],[-688,472],[-2447,1604],[-2523,1736],[-879,471],[-1396,453],[-688,132],[-1032,-19],[-1472,19],[19,359],[38,924],[115,1189],[115,812],[936,792],[841,1302],[325,-189],[1147,-339],[2237,-680],[631,963],[420,1000],[-1988,1000],[-1051,472],[-19,169],[688,1152],[248,509],[344,585],[918,1453],[650,1132],[-153,943],[-57,944],[2274,491],[3116,773],[3058,868],[364,-811],[152,-717],[211,-849],[191,-849],[267,-1095],[459,-698],[516,-226],[765,-359],[1032,-226],[899,-19],[802,264],[-248,924],[917,189],[784,113],[822,510],[-420,1189],[-536,1434],[-401,1075],[38,132],[1376,340],[574,38],[478,-1491],[1070,245],[1032,321],[708,245],[630,-566],[249,-811],[306,-434],[631,-604],[477,-472],[421,-434],[382,-698],[688,-604],[516,-358],[536,-377],[860,471],[325,1114],[497,622],[573,661],[574,660],[306,359],[535,641],[592,755],[497,566],[860,-264],[670,-434],[630,-359],[650,-339],[956,-453],[898,0],[803,113],[1147,151],[994,94],[860,-19],[77,-943],[172,-849],[764,-38],[899,-19],[803,868],[38,925],[19,1396],[-19,830],[0,623],[-77,698],[-478,868],[-19,1019],[19,1472],[20,1604],[19,943],[592,850],[1357,-529],[2447,-962],[4951,-1925],[898,-189],[669,-150],[1128,-114],[1510,114],[669,150],[612,133],[784,207],[841,283],[1682,887],[4052,2170],[2523,1377],[1128,416],[1166,151],[1147,-76],[1185,-340],[3422,-1226],[1051,-359],[16477,-5868],[5811,-2057],[860,906],[497,415],[669,245],[478,868],[784,774],[1013,1057],[268,264],[707,717],[841,849],[707,736],[975,981],[956,1000],[325,321],[803,811],[248,265],[1472,1490],[669,680],[2638,2604],[248,264],[1396,1415],[573,566],[554,566],[421,434],[822,849],[554,529],[574,566],[401,415],[593,528],[344,377],[611,623],[555,566],[783,793],[765,736],[746,811],[764,774],[784,792],[516,528],[497,529],[497,509],[745,736],[593,585],[688,698],[516,566],[803,831],[421,415],[516,434],[726,377],[650,19],[917,-75],[650,-95],[899,-151],[726,-94],[975,-113],[688,-95],[1013,-188],[707,-114],[574,-94],[1013,-170],[898,-113],[612,-75],[918,-114],[650,-56],[1013,-57],[1777,2132],[2199,2529],[2733,2925],[2485,2585],[2886,3075],[2562,2718],[745,773],[765,830],[3689,3869],[2619,2755],[726,773],[1988,2076],[956,1019],[2886,3094],[2638,2736],[784,812],[2867,3076],[2829,3000],[382,396],[2351,2529],[2409,2547],[1032,1075],[2581,2793],[3287,3604],[1491,1491],[1663,1755],[3059,3264],[2982,3113],[573,623],[2657,2755],[2944,3132],[1051,1095],[115,56],[1797,-1754],[2485,-2435],[133,-113],[39,-38],[2427,-2377],[1262,-1245],[669,113],[860,188],[669,76],[898,132],[612,208],[726,736],[555,1056],[210,679],[478,642],[573,94],[994,151],[803,95],[803,113],[497,170],[1128,396],[707,302],[593,189],[573,151],[707,188],[784,57],[459,19],[1051,19],[726,301],[-210,2982],[-267,3434],[-134,1396],[191,661],[898,415],[918,19],[631,0],[1032,75],[1070,76],[994,0],[1109,19],[917,603],[20,642],[0,925],[19,811],[19,1038],[19,773],[745,642],[497,208],[669,396],[612,358],[631,151],[803,-37],[401,-38],[899,-95],[783,-75],[1090,-75],[1051,-246],[822,-151],[593,-56],[917,-57],[1147,-189],[765,-396],[344,-415],[554,-679],[478,-529],[1147,-226],[1032,132],[573,19],[670,-340],[420,-207],[669,-321],[535,-245],[1090,-378],[650,-226],[975,-340],[822,-283],[477,-151],[727,-207],[707,-170],[746,-95],[860,38],[554,434],[516,811],[382,284],[1014,169],[1051,-56],[1567,-95],[650,-75],[822,-170],[554,-170],[39,-887],[248,-509],[593,-472],[745,-132],[707,-94],[994,38],[746,37],[898,-453],[803,-434],[516,-151],[708,-94],[1051,57],[745,264],[784,415],[440,264],[764,208],[746,-57],[936,491],[784,471],[612,359],[707,434],[497,283],[612,340],[860,528],[612,340],[630,339],[555,321],[153,981],[-593,264],[-1109,453],[-745,302],[-765,302],[-669,264],[-669,264],[-688,302],[-879,434],[-669,359],[-421,283],[-592,434],[-612,566],[-516,528],[-497,699],[-287,603],[-420,831],[-96,622],[421,887],[363,679],[592,548],[574,754],[497,680],[573,320],[1071,189],[822,132],[1166,246],[707,207],[535,170],[822,415],[841,434],[707,283],[593,170],[898,189],[1052,207],[669,76],[917,-19],[937,490],[784,717],[439,510],[555,528],[707,604],[1204,76],[841,-585],[249,-1057],[95,-642],[77,-603],[210,-812],[669,-981],[1070,-1510],[822,-509],[841,-38],[574,57],[745,132],[650,207],[937,246],[1548,207],[1013,151],[421,76],[841,-38],[803,-94],[745,-227],[975,-94],[535,396],[784,378],[440,37],[994,95],[1013,-38],[630,-76],[899,-226],[917,-132],[1147,-170],[708,-57],[860,548],[1127,396],[842,-227],[974,-283],[555,-113],[955,-151],[1186,-207],[994,-189],[382,-75],[841,-189],[554,-113],[841,-189],[765,-226],[516,547],[784,453],[497,679],[516,528],[573,302],[784,453],[688,377],[516,283],[688,340],[612,245],[1931,831],[669,283],[1319,509],[879,264],[1051,283],[2237,604],[2542,453],[1204,0],[1128,-509],[2103,-1623],[554,-434],[707,-1283],[708,56],[2752,963],[3594,1604],[3440,1415],[3862,1604],[5428,4434],[1950,1283],[229,-1076],[-325,-1151],[-420,-1830],[3536,1378],[5257,2188],[325,359],[133,1283],[555,226],[7913,57],[6289,-38],[306,378],[57,943],[211,359],[669,566],[1108,-57],[536,717],[248,812],[249,830],[286,943],[363,1132],[192,19],[3307,-547],[1070,245],[3957,1944],[1491,245],[3536,1000],[994,283],[2753,755],[841,151],[669,-151],[822,-189],[783,-150],[1109,-95],[1510,0],[746,95],[841,-38],[1185,-208],[745,302],[822,-19],[1969,-1038],[6671,-1264],[726,-622],[4378,-10397],[879,-472],[6556,-661],[3307,-113],[7838,-283],[898,-38],[2733,-94],[1185,-38]],[[844461,481640],[1032,-4642],[210,-1000],[115,-661],[229,-1113],[363,-1547],[249,-1114],[1032,-3641],[344,-1114],[1013,-3434],[1052,-3811],[688,-2397],[229,-1038],[287,-1019],[286,-886],[249,-1038],[229,-793],[956,-3170],[268,-943],[286,-1038],[994,-3680],[555,-1755],[306,-1113],[592,-2264],[325,-1038],[478,-1698],[363,-1132],[459,-1416],[153,-452],[153,-736],[153,-529],[917,-3000],[249,-868],[57,-207],[306,-1189],[497,-1415],[631,-1906],[669,-1868],[478,-1453],[344,-1132],[133,-868],[727,-2189],[420,-1340],[421,-1434],[267,-981],[192,-529],[401,-1169],[516,-1585],[382,-1151],[115,-604],[96,-1151],[-191,-2114],[-230,-2509],[-19,-529],[-248,-2528],[-77,-1321],[-76,-868],[-58,-981],[-76,-1189],[-344,-3340],[-268,-2491],[-38,-679],[-268,-2660],[-229,-2623],[-249,-2774],[-286,-3132],[-153,-1793],[-210,-2170],[-192,-1906],[-248,-2019],[-134,-1623],[-268,-2434],[-57,-547],[-57,-736],[-58,-509],[-248,-1755],[-191,-1170],[-96,-1415],[-172,-2227],[-229,-2302],[-96,-1075],[-210,-2944],[-210,-3208],[-58,-1207],[-76,-2189],[-19,-1944],[-38,-698],[-1205,-170],[-1070,-56],[-803,0],[-956,56],[-669,-38],[-554,-75],[-1395,-151],[-1300,-75],[-3135,-283],[-2619,-208],[-1166,170],[-669,75],[-1013,19],[-1338,-56],[-1797,-151],[-1223,-133],[-880,-18],[-1414,0],[-975,0],[-1911,-95],[-1472,19],[-1071,-19],[-2886,-188],[-1988,-57],[-1644,-793],[-229,-811],[229,-1245],[-172,-736],[-229,-887],[-2676,-377],[-96,-170],[210,-1661],[-764,-339],[210,-2812],[-382,-302],[-1682,19],[-440,-113],[-77,-2812],[-38,-943],[-134,-2604],[77,-95],[3039,-339],[191,-736],[287,-3680],[-57,-75],[-2504,-359],[-516,-169],[172,-1604],[-115,-95],[-2198,-566],[-574,566],[-2408,-358],[-115,-95],[-248,-1603],[-77,-453],[-172,-1170],[-1147,-151],[-2179,245],[-115,-38],[-191,-2113],[421,-94],[688,-529],[153,-736],[248,-1283],[77,-849],[-2371,-396],[-1510,-19],[-248,-717],[-77,-453],[153,-2094],[-38,-1793],[57,-755],[96,-717],[249,-1679],[95,-698],[-134,-887],[-19,-76],[-344,-1490],[-191,-547],[-191,-604],[-191,-1151],[-631,-1982],[1204,-188],[3135,-57],[497,-94],[1242,-434],[230,-661],[1281,-717],[191,-19],[898,1076],[688,-264],[841,283],[383,94],[1338,132],[382,151],[669,1151],[669,1151],[191,283],[803,849],[57,38],[1338,925],[727,566],[1070,1132],[115,38],[4836,-321],[917,-57],[1205,-301],[-230,-982],[-592,-1773],[-1300,-3303],[-344,-434]],[[828710,287587],[-688,-509],[-688,-321],[-421,-226],[-803,-623],[-688,-962],[172,-736],[-229,-566],[-765,-547],[-592,-283],[-478,-868],[-612,-1076],[-478,-887],[-688,-1189],[-898,-1585],[-574,-1019],[-764,-1283],[-459,-566],[-1032,-1019],[-746,-792],[-879,-963],[-688,-849],[-1090,491],[-554,-604],[-363,-528],[-1262,-1699],[-593,189],[-764,283],[-1128,340],[-745,245],[-899,-1113],[-611,-774],[-4741,2585],[-1376,661],[-1434,509],[-937,302],[-955,264],[-497,114],[-1587,207],[-1089,57],[-937,-132],[-631,-189],[-554,-245],[-574,-397],[-783,-698],[-593,-868],[-764,-1774],[-1186,-3566],[-344,-868],[-841,-1490],[268,-755],[153,-1000],[-57,-755],[-134,-472],[-1874,-3868],[-936,-1491],[-2046,-2434],[-5027,-6283],[-3001,-2774],[-439,-434],[-4760,-4529],[-5371,-5113],[-11259,-11850],[-1491,264],[-76,-94],[-364,-1227],[-344,-132],[-1128,-264],[-841,-774],[-420,-1377],[-38,-189],[-593,-1453],[-2867,-5227],[-593,-811],[-764,-944],[-2256,-2358],[-2332,-2076],[-2255,-1774],[-6901,-6642],[-2657,-2604],[-1854,-2113],[-1988,-1566],[-325,-264],[-1587,-1019],[-152,-170],[-1663,-1830],[-975,-1151],[-3632,-4095],[-3613,-4359],[-1548,-1868],[-860,-774],[-1319,-924],[-956,-415],[-860,-359],[-1128,283],[-803,529],[-1281,792],[-554,415],[-554,547],[-1682,1642],[-306,302],[-3766,3679],[-669,-301],[230,-1491],[-249,-132],[-1548,-151],[-58,-76],[0,-1207],[-1127,0],[-2887,-95],[-2638,-94],[-153,-94],[58,-1132],[-3957,-699],[-1204,-113],[38,-755],[-1701,-132],[-860,-37],[-1300,-133],[-669,-94],[-1013,-113],[-1109,-113],[-401,905],[-2122,38],[-1243,19],[-114,-132],[-58,-1340],[-133,-113],[-2180,-57],[-1816,170],[-2733,283],[-2275,132],[-745,38],[-191,-6566],[-3384,396],[-1051,132],[-1185,151],[-1032,170],[-1453,207],[-841,132],[-1090,57],[-1051,0],[-1128,-38],[-1070,-189],[-612,-207],[-841,-132],[-554,-57],[-211,-924],[-286,-1453],[-172,-698],[-134,-491],[-153,-811],[38,-1001],[-19,-924],[-459,-812],[-172,-811],[-133,-774],[-134,-717],[-19,-585],[-249,-868],[-210,-1245],[-38,-509],[153,-1680],[114,-264],[363,-4038],[58,-1585],[19,-472],[-249,-736],[-363,-905],[58,-887],[172,-717],[248,-1114],[-306,-717],[-191,-924],[-497,-623],[-287,-906],[-19,-509],[-19,-736],[-95,-509],[-230,-982],[-573,-981],[-211,-717],[287,-962],[-95,-698],[114,-1019],[-497,-491],[-535,-566],[-440,-717],[-573,-868],[-516,-811],[-325,-604],[-268,-642],[-172,-566],[-172,-792],[-325,-793],[-325,-566],[-1166,57],[-975,396],[-745,245],[-1166,189],[-1606,283],[-955,208],[-765,207],[-669,264],[-593,340],[-764,472],[-593,-680],[-248,-566],[-459,-585],[-554,-773],[-574,-793],[-478,-641],[-745,-1057],[-612,-887],[-669,-906],[-631,-792],[-669,-887],[-860,-19],[-822,755],[-841,736],[-917,792],[-497,434],[-765,698],[-344,491],[-516,434],[-593,245],[-803,415],[-630,-226],[-975,-396],[-555,-76],[-707,-37],[-726,-76],[-1032,-226],[-937,-38],[-631,0],[-783,-57],[-478,-283],[-153,-1283],[-96,-906],[-153,-1151],[-172,-1188],[-76,-699],[19,-811],[57,-660],[-2064,264],[153,-2774],[-2122,38],[-1051,-76],[-2065,-358],[-1930,-321],[-2160,-321],[-841,-132],[-1453,-226],[-1090,-170],[-783,-94],[-4187,-227],[39,-1057],[-3212,-264],[-3154,-94],[-1548,-38],[-4454,-415],[-172,-57],[-1988,-603],[-1357,-265],[-38,-943],[-1912,-208],[-5811,-641],[-420,-434],[-3097,-321],[-363,-604]],[[577578,420012],[2905,95],[5792,377],[191,415],[-401,2340],[38,113],[1930,170],[192,208],[764,1509],[268,38],[2599,170],[1300,94],[230,57],[2485,453],[2121,302],[899,584],[306,699],[802,320],[956,-377],[554,132],[1721,3944],[573,1472],[746,-529],[860,-962],[726,-528],[860,-95],[1014,830],[726,491],[3880,1698],[-325,887],[-95,340],[-134,962],[-96,642],[-286,679],[-440,736],[248,887],[670,1472],[-383,698],[-611,415],[324,1038],[822,641],[1090,340],[593,170],[611,283],[535,188],[1014,227],[-77,1019],[-401,528],[401,812],[765,717],[325,849],[191,528],[76,1038],[0,792],[421,831],[650,377],[554,415],[115,717],[-478,623],[-593,302],[-1338,509],[-592,302],[669,962],[707,510],[822,755],[631,434],[2064,1283],[1185,1113],[3212,1736],[1089,661],[860,547],[574,358],[497,321],[1070,528],[841,-113],[841,-604],[975,-245],[1185,113],[1587,264],[516,133],[1204,283],[593,188],[879,378],[535,283],[956,528],[1491,868],[1204,774],[421,245],[726,415],[784,377],[956,623],[726,698],[440,434],[707,604],[1280,1076],[459,396],[555,472],[726,868],[669,792],[631,529],[382,868],[-631,566],[-1108,132],[-383,56],[-822,340],[-95,491],[726,905],[-401,547],[-1740,340],[-191,1095],[115,830],[439,453],[650,453],[899,-472],[1108,-547],[669,396],[440,528],[306,717],[516,661],[975,18],[1491,-18],[879,56],[1204,19],[115,698],[-95,2114],[-77,1132],[650,207],[-153,1642],[115,415],[2714,227],[994,226],[879,208],[612,169],[822,548],[593,358],[688,264],[611,-19],[1778,831],[1070,396],[765,226],[803,57],[879,-94],[478,679],[-57,774],[38,1056],[57,302],[211,1529],[152,679],[364,962],[497,642],[478,622],[764,850],[516,434],[899,471],[650,264],[592,151],[1185,76],[879,0],[536,302],[688,264],[764,226],[1147,623],[918,604],[478,472],[401,736],[727,320],[841,-207],[1338,-547],[630,-208],[803,-94],[650,-227],[688,283],[1224,1132],[478,359],[516,453],[458,604],[249,830],[-77,1000],[-401,792],[-421,661],[-19,1038],[-305,698],[-249,906],[-229,698],[-249,792],[-248,1397]],[[689668,516020],[3574,-2963],[230,-1396],[267,-547],[879,-208],[918,-57],[1128,-19],[669,-56],[650,-19],[745,113],[1032,264],[612,19],[1051,-37],[746,-170],[612,-302],[688,-415],[783,-302],[803,-264],[13648,-7227],[1357,-604],[937,151],[612,188],[860,227],[860,245],[1147,302],[669,227],[898,283],[1109,471],[746,132],[688,189],[783,94],[555,-56],[822,-547],[2523,509],[287,-189],[382,-1471],[0,-302],[-134,-1114],[726,-924],[-57,-736],[57,-962],[956,-340],[287,-661],[172,-981],[11985,-6491],[1204,-321],[746,-301],[975,-321],[611,-113],[612,1339],[573,-264],[880,-377],[898,-378],[803,378],[554,-529],[191,-528],[364,-585],[650,-717],[382,-604],[153,-547],[57,-660],[-554,-585],[114,-566],[383,-642],[363,-434],[554,-736],[612,-19],[1950,1057],[286,94],[2677,434],[76,-75],[115,-1189],[191,-94],[1701,830],[249,-76],[688,-1264],[306,-94],[1586,132],[650,19],[440,622],[898,755],[994,585],[765,-717],[573,-849],[421,-660],[1051,377],[1472,509],[1701,472],[1109,246],[1663,358],[936,208],[880,188],[688,-717],[3135,-358],[955,-378],[1663,-283],[2160,-113],[-191,-698],[-573,-604],[76,-962],[440,-642],[669,-358],[1261,-246],[765,-169],[612,-246],[975,-207],[401,-755],[707,-717],[631,-415],[153,-642],[573,-792],[880,-604],[497,-302],[802,-509],[421,-585],[1147,-378],[1166,1151],[344,340],[497,679],[478,755],[631,396],[726,283],[535,302],[746,604],[611,642],[669,528],[574,453],[478,283],[707,283],[573,245],[784,245],[1013,397],[1166,169],[574,-18],[650,-38],[650,38],[993,94],[975,264],[2046,642],[1261,339],[1472,302],[1051,170],[440,76],[1587,169],[1070,132],[1854,397],[2122,453],[1070,245],[1071,245],[669,-132],[669,-189],[707,-18],[688,-95],[1224,-151],[1758,-113],[1243,-94],[1185,-38],[1663,-94],[917,-38],[1090,0],[459,19],[325,-1434]],[[477759,723412],[3670,717],[956,566],[593,359],[726,264],[4741,415],[860,189],[1644,509],[1032,265],[936,75],[994,415],[708,415],[1471,1114],[765,509],[478,151],[765,151],[1013,-75],[1261,-510],[860,3887],[230,566],[497,1378],[573,1773],[497,1718],[574,3037],[19497,-4170],[0,302],[19,2982],[1013,245],[3078,-264],[554,679],[421,1736],[152,57],[2428,-491],[191,604],[96,585],[650,2623],[726,3755],[153,887],[287,1754],[783,3567],[708,3340],[478,-227],[4243,-1943],[1185,-510],[2829,-1264],[4205,-1812],[3174,-1509],[1701,-585],[879,-245],[1415,-604],[3058,-1302],[6709,-2812],[6060,-2491],[2619,-943],[-536,-2076],[-2370,-13340],[-1835,-1114],[-459,-245],[-1969,-981],[-363,-698],[-57,-2585],[-57,-680],[-77,-2339],[-38,-1265],[153,-1320],[95,-1057],[0,-1000],[-19,-2246],[-95,-1547],[-172,-2585],[-306,-925],[-765,-943],[-1128,-849],[-286,-396],[0,-812],[19,-849],[-153,-981],[-153,-472],[-707,-868],[-58,-75],[-955,-1321],[-325,-1038],[-153,-755],[-230,-1679],[19,-981],[249,-850],[287,-886],[95,-831],[-19,-773],[306,-2133],[76,-603],[-248,-831],[-229,-773],[1204,-812],[764,-566],[325,-981],[-936,-2925],[-1606,76],[-2466,321],[-1949,245],[-1300,-208],[-1281,-264],[-57,-170],[-631,-2056],[-19,-151],[-765,-2227],[-535,-1396],[-1204,0],[-268,-1283],[-593,-736],[-573,-378],[-726,-773],[-4875,-1680],[-95,-773],[114,-1132],[-1796,-642],[-516,-283],[-612,-415],[-1338,-906],[-727,-849],[-191,-660],[-248,-887],[-612,-4472],[2887,-982],[0,-717],[0,-1094],[-39,-1717],[-114,-396],[-421,-887],[-669,-1227],[-306,-471],[1281,-1680],[994,-1377],[592,-1038],[822,-1321],[287,-660],[249,-1114],[305,-1717],[172,-2057],[39,-943],[38,-793],[96,-849],[-230,-1075],[-172,-774],[-134,-1094],[0,-717],[115,-1095],[57,-755],[172,-1151],[746,-1849],[229,-453],[1835,-2830],[822,132],[765,76],[784,56],[554,-509],[612,-566],[898,-868],[382,-453],[134,-830],[-172,-2491],[-19,-1095],[76,-830],[39,-1019],[-96,-1019],[-497,-773],[-669,-1548],[-860,-773],[-249,-585],[-650,-698],[-477,-2850],[0,-2038],[-325,-547],[-574,-2208],[1606,-509],[860,-491],[860,-962],[1453,-2321],[707,-1811],[153,-736],[38,-963],[39,-1264],[191,-1075],[707,-1076],[497,-717],[535,-755],[650,-339],[937,226],[936,510],[497,603],[421,717],[611,1397],[459,1037],[669,1265],[1071,339],[2121,-226],[153,-1113],[-172,-925],[-95,-811],[229,-510],[765,-396],[650,-151],[1663,-340],[783,19],[861,208],[955,207],[1166,265],[612,75],[1032,57],[727,-19],[611,-57],[899,-113],[745,-19],[688,-302],[230,-585],[76,-736],[96,-698],[229,-830],[210,-453],[497,-604],[650,-377],[612,132],[841,585],[420,472],[459,547],[784,755],[593,509],[630,264],[1071,132],[1185,-170],[688,-150],[650,-246],[841,-604],[363,-452],[459,-642],[363,-830],[134,-566],[0,-623],[-38,-1189],[114,-509],[440,-774],[612,-811],[478,-397],[497,-339],[917,-529],[1013,-471],[1090,-510],[1261,-547],[650,-226],[746,-76],[783,-113],[2180,-1453],[554,-226],[688,-189],[535,-38],[2657,0],[707,-189],[1166,-698],[1377,-38],[1720,-18],[1300,-1755],[784,-1397],[18809,-13057],[15923,-12548],[6193,-5586],[975,661],[650,-1604],[2408,-1359],[-421,-943],[3823,-3453],[1874,-2585],[879,-264],[478,37],[879,-717],[58,-1132],[-20,-906],[-1108,-358],[57,-1208],[191,-151],[1759,-188],[153,-151],[707,-1227],[153,-75],[1911,-566],[2160,-982],[402,-75],[4090,1264],[1453,378],[478,-812],[325,-1094],[459,-132],[1758,603],[363,-792],[-802,-491],[-459,-679],[-191,-1359],[38,-151],[726,-1434],[975,-132],[535,-811],[1644,302],[1721,321],[5811,-1453],[783,-189],[937,-679],[401,-2642],[880,-3113]],[[901538,458676],[-2810,-1227],[-2198,-906],[-2026,-226],[-3651,-1510],[-306,623],[-497,1774],[-344,774],[-994,3830],[-1109,3830],[-688,2303],[-1510,3736],[-2237,3811],[-1242,2227],[-2122,3566],[-631,981],[-8296,-3509],[-1185,3038],[-229,37],[-956,-566],[-516,302],[-1281,-264],[-19,0],[-1682,-113],[-3765,-132],[-173,-95],[-496,-1604],[-134,-584],[-1185,169],[-3709,340],[-286,528],[-3346,529],[-4969,868],[-2485,434]],[[476134,936277],[2275,302],[899,95],[2332,-302],[344,37],[1433,434],[1013,-434],[1262,1246],[1663,1377],[860,736],[1338,887],[784,-57],[497,-283],[1089,-434],[822,151],[956,302],[726,-38],[1606,661],[115,-57],[803,-1528],[0,-528],[133,-1642],[20,-170],[3364,1661],[860,471],[1701,774],[1013,415],[593,-2151],[650,-57],[726,114],[994,188],[57,642],[1243,170],[879,-114],[650,-169],[994,-265],[344,-18],[2944,-208],[2026,-132],[382,-38],[956,-75],[1912,-114],[1032,-18],[478,37],[2007,246],[1319,169],[1242,265],[1032,226],[2657,585],[746,132],[573,151],[841,151],[784,19],[822,0],[1109,56],[803,208],[898,-132],[726,-264],[593,-19],[764,-57],[861,-37],[1127,37],[1262,-19],[440,850],[363,547],[936,-113],[784,-416],[459,-283],[784,-320],[592,-95],[746,-37],[994,-114],[650,-226],[611,19],[1128,302],[707,226],[1032,170],[1587,264],[1415,340],[898,56],[593,-19],[898,-56],[1109,-453],[248,-660],[822,-868],[726,151],[650,-170],[688,-283],[1052,264],[803,151],[1070,94],[726,113],[1587,283],[1357,246],[516,94],[765,0],[516,-19],[554,-604],[325,-547],[574,-434],[1127,359],[1014,283],[783,207],[956,151],[6040,-1472],[650,-75],[937,585],[860,566],[994,-585],[765,-189],[1070,-56],[1070,-491],[784,-19],[707,0],[574,0],[1013,-37],[784,-340],[535,-566],[478,-434],[822,188],[1051,57],[612,-19],[860,0],[745,-75],[1186,132],[879,-132],[707,-95],[612,453],[592,321],[650,-38],[1147,189],[2561,-132],[1453,-76],[38,-415],[-57,-3057],[-19,-1735],[0,-850],[-38,-566],[-77,-622],[-172,-1491],[-134,-849],[-57,-849],[-57,-963],[-38,-1037],[1070,-510],[765,113],[458,189],[650,396],[516,302],[1033,472],[936,434],[-38,528],[-440,1321],[555,830],[994,529],[554,1660],[497,264],[745,-75],[536,472],[516,566],[535,207],[688,264],[535,661],[459,490],[612,95],[726,434],[1185,-113],[1052,566],[267,773],[555,321],[707,340],[994,377],[822,-151],[1051,-283],[593,-170],[688,113],[764,434],[593,491],[994,-113],[650,-340],[554,0],[803,-19],[459,-132],[822,-75],[535,170],[707,0],[784,-189],[898,-132],[994,-95],[1013,-132],[880,-132],[745,-37],[516,56],[727,19],[917,-38],[707,-75],[822,-132],[822,-132],[937,151],[956,283],[936,245],[918,-19],[688,-189],[1051,-56],[879,38],[459,-19],[784,-132],[631,-57],[994,302],[1128,358],[554,151],[631,491],[783,585],[689,226],[726,246],[764,905],[421,642],[726,906],[459,1000],[-287,736],[-554,886],[-57,831],[-172,490],[-402,623],[-764,868],[-77,660],[-229,736],[803,736],[1873,868],[1797,906],[1625,811],[2293,1227],[2409,1321],[3192,1717],[1988,1094],[1089,529],[918,452],[956,510],[-77,1226],[-95,2718],[803,56],[1261,57],[1013,56],[1682,321],[1663,340],[115,566],[2045,396],[1033,-226],[2007,453],[382,37],[860,114],[1032,471],[765,151],[745,57],[708,132],[726,132],[898,170],[1338,245],[1377,208],[1395,245],[1071,208],[2886,603],[4970,793],[9232,2510],[-688,3094],[77,132],[1892,547],[784,265],[1911,698],[3097,1170],[1223,453],[1529,603],[2447,1019],[2676,1114],[1912,792],[803,302],[5983,2132],[1051,378],[1070,377],[-1089,10869],[306,528],[2905,-57],[134,718],[1128,132],[8487,1169],[1147,170],[2007,208],[210,226],[2428,-320],[802,-95],[1568,3548],[994,377],[134,-811],[1261,-76],[574,-19],[1968,-170],[364,-37],[5677,-906],[4301,-811],[2217,-359],[248,-57],[2696,-452],[6002,-963],[2427,-396],[1740,-283],[7512,-1245],[3479,-585],[1089,-151],[3995,-680],[3479,-471],[5888,-982],[822,-113],[783,-132],[708,-94],[1414,-227],[1147,-207],[765,-132],[535,-113],[917,-133],[650,-56],[937,-76],[784,-75],[2121,-208],[2027,-188],[1166,-57],[822,-57],[1127,-113],[727,-56],[956,-114],[1223,-113],[1013,-75],[860,-95],[554,-37],[1014,-57],[592,-19],[727,-75],[554,-38],[1223,-170],[1090,-75],[631,-38],[1051,-76],[975,-56],[688,-76],[612,-19],[1510,-151],[1319,-132],[898,-75],[1357,-132],[1338,-95],[1071,-18],[1299,-132],[1262,-114],[803,-56],[1013,-38],[1109,-94],[1070,-76],[803,-38],[1051,-18],[994,-95],[956,-75],[1644,-114],[1357,-150],[363,-76],[1338,-245],[1300,-151],[2313,-321],[2026,-283],[937,-132],[2217,-264],[1090,-113],[2083,-302],[191,-19],[1185,-189],[918,-132],[1491,-189],[1281,-151],[1835,-151],[1510,-283],[1433,-170],[1377,-283],[822,-151],[1051,-37],[1261,-189],[1033,-94],[-19,-566],[-96,-1378],[-115,-1075],[-172,-1793],[-382,-4019],[-172,-2114],[-19,-283],[-287,-2509],[-95,-642],[-58,-1188],[-19,-982],[0,-528],[19,-793],[-134,-1169],[-267,-1963],[-210,-2189],[-364,-2849],[-76,-509],[-210,-1736],[-20,-170],[-305,-2604],[-287,-2566],[-38,-472],[-96,-981],[-76,-812],[-115,-1415],[-76,-1434],[-77,-981],[-76,-925],[-58,-566],[-114,-925],[-134,-924],[-383,-3151],[-57,-1434],[-19,-246],[-306,-3490],[-76,-1038],[-77,-944],[0,-1056],[-95,-680],[-153,-1113],[-77,-491],[-76,-773],[-172,-1774],[-134,-1189],[-76,-660],[-249,-1906],[-115,-943],[-114,-850],[-39,-415],[-229,-2339],[-134,-887],[-38,-359],[-172,-924],[-76,-699],[-134,-754],[-115,-1038],[-153,-963],[-268,-1736],[-19,-358],[-286,-1510],[-268,-1264],[-153,-736],[-172,-622],[38,-774],[-19,-717],[-38,-604],[-115,-717],[-191,-1604],[-76,-283],[-497,-4095],[-153,-1226],[-287,-2019],[-210,-1698],[-210,-1699],[-249,-1830],[-115,-1660],[-898,-9246],[-554,-6001],[0,-132],[-421,-4283],[-96,-1264],[-114,-1642],[-115,-1208],[-191,-1981],[-153,-1925],[-172,-1679],[-76,-774],[57,-566],[-77,-1830],[-95,-547],[-96,-793],[-57,-868],[57,-585],[39,-943],[-134,-963],[-39,-1132],[77,-679],[115,-585],[-19,-755],[-39,-905],[19,-736],[20,-1151],[0,-812],[19,-1038],[19,-962],[19,-698],[-19,-962],[-19,-548],[-19,-773],[-39,-717],[19,-1095],[0,-1019],[0,-679],[0,-547],[0,-698],[-19,-717],[-76,-1000],[-38,-850],[-20,-1151],[-38,-773],[-19,-642],[-19,-1038],[-38,-736],[-38,-981],[-96,-1056],[-172,-1095],[-115,-604],[-172,-1094],[-153,-1189],[-57,-641],[-153,-963],[-76,-641],[-172,-831],[-96,-509],[-268,-1000],[-267,-717],[-383,-849],[-229,-717],[-172,-680],[-707,-2170],[-535,-1283],[-325,-905],[-459,-1378],[-210,-660],[-402,-1114],[-172,-452],[-478,-736],[-458,-472],[-612,-472],[-669,-321],[-555,-188],[-726,-415],[-344,-359],[19,-868],[115,-585],[191,-774],[248,-1037],[-19,-642],[0,-717],[-19,-981],[19,-642],[115,-547],[38,-811],[-554,-849],[-516,-434],[-421,-415],[-688,-774],[-516,-830],[-229,-548],[-555,-736],[-458,-584],[-975,-887],[-574,-378],[-1032,-698],[-1300,-962],[-822,-679],[-401,-359],[-1243,-1491],[-1376,-1566],[-1070,-1075],[-669,-566],[-1147,-812],[-937,-660],[38,-1132],[230,-1321],[229,-1340],[230,-943],[133,-1114],[306,-1151],[707,-3302],[192,-1094],[95,-434],[516,-2548],[841,-4377],[860,-4472],[612,-2944],[363,-1849],[58,-396],[363,-3359],[38,-76],[2370,-4755],[1606,-3075],[1357,-3171],[2179,-5566],[1950,-4302],[669,-2151],[1090,-3510],[1223,-3906],[478,-1528],[153,-472],[573,-1283],[937,-2208],[535,-1057],[879,-1603],[-975,-57],[-573,774],[-459,811],[-4855,8284],[1720,-8529],[-955,-76],[-784,-19],[-4569,-321],[-133,-452],[-211,-793],[-325,-1094],[-649,-2000],[-192,-868],[-688,-2642],[-1166,-4359],[-4186,-15680],[1453,-1151],[114,-95],[1472,-981],[-1758,-1830],[-3995,-3850],[-1185,-1132],[3268,-5113],[-2638,-2887],[-477,-472],[-478,-491],[-1281,-1056],[-803,-680],[1032,-698],[1071,-755],[1032,-754],[459,-321],[1357,-887],[917,-679],[918,-755],[1128,-868],[19,-19],[1032,-925],[765,-754],[669,-793],[344,-547],[134,-566],[191,-698],[153,-698],[210,-868],[325,-736],[401,-1133],[268,-754],[153,-472],[554,-1208],[325,-698],[249,-585],[363,-698],[363,-679],[784,-1340],[1280,-1755],[918,-1226],[344,-472],[803,-1208],[726,-981],[249,-358],[1223,-1453],[879,-925],[631,-679],[746,-717],[1032,-1019],[1338,-1246],[726,-641],[363,-359],[1109,-1113],[994,-943],[994,-925],[1663,-1585],[1491,-1415],[1013,-1000],[1319,-1246],[478,-471],[1051,-1001],[860,-792],[1147,-1057],[1338,-1245],[1357,-1189],[822,-755],[650,-585],[1415,-1132],[631,-490],[745,-623],[229,-189],[1186,-754],[1548,-1019],[1204,-736],[746,-529],[841,-585],[1032,-698],[497,-358],[669,-434],[1128,-717],[975,-604],[955,-623],[937,-604],[1223,-792],[1128,-774],[1032,-679],[1510,-1000],[1205,-812],[1261,-811],[975,-660],[2007,-1321],[574,-378],[-153,-226],[-2294,-3302],[-2714,-4000],[-746,-1076],[-1376,-1981],[-822,-1246],[-96,-151],[-1605,-2377],[-1893,-2548],[-764,-1018],[-1377,-2019],[-535,-774],[-210,-302],[-2198,-3095],[-287,-396],[-1395,-1906],[-173,-245],[-1452,-1925],[-497,-698],[-841,-1207],[-1434,-1718],[-1491,-1679],[-1663,-1755],[-1453,-1472],[-114,-132],[-1453,-1415],[-1701,-1698],[-1281,-1302],[-478,-510],[-707,-754],[-478,-472],[-1319,-1245],[-1969,-1831],[-1147,-1132],[-497,-509],[-879,-887],[-1166,-1076],[-726,-641],[-1377,-1472],[-1051,-963],[-726,-622],[-1032,-925],[-230,-188],[-1166,-1265],[-1051,-1283],[-1281,-1698],[-688,-1076],[-1357,-2151],[-1396,-2113],[-1204,-1944],[-764,-1283],[-497,-792],[-402,-585],[-1319,-2057],[-1051,-1679],[-994,-1604],[-726,-1189],[-115,-189],[-1931,-3151],[-229,-453],[-535,-1000],[-134,-283],[1950,-1208],[2542,-1566],[1300,-679],[1452,-849],[1128,-623],[574,-358],[592,-359],[803,-490],[1281,-717],[1510,-887],[936,-585],[899,-566],[1223,-982],[1147,-905],[650,-547],[535,-529],[421,-472],[631,-924],[822,-1227],[955,-1849],[1701,-3340],[1511,-3302],[267,-509],[918,-1831],[841,-1792],[420,-1000],[383,-755],[994,-1887],[2255,-4623],[1357,-2906],[2409,-5000],[1548,-3321],[535,-1132],[2753,-5642]],[[985873,214808],[268,-415],[707,-1132],[937,-207],[1471,-2869],[-57,-735],[-516,-529],[2772,-717],[-96,-2226],[-57,-1208],[-39,-528],[-191,-3246],[-76,-755],[2045,-169],[1204,-114],[765,-3226],[956,-415],[172,-3284],[19,-1415],[38,-1755],[0,-906],[38,-981],[-57,-868],[-19,-792],[-994,-510],[57,-1188],[287,-1755],[172,-717],[191,-1057],[96,-547],[401,-2151],[230,-1000],[267,-831],[535,-2094],[-688,-566],[287,-1359],[248,-1207],[822,-1906],[536,-3567],[1089,-188],[249,-1906],[-77,-604],[-134,-698],[39,-604],[133,-1075],[96,-1038],[-4492,-793],[268,-773],[229,-548],[382,-1000],[77,-736],[210,-566],[363,-754],[382,-717],[345,-585],[344,-567],[458,-886],[-955,-378],[-1377,-434],[268,-1075],[-1567,-491],[-134,-170],[803,-2472],[133,-471],[325,-1491],[96,-849],[497,-4850],[-1357,-509],[-1166,-396],[-1529,-548],[-2008,-641],[-3306,-1227],[-1166,-18],[114,-1661],[77,-1170],[-822,-415],[-880,-434],[-783,-151],[-1281,-283],[-860,-566],[-899,-359],[-860,-1358],[-2771,-434],[-1166,-189],[-1377,-321],[-306,2831],[-2790,-415],[-708,2736],[-2829,-566],[-649,2188],[-2237,-962],[-975,-321],[-420,-75],[-4703,-208],[-114,1189],[-230,1113],[-76,453],[-191,1378],[-172,1038],[-2523,-661],[-1625,-660],[-1204,-566],[-937,18],[-440,359],[-3116,-811],[-745,415],[-937,-170],[-860,-76],[-114,850],[57,547],[-38,962],[-58,1019],[-95,755],[-96,1000],[-612,717],[-2389,-755],[-898,-358],[-822,-491],[-96,-2472],[19,-1019],[39,-1094],[114,-698],[287,-831],[478,-773],[-784,-774],[-459,-321],[-745,-283],[-1147,-132],[-975,76],[-612,75],[-764,151],[-1013,245],[-555,132],[-1357,284],[-1395,264],[-535,170],[-975,-227],[-459,-491],[2141,-3679],[707,283],[1969,-3434],[784,-510],[286,-924],[-267,-736],[-1243,-396],[-764,-19],[-1893,19],[-1796,-208],[-3518,-717],[-1605,-359],[-153,2548],[-1319,2830],[-612,1321],[-707,94],[-3823,-1981],[-1395,1717],[-1396,1698],[-2619,-56],[-974,-378],[-1702,-773],[-917,-604],[-459,-623],[-459,-434],[-439,-434],[-230,-792],[-76,-755],[-19,-566],[-58,-717],[-401,-698],[-1071,-170],[-1204,75],[-631,38],[-2007,-38],[-1338,-56],[-860,-38],[-994,-1377],[-172,-114],[-1414,38],[-230,-3264],[-76,-1000],[1414,-170],[1396,56],[936,-56],[134,-566],[249,-925],[153,-698],[420,-811],[229,-359],[421,-736],[248,-849],[58,-1359],[-765,-698],[-2313,-471],[-439,-95],[-230,-1472],[-95,-924],[-153,-1151],[-172,-1378],[-19,-19],[-230,-1717],[2734,-377],[-765,-4849],[-2733,396],[-325,-2302],[134,-1548],[57,-566],[153,-1132],[114,-698],[-57,-509],[-267,-868],[1949,-359],[383,-38],[936,-283],[325,-56],[918,-114],[420,-1679],[172,-660],[383,-868],[95,-359],[459,-1774],[-975,-226],[-937,-226],[-2007,-623],[-2102,-736],[-631,-321],[-669,-358],[-535,-151],[-861,-113],[-1108,18],[-593,57],[-975,170],[-1070,-57],[-898,-94],[-517,-132],[-745,113],[-554,113],[-822,-94],[-459,-1113],[-96,-793],[-114,-962],[-115,-566],[-287,-774],[-57,-679],[-402,-510],[-401,-1113],[-306,-642],[-287,-547],[-114,-641],[-516,-717],[-899,-680],[-554,-641],[-210,-510],[-708,-849],[-535,-528],[-631,-547],[-363,-340],[-764,-510],[-1434,-830],[-745,-528],[-517,-283],[-726,-415],[-975,-547],[-784,-284],[-573,-264],[-593,-339],[-477,-623],[-555,-245],[-631,-114],[-860,-132],[-764,-132],[-1224,-37],[-554,37],[-822,114],[-478,245],[-554,547],[-1109,472],[-669,19],[-860,302],[-1128,471],[-707,321],[-765,0],[-554,19],[-879,207],[-1071,567],[-936,415],[-708,245],[-554,208],[-726,56],[-1052,-547],[-745,-170],[-726,-189],[-746,-377],[363,-774],[287,-1037],[57,-1359],[-114,-1000],[-249,-1019],[-115,-283],[-783,-1415],[-1606,-1944],[-726,-622],[-497,-19],[-1778,830],[-2389,1113],[-1186,-75],[-496,-604],[-1090,-2453],[-650,-378],[-1300,38],[-1051,57],[-1720,132],[-1052,-321],[-803,-377],[-8945,-4548],[-5620,-2868],[-153,0],[-2925,5453],[-478,887],[-1911,3453],[-249,38],[-1739,-849],[-956,-453],[-2714,-1396],[-1147,-698],[-3536,-1812],[-3823,-2076],[-5792,-2981],[-3116,-1623],[-2924,-1509],[-153,-38],[-459,4699],[-191,1434],[191,698],[-344,981],[382,811],[-1013,415],[-1625,2491],[39,76],[1032,622],[-440,1019],[-631,1000],[-1166,-396],[-134,38],[-1108,1943],[-249,529],[-153,0],[-6613,170],[-15789,434],[-918,-566],[-363,603],[-535,1170],[554,849],[1204,359],[-76,830],[-707,774],[-402,207],[-1147,491],[-764,302],[-727,302],[-1127,453],[-669,-793],[-306,-396],[-364,-717],[-267,-491],[-440,-868],[-669,-1189],[-1013,-226],[-669,-94],[-745,-1227],[-1491,-1962],[-994,471],[-880,-1075],[-2274,-2170],[-383,-472],[-497,-434],[-669,-472],[-458,-188],[-956,-415],[-1147,-340],[-784,-57],[-1491,-113],[-1013,-226],[-478,-132],[-994,-321],[-1433,-547],[-96,-38],[-2255,-642],[-2371,-698],[-726,-1283],[-3154,-2981],[-2523,0],[-96,19],[-5123,1358],[-2064,-1623],[-1472,2642],[-631,1227],[-630,1207],[-593,1246],[-1242,2377],[-1243,2472],[-134,283],[-497,1000],[-822,1510],[-898,1679],[-669,1264],[-650,1359],[-287,491],[-535,1226],[-344,679],[-440,699],[-286,641],[-134,1170],[-153,849],[-229,472],[-287,887],[-344,1094],[-459,491],[-287,792],[-783,510],[-383,-321],[-994,-415],[-917,19],[-669,604],[-727,-359],[-1185,-264],[-611,113],[-822,-57],[-841,-603],[-612,-246],[-975,-226],[-516,-585],[-363,-1000],[-440,-396],[-401,-812],[114,-509],[77,-736],[-268,-491],[-38,-830],[38,-1113],[-554,-453],[-440,-925],[-344,-698],[-344,-925],[-459,-1302],[-554,-452],[-765,566],[-554,679],[-612,94],[-822,-132],[-325,-453],[-439,-868],[-325,-641],[-688,-868],[-555,-472],[-630,-396],[-918,-302],[-745,-264],[-689,-340],[-860,-396],[-841,-283],[-745,-189],[-1052,-94],[-554,-57],[-841,-151],[-554,-226],[-593,-340],[-707,-453],[-746,-245],[-783,-245],[-574,-208],[-650,-377],[-535,-434],[-573,-547],[-650,-793],[-918,-774],[-860,-679],[-937,113],[-783,378],[-784,377],[-726,359],[-1415,679],[-115,56],[-2026,1001],[-95,56],[-1759,812],[-1051,547],[-535,264],[-841,509],[-459,283],[-2428,1604],[-57,76],[-153,2208],[-77,773],[-95,755],[-115,1132],[-115,1378],[-649,471],[-994,-113],[-1033,-38],[-879,-56],[-898,-38],[-325,-19],[-1013,-38],[-803,-56],[-1166,-57],[-1204,-94],[-1090,-76],[-535,-19],[-822,-18],[-669,-19],[-975,-57],[-1587,-132],[-1204,-94],[-1605,-132],[-1205,-114],[-1510,-132],[-1300,-113],[-1319,-94],[-860,-113],[-764,-95],[-688,-75],[-784,-113],[-1204,-133],[-325,-56],[-1013,-151],[-268,-57],[-1243,-207],[-497,-95],[-1529,-283],[-1988,-415],[-1166,-245],[-669,-151],[-1128,-189],[-898,-113],[-975,-208],[-114,-18],[-1262,-227],[-765,-94],[-898,-113],[-1453,-227],[-1567,-264],[-1032,283],[-880,38],[-764,-76],[-1893,-283],[-726,-113],[-554,-94],[-1033,-132],[-783,-397],[-956,-188],[-1051,-208],[-1033,-264],[-1051,-245],[-4320,-963],[-4415,-1188],[-1950,-567],[1032,-2264],[96,-207],[630,-1359],[536,-1151],[917,-2019],[631,-1944],[726,-2396],[-1969,-585],[-1815,-491],[363,-1471],[745,-2189],[325,-453],[535,-1453],[784,-2038],[421,-943],[191,-642],[439,-830],[153,-321],[-3039,-547],[-688,-113],[-7665,-661],[860,-2698],[898,-2812],[497,-1528],[153,-415],[325,-830],[1205,-3378],[1070,-3019],[1013,-2944],[1223,-3340],[746,-2207],[210,-510],[-7149,-1264],[-2217,-227],[-3594,-924],[-1147,-302],[-439,-113],[-4836,-1283],[-1071,-529],[-4817,-1811],[-4148,-1585],[-841,-321],[-879,-283],[-765,113],[-975,113],[-1835,378],[-1261,245],[-1128,264],[-593,340],[-592,509],[-631,831],[-707,811],[-1415,925],[-1242,868],[-5467,-2057],[-3747,-1208],[-3058,5076],[-12807,-4359],[-956,2944],[-229,660],[-459,1265],[-650,1886],[-1586,4095],[-746,1321],[-2733,94],[-306,0],[-1223,76],[-1740,358],[-956,340],[-707,170],[-1586,-132],[-459,0],[-3861,-321],[-230,-151],[-57,1076],[19,773],[-612,302],[-1529,-207],[-191,169],[-96,1208],[-2676,-19],[-2638,-132],[-1319,-57],[-1796,-75],[-937,-38],[-478,189],[-76,1170],[-249,943],[-2255,359],[-287,38],[-994,94],[-2217,396],[-1090,-377],[-765,113],[-994,-302],[-630,-226],[-727,-246],[-936,-283],[-631,-94],[-650,38],[-707,37],[-727,-245],[-669,-19],[-1051,38],[-1090,302],[-2580,415],[-134,38],[210,1113],[230,491],[726,1113],[650,906],[669,1000],[268,434],[516,924],[573,755],[669,981],[516,642],[211,490],[210,755],[325,963],[191,754],[115,680],[-172,773],[-211,1000],[-248,1057],[57,887],[211,981],[324,925],[230,905],[115,774],[-77,1000],[77,1057],[-39,604],[-57,849],[-76,604],[-39,830],[153,604],[516,509],[440,491],[745,811],[421,849],[401,661],[344,453],[650,924],[230,434],[306,661],[477,962],[631,1321],[363,698],[555,472],[592,566],[746,604],[325,717],[38,528],[191,924],[153,623],[306,887],[95,453],[0,1321],[-19,773],[-19,604],[-76,717],[-402,1019],[-191,1019],[134,925],[229,962],[211,1038],[0,1057],[-19,528],[-134,774],[95,830],[77,528],[191,698],[96,1076],[95,698],[268,1170],[210,660],[210,699],[191,717],[-76,1132],[-344,2736],[-325,547],[-688,755]],[[828710,287587],[535,-868],[765,-1188],[344,-208],[1777,-245],[689,-736],[1319,2076],[1051,415],[1242,415],[211,19],[1510,-397],[1032,397],[1835,-1510],[172,57],[2007,1981],[287,226],[3192,2246],[440,509],[1013,76],[3440,-981],[5008,-1321],[1033,396],[3001,1755],[707,-396],[306,-510],[573,-641],[841,-868],[1166,-1265],[899,-736],[554,-37],[994,94],[1625,-38],[917,-302],[2141,-151],[1472,-132],[784,472],[134,774],[229,849],[306,698],[1147,-358],[1797,-604],[1280,-415],[1529,-604],[172,151],[383,1188],[134,133],[1166,283],[726,-151],[745,283],[994,-472],[325,1604],[191,94],[2677,-434],[516,-604],[1204,-396],[1720,-773],[19,-133],[-497,-1320],[-764,-2076],[1739,-1038],[3154,-1358],[1721,-623],[994,-378],[879,-207],[1739,-415],[1090,-321],[1491,-453],[726,-321],[306,-641],[382,-453],[2409,-1208],[229,-94],[2638,-359],[363,-75],[1549,-321],[1701,-339],[784,-170],[3134,-604],[1071,-19],[2141,0],[1758,19],[1090,-57],[306,-528],[975,132],[4033,660],[5428,1453],[1568,416],[191,-133],[-459,-6340],[-114,-1490],[1185,-76],[3345,1113],[554,-717],[2867,1548],[669,377],[1090,377],[2275,755],[3268,1057],[172,-5265],[58,-2755],[57,-1811],[19,-585],[19,-679],[77,-585],[306,-774],[363,-736],[172,-339],[459,-1114],[344,-943],[-115,-623],[-1013,-19],[-3785,-75],[-765,-151],[-325,-453],[0,-1396],[249,-5642],[134,-4114],[210,-5604],[57,-943],[230,-5774],[191,-4529],[153,-3963],[153,-622],[688,-321],[6958,226],[8468,340],[9767,377],[861,-302],[133,-566],[421,-679],[516,-679],[554,-812],[39,-660],[344,-2264],[95,-566],[249,-2435],[669,-264],[2466,-132],[841,-38],[764,-94],[1415,-94],[1070,56],[1243,76],[898,56]],[[901538,458676],[3460,-7171],[2255,-4717],[975,-2019],[574,-962],[420,-925],[1701,-3830],[1300,-2604],[1396,-2869],[19,-37],[1548,-3302],[1395,-2755],[650,-1265],[440,-962],[134,-264],[707,-1510],[669,-1377],[1778,-3623],[210,-472],[1089,-2321],[746,-1528],[1453,-2981],[1147,-2359],[1108,-2151],[784,-1529],[382,-830],[1205,-2623],[1471,-3189],[841,-1773],[1893,-3944],[1414,-3132],[746,-1321],[1797,-3680],[1127,-2490],[669,-1340],[956,-1887],[1682,-3548],[230,-509],[535,-1132],[2351,-4906],[2007,-4001],[325,-641],[1109,-2359],[1663,-3566],[1280,-2679],[2676,-5473],[96,-188],[803,-1548],[1395,-2981],[1644,-3491],[746,-1585],[841,-1717],[1032,-2113],[1051,-2246],[268,-528],[745,-1453],[497,-1000],[650,-1321],[344,-660],[363,-736],[708,-1529],[554,-1245],[1071,-2302],[592,-1453],[1166,-2264],[1510,-3114],[1663,-3509],[1032,-2019],[1128,-2378],[1204,-2604],[975,-2076],[1549,-3472],[1223,-2358],[650,-1227],[134,-264],[1070,-2076],[841,-1849],[287,-566],[363,-830],[306,-793],[573,-943],[344,-1000],[383,-717],[611,-1189],[364,-717],[936,-2019],[1243,-2661],[210,-415],[210,-1339],[38,-1736],[153,-1397],[192,-2623],[114,-1509],[96,-1151],[573,-2038],[306,-1132],[268,-981],[420,-1397],[459,-1755],[612,-2037],[401,-1491],[688,-2397],[153,-641],[382,-1340],[574,-1887],[172,-905],[306,-2397],[-77,-1755],[-3746,264],[-19,-1000],[-96,-773],[-38,-793],[0,-773],[76,-1019],[153,-1189],[38,-793],[-1949,-868],[-306,-3509],[-38,-114],[-153,-1641],[-58,-1397],[-38,-1528],[-115,-1736],[-152,-2057],[-153,-1415],[-39,-717],[-133,-1679],[-77,-793],[-134,-509],[-210,-698],[-19,-736],[-96,-906],[-133,-1453],[95,-1396],[115,-736],[134,-849],[153,-1170],[133,-925],[-267,-1075],[-115,-265]]],"bbox":[99.81434,13.64925,100.33749,14.17921],"transform":{"scale":[5.231505231505242e-7,5.299605299605291e-7],"translate":[99.81434,13.64925]}}