{"type":"Topology","objects":{"districts":{"type":"GeometryCollection","geometries":[{"type":"Polygon","arcs":[[0,1,2]],"properties":{"CODE":"7401","PARENT":"74","NAME_TH":"เมืองสมุทรสาคร","NAME_EN":"Mueang Samut Sakhon","NAME_CN":"Mueang Samut Sakhon","COLOR_IDX":1}},{"type":"Polygon","arcs":[[-2,3,4]],"properties":{"CODE":"7402","PARENT":"74","NAME_TH":"กระทุ่มแบน","NAME_EN":"Krathum Baen","NAME_CN":"Krathum Baen","COLOR_IDX":3}},{"type":"Polygon","arcs":[[-4,-1,5]],"properties":{"CODE":"7403","PARENT":"74","NAME_TH":"บ้านแพ้ว","NAME_EN":"Ban Phaeo","NAME_CN":"Ban Phaeo","COLOR_IDX":0}}]}},"arcs":[[[67238,202250],[788,434],[712,467],[915,701],[788,400],[966,434],[1144,501],[1016,501],[890,467],[839,434],[915,534],[1449,768],[1170,501],[1601,767],[2008,902],[2212,1101],[2745,1335],[2441,1235],[864,601],[1093,1102],[1042,968],[738,-67],[1093,-467],[1322,167],[660,867],[611,1135],[940,1302],[1475,234],[1423,167],[839,133],[813,234],[1017,734],[585,868],[1017,1536],[712,834],[1550,267],[1932,-67],[737,34],[1043,334],[711,567],[839,1202],[432,767],[916,902],[737,233],[1474,-133],[1424,0],[762,133],[865,234],[966,367],[1144,501],[1042,634],[1042,735],[814,567],[1347,768],[762,334],[865,267],[1372,400],[1399,234],[1321,300],[1195,301],[1322,367],[1195,467],[890,634],[991,735],[839,534],[839,334],[839,33],[1042,-200],[915,0],[1017,868],[585,1101],[813,935],[763,67],[915,-101],[1169,67],[1271,501],[1322,667],[890,334],[1093,401],[2211,701],[1882,734],[1830,701],[4626,1769],[4068,1335],[4830,1836],[3330,1269],[1017,367],[3025,1068],[686,234],[2898,1101],[3991,1502],[4042,1569],[7753,2838],[992,467],[1144,534],[838,300],[1043,0],[1500,-1134],[686,-668],[635,-668],[1348,-1001],[889,-367],[1170,-234],[686,-67],[966,-66],[1525,-34],[1348,-167],[788,-467],[737,-801],[839,-668],[686,-434],[763,-534],[1093,-667],[737,-368],[1398,-634],[1093,434],[839,1168],[280,1703],[-26,1035],[356,1335],[204,1435],[-26,1135],[-229,1469],[178,1535],[687,501],[966,1135],[686,334],[1500,300],[661,868],[1347,-200],[890,-468],[483,-634],[1347,1369],[-483,1502],[-585,1936],[-50,1001],[305,1436],[178,667],[-458,1703],[-813,1168],[-102,1903],[1017,1635],[1449,2036],[305,1202],[229,835],[686,2336],[2847,434],[-763,2136],[-330,2471],[585,1902],[305,1035],[1652,1569],[534,-67],[51,234],[1550,434],[1653,300],[991,1102],[458,1769],[381,4706],[636,4039],[1321,2571],[1195,5474],[1627,-534],[610,-267],[1170,-1369],[1042,-1201],[2237,-2571],[2720,-1735],[254,-1235],[2262,-1336],[509,-66],[1093,667],[4703,6910],[508,1435],[1220,1102],[966,1335],[890,968],[636,634],[533,1369],[992,1302],[661,867],[1017,1503],[635,934],[1017,1302],[585,1235],[584,601],[280,1335],[1296,835],[534,968],[763,1669],[635,968],[966,1034],[1093,1269],[1043,634],[1169,1202],[1042,1068],[560,634],[762,668],[1449,567],[509,401],[1042,500],[991,1202],[915,935],[839,701],[1373,1001],[1296,901],[636,1069],[559,600],[839,802],[1195,200],[1195,567],[711,1102],[712,701],[636,1168],[915,701],[839,568],[991,534],[636,1068],[839,734],[1474,568],[941,834],[991,1302],[737,1068],[331,1168],[1372,368],[1144,1402],[356,634],[1907,-234],[1093,-100],[1398,133],[1220,468],[941,901],[559,868],[1017,2236],[483,1169],[483,1302],[508,1936],[331,1301],[533,1770],[636,867],[1118,668],[1348,200],[1220,-500],[686,-601],[1195,-1335],[788,-802],[814,-767],[940,-568],[1322,835],[458,667],[737,1436],[661,1335],[839,1636],[966,767],[1423,-67],[839,735],[636,534],[991,768],[737,667],[636,868],[737,1035],[712,1302],[-26,1235],[-203,1535],[712,601],[1016,167],[1119,434],[1093,1469],[737,934],[865,1269],[152,1869],[-890,234],[-1093,467],[-737,1202],[585,1468],[457,968],[839,1202],[636,1803],[178,801],[381,1268],[483,1335],[508,802],[483,968],[-381,1402],[-788,734],[-915,1368],[127,1135],[-966,1202],[-178,1936],[509,1402],[-229,1803],[-356,968],[-381,1235],[-178,1569],[-204,1969],[-610,1869],[-763,968],[-1296,-233],[-305,-1369],[-1169,-1235],[-1119,567],[0,1402],[509,1502],[-483,2037],[-763,834],[-737,401],[-1017,-334],[-788,1602],[76,1402],[153,1502],[1423,334],[102,1569],[-1169,1202],[-839,467],[-1271,-467],[-966,767],[-509,1035],[-813,200],[-1398,635],[-1093,-534],[-458,-1069],[-1373,434],[-610,1068],[-305,968],[-407,1469],[-203,2003],[-102,1068],[-152,1736],[-76,1101],[-102,2037],[-254,1535],[-433,1269],[-838,1735],[-1017,1469],[-559,1135],[-280,834],[-381,1336],[-407,1068],[-509,1836],[-610,1001],[-533,735],[-585,867],[-254,1870],[813,467],[712,367],[1296,334],[865,234],[762,300],[966,267],[839,100],[1195,-33],[864,-267],[1500,-200],[864,-234],[1221,-968],[991,-34],[763,-66],[991,-468],[1373,-534],[889,234],[738,-100],[1169,-301],[763,0],[1093,167],[635,-33],[1042,200],[560,334],[1220,467],[712,201],[1042,434],[1017,1034],[381,2370],[-305,3438],[-508,4607],[-483,4907],[-585,6409],[-331,3772],[-254,2737],[-127,1836],[-203,1602],[-254,1469],[-153,1135],[-407,1602],[-305,901],[2059,-167],[3356,-167],[2491,-133],[2390,-100],[1932,-134],[1906,-67],[2822,-100],[1957,-133],[2161,-100],[2212,-134],[2262,-100],[2288,-167],[2339,-100],[2135,-100],[1957,-100],[2059,-67],[3000,-100],[2212,-67],[101,0],[1805,-100],[2441,-100],[2643,-100],[3305,-134],[1907,-33],[2186,-134],[4753,-133],[1246,-34],[25,534],[-432,2404],[-1093,1034],[-890,-166],[-1016,-301],[-1017,-234],[-1042,535],[-534,1602],[-661,1368],[-331,1235],[-203,902],[-330,1402],[-1246,167],[-585,2737],[-584,2503],[-280,1235],[-178,868],[-1271,467],[-1042,-333],[-1297,-67],[-991,100],[-1398,0],[-788,-401],[-1297,-233],[-610,801],[-1118,734],[-1551,-233],[-915,-101],[-966,167],[-915,802],[-560,667],[-889,801],[-610,501],[-890,801],[-636,568],[-1017,934],[-711,634],[457,1936],[966,735],[992,-134],[1271,-167],[1372,34],[1170,1268],[915,501],[915,-401],[661,-467],[1195,-634],[940,400],[890,1135],[686,601],[1195,367],[1525,401],[814,234],[1118,333],[1017,868],[-25,1168],[-127,1636],[305,2003],[813,1035],[1500,767],[1119,568],[966,0],[889,-1369],[1246,-1268],[813,-634],[331,-1069],[102,-1101],[25,-1435],[-1347,-1069],[-687,-1068],[229,-2036],[483,-968],[712,-634],[864,100],[1169,501],[839,834],[1297,401],[915,367],[432,1569],[229,1001],[-26,1703],[1144,1468],[1144,-66],[738,-601],[279,-1803],[585,-1902],[203,-1870],[1017,-667],[686,-368],[1246,-333],[1246,367],[1169,501],[941,433],[1118,635],[1195,1268],[-26,1302],[458,2036],[966,868],[686,401],[1144,66],[483,-1301],[1119,-1336],[1017,-400],[838,334],[1297,567],[966,100],[737,0],[941,-467],[915,-501],[610,-434],[305,-1502],[1373,-968],[788,0],[839,134],[1525,667],[890,1035],[483,1335],[686,668],[839,768],[661,634],[1093,1569],[330,1235],[51,1936],[-102,1435],[-203,1235],[-1220,935],[483,1769],[737,-301],[788,-667],[1322,-568],[864,67],[1500,468],[864,1168],[814,1669],[305,901],[102,1602],[-178,935],[-127,1235],[-788,1569],[-916,467],[-1398,-701],[229,-1201],[-203,-1336],[-992,-167],[-1296,601],[-483,668],[-687,1903],[102,2102],[509,1302],[381,601],[1042,1035],[1271,634],[839,334],[1068,400],[940,201],[737,-768],[1246,-1302],[1042,568],[1093,767],[1882,-4139],[1474,-2904],[864,-1736],[890,-1702],[1424,-2871],[1143,-2236],[1144,-2170],[1017,-2069],[636,-1302],[1449,-2837],[686,-1436],[610,-1201],[1093,-2170],[992,-1970],[1576,-367],[381,1803],[280,1368],[406,1736],[255,1102],[406,1836],[178,968],[509,1936],[254,1135],[1093,1368],[813,-133],[1272,-668],[635,167],[1119,-267],[966,-234],[1499,-67],[839,201],[1170,267],[1550,367],[1119,234],[1195,1135],[711,1068],[915,834],[483,801],[611,935],[762,1435],[941,1335],[610,1135],[813,1035],[432,1235],[890,735],[788,901],[204,868],[483,1836],[737,667],[762,1302],[966,1502],[661,534],[1017,901],[890,1636],[915,668],[1017,1035],[635,534],[483,2703],[-254,1302],[51,2103],[432,1369],[1220,3204],[2034,3639],[2161,2970],[1906,2304],[1449,2169],[788,1436],[636,1936],[457,2804],[509,4439],[178,3438]],[[511617,601875],[3025,-100],[839,67],[1017,-100],[1525,-67],[1169,-133],[788,-201],[1170,-100],[813,-267],[1271,-200],[1322,-301],[1017,34],[1474,-634],[763,-134],[915,-334],[1347,-601],[915,-167],[1297,-433],[1093,-368],[686,-66],[865,-501],[915,-33],[1194,-468],[1373,-467],[1119,-367],[839,-301],[889,-200],[1424,-367],[890,-267],[1194,-434],[661,-167],[1068,-234],[1423,-334],[1068,-267],[610,-133],[1119,-200],[788,66],[864,-133],[1119,-167],[1347,200],[1144,434],[712,267],[1525,334],[1525,334],[1678,367],[1398,300],[1119,-200],[2160,-400],[77,2169],[152,334],[2720,-67],[2847,-66],[382,1268],[279,3638],[661,1669],[229,1369],[483,2871],[330,1569],[2009,-67],[1271,-234],[1576,-501],[1042,-1201],[712,-935],[1220,-167],[991,334],[712,134],[1246,300],[635,267],[1322,100],[1169,-100],[509,768],[76,1302],[686,1001],[1526,-300],[1449,-34],[1347,234],[864,200],[1526,200],[2389,401],[839,167],[966,234],[1271,367],[763,167],[1271,-334],[864,534],[1398,367],[890,134],[1449,1001],[0,-1435],[915,-9080],[1703,-2737],[839,-1736],[6101,1135],[1144,-1468],[1042,0],[1195,0],[2923,1802],[17388,19895],[3025,10414],[1398,7110],[356,1836],[381,2236],[585,3071],[102,768],[330,1869],[254,1402],[356,1836],[763,1035],[1017,-33],[2542,-668],[1373,-200],[1118,-134],[2008,-267],[432,201],[789,4873],[381,2504],[305,534],[2593,-167],[559,-1936],[153,-768],[3050,300],[1246,134],[1652,334],[1220,-134],[839,-334],[1652,-968],[1627,768],[305,267],[2949,-834],[3407,-902],[2796,-233],[2339,-267],[3025,-34],[1067,0],[814,201],[1118,267],[6660,600],[1017,0],[1297,-367],[1525,-467],[1220,-300],[890,100],[1118,400],[966,768],[788,-67],[1068,-133],[915,167],[1780,166],[1372,-968],[687,-200],[813,-634],[992,-501],[1220,-33],[1169,-34],[788,-1034],[-101,-1102],[305,-1268],[991,-334],[1144,100],[686,-234],[1449,501],[1093,434],[839,-100],[992,-200],[1118,-334],[534,-100],[381,1902],[407,2037],[483,2436],[610,3372],[839,4072],[788,-134],[3839,0],[3482,67],[992,1135],[-178,1869],[254,1069],[763,567],[1194,367],[2797,234],[1016,167],[1348,334],[1525,233],[788,134],[1576,67],[890,600],[686,701],[2644,2437],[940,1602],[636,1302],[280,534],[-356,2537],[-305,4640],[-305,2437],[5211,-1335],[2339,2803],[3431,4106],[1399,401],[1321,400],[712,534],[814,1202],[2516,4473],[305,567],[2441,4073],[1449,2036],[3330,3071],[3813,3038],[2669,2203],[2364,233],[1958,201],[4550,367],[1373,33],[12761,2070],[4779,968],[1322,300],[1042,167],[2491,434],[1449,367],[1830,401]],[[822435,718639],[458,100],[3915,834],[381,34],[3356,434],[2313,-100],[305,-1102],[153,-1535],[177,-1903],[77,-1803],[356,-2270],[406,-1802],[382,-1803],[508,-1535],[839,-801],[1779,367],[1577,401],[966,267],[711,133],[890,200],[1347,835],[839,-1202],[76,-1368],[128,-2170],[152,-2670],[153,-1903],[50,-1502],[26,-1269],[51,-1468],[25,-968],[2720,500],[2085,401],[3940,801],[1449,300],[3915,1169],[813,334],[1703,-2304],[1068,1402],[661,-2603],[1373,-4573],[584,-2437],[432,-1903],[941,-234],[686,-100],[1932,167],[280,-2537],[483,-1735],[407,-1402],[330,-1035],[280,-1035],[534,-1402],[355,-768],[712,-1268],[1475,-2203],[1194,-1536],[712,-1135],[382,-1835],[-306,-1536],[331,-1402],[941,-3839],[76,-133],[5033,-4006],[3076,-2870],[712,-668],[2999,-2437],[1678,-34648],[102,-4940],[102,-2905],[76,-934],[-127,-1602],[457,-2137],[763,-3438],[1220,-5241],[203,-1034],[382,-1502],[127,-1135],[-229,-1703],[280,-1535],[25,-968],[0,-1269],[102,-1335],[-26,-935],[26,-1602],[279,-1602],[178,-1335],[331,-1703],[203,-1235],[204,-934],[76,-1335],[178,-2103],[-280,-1569],[-483,-1803],[-76,-1302],[-229,-1669],[229,-767],[330,-1302],[636,-468],[788,-667],[864,-1335],[890,-1669],[1068,-935],[635,-701],[941,-1268],[1169,-968],[890,-768],[788,-1102],[762,-968],[1170,-400],[356,-935],[1042,-868],[1423,-33],[483,-1436],[-50,-1168],[279,-1368],[-686,-1536],[381,-1202],[1195,-1168],[407,-1368],[711,-1436],[77,-1068],[813,-901],[-152,-1135],[889,-1202],[26,-1135],[-737,-1535],[-585,-1302],[25,-1803],[-50,-1535],[635,-1936],[-102,-1335],[51,-1536],[-1017,-1535],[-127,-1636],[687,-834],[-356,-1703],[-687,-1869],[763,-1602],[1042,-968],[763,-301],[864,-534],[763,-1135],[178,-1769],[330,-1135],[-51,-1101],[-1093,-668],[-127,-2103],[890,-634],[559,-1502],[-610,-1703],[458,-1168],[1296,34],[788,-1369],[-254,-1702],[534,-1703],[356,-1001],[1525,-134],[940,-567],[0,-2270],[1043,-1235],[432,-835],[-381,-1301],[50,-1302],[255,-1269],[1016,-1235],[712,-67],[1119,-734],[864,-1135],[1525,-634],[26,-1335],[-687,-1436],[-1093,-467],[-381,-1636],[280,-1201],[533,-1869],[-178,-1336],[-50,-1902],[915,-1235],[101,-1603],[280,-901],[-127,-1335],[-127,-1736],[890,-734],[889,33],[788,-1001],[229,-901],[636,-1336],[305,-534],[737,-1469],[-203,-1368],[-1017,-1335],[330,-1235],[331,-1102],[178,-1068],[330,-1369],[712,-1836],[839,-901],[1093,-868],[-127,-1969],[-26,-2036],[254,-1436],[128,-1168],[1042,-1636],[407,-1435],[-77,-1435],[839,-768],[636,-1268],[228,-1302],[509,-935],[940,-667],[992,33],[915,-267],[1068,-1135],[991,-200],[1322,0],[1373,734],[1245,-935],[560,-667],[1169,233],[1042,768],[1170,-300],[1042,-367],[813,367],[915,834],[1449,-167],[1017,201],[1500,901],[585,567],[1169,2037],[483,1902],[1195,901],[788,-133],[940,-1102],[966,-467],[992,-100],[1245,-401],[865,234],[889,801],[1348,-33],[737,-267],[1322,-301],[2491,1569],[636,134],[1423,-134],[1093,301],[992,1034],[1194,101],[1017,834],[458,801],[-127,1869],[101,1202],[687,1168],[813,-166],[1170,467],[1347,300],[559,-1201],[1246,-334],[813,467],[915,-467],[204,-1402],[-77,-968],[-330,-1135],[-153,-968],[0,-3538],[-228,-1503],[-178,-2102],[-77,-2304],[-152,-1402],[-280,-834],[-229,-1469],[763,-1535],[585,-434],[1347,-835],[1017,-634],[1068,-768],[991,-1502],[1195,-1869],[1093,-1469],[788,-1302],[559,-1135],[890,-1201],[1144,-1436],[635,-1101],[331,-835],[584,-1869],[509,-1903],[305,-968],[127,-1201],[-127,-1469],[-153,-868],[-508,-1569],[-331,-1268],[-177,-1469],[-585,-1802],[-534,-1369],[-610,-1469],[-585,-1635],[-406,-1135],[-916,-1603],[-889,-734],[-636,-300],[-1195,-534],[-1423,-434],[-890,-267],[-1195,-735],[-1042,-934],[-1118,-1202],[-458,-1001],[508,-1569],[-254,-2037],[-483,-1535],[-584,-1836],[-585,-1669],[-1093,-400],[-2263,0],[-584,33],[-2492,-33],[-1728,33],[-6762,33],[-2593,-33],[-2288,-100],[407,-20829],[25,-14888],[51,-2503],[51,-4273],[152,-17424],[77,-6242],[-102,-8245],[51,-5575],[102,-8879],[101,-5741],[153,-10114],[178,-7377],[4804,-27138],[331,-2337],[-6660,-1168],[-1119,-167],[-1779,-134],[-1831,-167],[-1144,234],[-711,901],[-1500,601],[-814,-33],[-788,-468],[-203,-1201],[-1398,-835],[-814,801],[-1347,-934],[-1373,-34],[-1042,101],[-737,0],[-1093,-134],[-1068,-701],[-915,-167],[-788,-834],[-687,-968],[-1093,367],[-1499,-34],[-712,-333],[-610,-1235],[-1068,-1202],[-6355,-167],[-1754,-33],[-712,-34],[-941,1402],[-152,1168],[-941,868],[-661,-300],[-1143,534],[-128,1102],[-355,1902],[-585,968],[-1093,-834],[-1017,-568],[-1322,-66],[-813,-101],[-1195,-267],[-1347,-434],[-2619,-1435],[-1423,-1502],[-1246,-901],[-1449,-601],[-1322,-467],[-1118,66],[-1043,1536],[-1016,1068],[-839,1035],[-1424,367],[-864,-935],[-229,-934],[-356,-1069],[229,-2069],[-102,-2003],[-1372,367],[-814,1102],[-585,501],[-1271,333],[-279,-1335],[-483,-1469],[51,-1869],[-865,-567],[-1118,-134],[-636,234],[-1220,1001],[-1169,-901],[-1144,0],[-1119,-200],[-991,-434],[-941,434],[-508,1235],[25,1068],[-228,1469],[-839,434],[-1017,-34],[-966,-367],[-1678,-100],[-915,-1669],[-1169,601],[-534,834],[-788,401],[-1017,-34],[-712,-100],[-1220,267],[-1602,-133],[-1372,-334],[-534,-100],[-1424,-334],[-1500,-234],[-1296,-367],[-661,-434],[-2466,-233],[-1144,-468],[-813,-267],[-737,-1101],[-636,-1202],[-1220,-367],[-1220,-267],[-788,-768],[-1398,67],[-738,-1002],[-279,-1435],[-1042,-67],[-1195,-33],[-687,-367],[-1449,167],[-1042,767],[-940,-467],[-1093,-300],[-1170,734],[-1932,-100],[-712,667],[-1321,-300],[-814,-200],[-1093,-868],[-1424,-935],[-5694,-1702],[-940,-200],[-5085,-134],[-4524,-133],[-2492,-468],[-889,0],[-1297,-67],[-1017,-333],[-711,1001],[-1271,801],[-966,-100],[-890,-234],[-1042,-167],[-1475,-133],[-1118,-67],[-1170,0],[-864,-167],[-763,-500],[-762,-1169],[-865,267],[-940,401],[-458,701],[-1296,0],[-1474,-501],[-814,-300],[-1271,-34],[-1220,167],[-788,201],[-915,233],[-712,568],[-1475,0],[-1499,-735],[-2212,-133],[-280,0],[-2160,33],[-127,0],[-2365,67],[-1067,234],[-1500,300],[-2644,601],[-1500,167],[-991,100],[-991,968],[-789,801],[-610,1435],[-1042,1035],[-1373,1068],[-991,534],[-864,301],[-992,-401],[-711,-1235],[-636,-1368],[305,-1569],[-229,-1202],[-1372,-1135],[-1246,501],[-763,133],[-889,67],[-916,-100],[-813,167],[-1678,1969],[-457,868],[-585,1235],[-1169,1035],[-1348,-334],[-279,-734],[-992,-768],[-1423,501],[-865,-467],[-1016,0],[-865,367],[-1093,767],[-2669,501],[-3228,1035],[-1856,567],[-1042,301],[-1246,300],[-1220,601],[-992,568],[-788,600],[-915,1035],[-1423,701],[-1043,134],[-813,0],[-1119,400],[-991,468],[-839,600],[-1220,67],[-712,568],[-1169,233],[-864,-100],[-992,234],[-966,200],[-864,100],[-763,467],[-813,535],[-814,400],[-762,668],[-890,334],[-1119,534],[-864,400],[-890,601],[-610,701],[-1144,868],[-1957,701],[-1703,868],[-1525,934],[-1144,902],[-915,500],[-1348,434],[-940,968],[-2034,701],[-991,67],[-1576,367],[-1373,634],[-915,1135],[-610,1035],[-1170,768],[-1271,400],[-661,267],[-1322,568],[-584,234],[-1144,767],[-2390,1903],[-2313,935],[-4093,2870],[-3864,2571],[-2288,801],[-5490,4806],[-26,34],[-661,567],[-10727,7711],[-5288,3438],[-1652,1002],[-1297,1034],[-2288,1770],[-1321,1134],[-712,668],[-966,1435],[-992,1336],[-17260,-5108],[25,-1936],[-1093,-534],[-915,167],[-508,-1201],[-839,-1469],[-1119,-2904],[-2084,-8779],[-560,-2303],[-101,-701],[-1068,-6777],[-941,-6742],[-25,-134],[-661,-5174],[-152,-1168],[-2415,-8512],[-77,-133],[-1881,-3305],[-2084,-3672],[-2085,-3204],[-940,-1402],[-204,-368],[-1525,-2837],[-559,-1001],[-559,-1035],[-560,-1001],[-1220,-1469],[-763,-901],[-1703,-2070],[-2516,-2069],[-4856,-5708],[-3152,-3105],[-712,-667],[-4982,-2704],[-3127,-2437],[-1347,-1268],[-229,-201],[-2491,-1569],[-661,-300],[-1627,-501],[-585,0],[-1245,0],[-2263,-1836],[-915,-767],[-813,-468],[-2466,-1435],[-153,-67],[-2364,-1068],[-1500,-667],[-991,-201],[-737,-200],[-1729,-1001],[-1296,0],[-966,-1102],[-1348,-868],[-2084,-1469],[0,-1769],[76,-1235],[-940,-1001],[-1144,-234],[-1144,3605],[-610,935],[-3127,-401],[-915,-1168],[-1017,300],[-890,1035],[-559,334],[-1195,-200],[-940,-668],[-1093,-801],[-839,-634],[-661,-1669],[-1271,67],[-788,166],[-1348,-66],[-1118,-201],[-687,-66],[-1576,-234],[-1169,801],[-686,935],[-1195,200],[-280,-1235],[-813,-434],[-1144,-1369],[-1042,-1435],[-1017,-234],[-2390,401],[-406,67],[-4119,500],[-3736,-66],[-865,-267],[-1525,-434],[-610,-835],[-585,-968],[-406,-1068],[-356,-935],[-763,-2002],[-1195,-1569],[-686,-1536],[407,-1535],[178,-1970],[-966,-634],[-1500,67],[-1170,1035],[-1627,3204],[-1474,200],[-686,701],[-966,802],[-763,-1169],[-737,-1068],[-890,-1001],[-915,-267],[-763,1402],[-635,1034],[-966,-834],[-178,-968],[178,-1636],[457,-1101],[483,-1402],[585,-1336],[509,-1602],[101,-1902],[-1220,-401],[-1322,-401],[-1296,0],[-585,-433],[-991,-201],[-814,-33],[-1093,100],[-864,1602],[-1119,-233],[-1042,-234],[-2847,-467],[-585,-301],[-534,-1435],[-50,-1536],[-1221,-767],[-2237,-968],[-2135,100],[-636,400],[-1499,902],[-1043,0],[-9609,-3372],[-101,-167],[-1881,-667],[-1449,-501],[-1170,134],[737,-2905],[407,-1936],[-407,-734],[-3533,-1669],[-458,801],[-330,1636],[-890,4239],[-1067,-167],[-890,-634],[-1170,-234],[-1525,234],[-940,334],[-1170,-768],[-1169,-434],[-915,-334],[-407,-1235],[-635,-567],[-178,-1536],[584,-1869],[-1169,-601],[-1017,-334],[-864,-200],[-788,-234],[-1170,-267],[-1169,1102],[-1068,1435],[-1093,301],[-889,-267],[-661,-601],[-788,-1235],[-712,-334],[-1271,-601],[-1119,234],[-635,1268],[-915,0],[-839,-133],[-1017,167],[-661,-268],[-890,-567],[-1144,-1502],[-762,-1102],[-534,-1101],[-458,-668],[-279,-1302],[-1119,-333],[-890,33],[-1347,200],[-1118,34],[-77,1402],[0,934],[-1016,801],[-890,-333],[-1398,-334],[0,-1602],[178,-868],[228,-1369],[-584,-768],[-1220,534],[-585,601],[-686,768],[-1170,-234],[-661,-100],[-1576,0],[-864,601],[-1017,-267],[-991,-434],[-534,-1469],[-432,-1435],[-483,-1068],[-458,-1235],[-381,-1636],[-1907,-400],[-1576,0],[-5160,-2270],[-2390,-835],[-1551,167],[-737,34],[-1220,-1069],[-1373,-901],[-2847,-834],[-1195,-835],[-3940,-1469],[-457,468],[-636,1602],[-1169,901],[-610,-1669],[0,-1168],[-1043,-801],[-584,-67],[-1246,334],[-1195,-434],[-1093,167],[-1322,167],[-508,-1703],[-686,-367],[-1551,-67],[-788,-1268],[-1500,-467],[-712,-301],[-2542,-901],[-406,1402],[-483,2871],[-1424,0],[-508,-468],[-992,-1035],[-966,-767],[-712,-935],[-279,-1535],[-1347,-1169],[-1195,-934],[-636,-334],[-1067,-267],[-1551,-367],[-1347,-134],[-1449,-400],[-2085,-635],[-1322,-400],[-1118,-334],[-1398,334],[-1399,-200],[-1550,-401],[-2263,-935],[-686,-601],[-559,-867],[-204,-1069],[-1296,-634],[-915,-334],[-915,-300],[-1271,234],[-941,-468],[-1068,-1001],[-1093,-401],[-1601,-367],[-890,634],[-1042,-767],[-814,-601],[-889,167],[-738,-167],[-788,1502],[-1245,300],[-407,-1201],[-1627,-935],[-1093,-968],[-991,-701],[-1271,-100],[-763,-568],[-1347,-667],[-1271,-968],[-916,-835],[-1067,-233],[-1297,133],[-711,801],[-128,1068],[-559,1235],[-1220,-200],[-1398,-400],[-1144,-668],[254,-1802],[-813,-501],[-636,-735],[-203,-1902],[-1246,-701],[-991,-334],[-1322,-501],[-331,534],[-915,2404],[-1347,-901],[610,-1770],[-534,-701],[-940,-867],[-1170,-67],[-1322,-668],[-1067,-133],[-687,-301],[-1093,-434],[-839,-434],[-1194,-33],[-1195,-1168],[-1093,-167],[-534,-701],[-915,-668],[-1119,367],[-686,-233],[-1169,-1235],[-992,-267],[-712,-167],[-940,333],[-1398,-467],[-178,-1101],[-1703,-701],[-1093,-434],[-1144,-367],[-1119,-535],[-4245,-1969],[-737,-334],[-3330,-1569],[-966,301],[-763,-401],[-763,-701],[-1525,-601],[-788,134],[-1169,-634],[-1500,-635],[-1322,-901],[-1195,-467],[-762,534],[-916,968],[-1271,-467],[-838,767],[-1449,-300],[-865,-1135],[509,-1168],[-255,-1235],[-1067,-501],[-737,-367],[-839,-367],[-1373,-568],[-1169,568],[-839,133],[-712,-1402],[-941,-1201],[-889,701],[-458,1702],[-1373,367],[-762,-868],[-1017,-1068],[-1042,-901],[-1500,-334],[-737,1001],[-865,-133],[-1347,-1002],[-940,-433],[-636,-434],[-661,-1402],[-712,-1002],[-737,-500],[-1144,634],[-1144,1201],[-1245,-500],[-788,-1002],[-229,-934],[-712,-1803],[-1068,-634],[-228,-1335],[-890,-434],[-1068,-468],[-1093,-333],[-1373,-601],[-1144,-534],[-711,-267],[-1704,-801],[-1118,-368],[-966,-100],[-915,434],[-814,134],[-1169,-100],[-991,-802],[-1297,234],[-610,968],[-1093,301],[-814,-635],[-1347,134],[559,-2136],[-508,-1836],[-1271,200],[-966,167],[-585,-1002],[-1118,-867],[-636,-701],[-788,-968],[-1067,-167],[-1322,-334],[-1043,-601],[-915,-434],[-1144,-501],[-762,-434],[-1144,-367],[-687,-167],[-965,-467],[-1272,-401],[-1347,-233],[-890,-1235],[-1067,-968],[-763,-401],[-1449,-434],[-2135,-868],[-1170,-534],[-940,-601],[-737,-267],[-1144,-500],[-1475,-635],[-1220,-567],[-1322,-634],[-1906,-768],[-992,-267],[-1449,935],[-737,333],[-1017,134],[-1042,-467],[-1144,-635],[-584,-500],[-1526,-568],[-864,1135],[-1296,-868],[-636,-1201],[-941,-735],[-305,-1168],[-940,-234],[-1347,334],[-890,1102],[-1424,-267],[-813,-1736],[-2161,-735],[-585,-600],[-889,-334],[-1093,-1269],[-1043,-233],[-839,-201],[-838,-300],[-941,-267],[-1042,-1001],[-1043,-1035],[-864,-1135],[-686,-701],[-1322,-434],[-814,-434],[-813,-267],[-1296,-668],[-865,-367],[-1220,-367],[-1118,401],[-255,1535],[-432,1569],[-330,1235],[-356,1602],[-305,1569],[-280,1435],[-305,1369],[-381,1369],[76,1201],[254,1936],[204,5007],[50,735],[153,1936],[178,3271],[127,1669],[305,4273],[229,2670],[127,2537],[152,1502],[77,1702],[-356,1669],[-254,1402],[-458,2037],[-661,3304],[-635,2871],[-178,968],[-560,2904],[-711,3905],[-331,1603],[-508,2370],[-610,2904],[-356,1669],[-178,968],[-356,1802],[-229,1168],[-457,1536],[-305,1736],[-458,2270],[-178,968],[-280,1335],[-406,1769],[-229,1135],[-381,1602],[-255,1202],[-279,1535],[-382,1903],[-432,1903],[-152,634],[-280,1535],[-305,1870],[-483,1902],[-280,1202],[-483,2337],[-838,1702],[0,1969],[-992,1669],[-1068,2103],[-1169,2270],[-712,1469],[-584,1001],[-712,1335],[-458,935],[-711,1269],[-560,1001],[-610,1202],[-635,1135],[-483,901],[-1017,2036],[-458,901],[-1830,3472],[-1119,2203],[-864,1535],[-762,1402],[-636,1269],[-508,1034],[-5695,11016],[-101,167],[-5389,10448],[-611,1168],[-406,801],[-712,1369],[-1474,2770],[-1272,2470],[-686,1302],[-712,1302],[-839,1669],[-991,1903],[-585,1135],[-508,1135],[-788,1335],[-585,934],[-610,1202],[-356,734],[-1169,2370],[-432,802],[-1678,3071],[-458,801],[-661,1201],[-737,1336],[-711,1201],[-534,1035],[-661,1268],[-1220,2804],[-509,1436],[-559,1368],[-763,1536],[-635,868],[-839,767],[-814,534],[-101,1836],[-483,902]],[[511617,601875],[-102,7611],[432,13285],[-127,13820],[-1551,13519],[-1372,3872],[-4169,3838],[-5364,-200],[-6381,-3538],[-5567,-1502],[-4779,-234],[-4779,1302],[-2161,4373],[-1779,6375],[127,3672],[102,2971],[1220,6909],[3406,3305],[4373,467],[4575,-1034],[4551,-3872],[5770,-4373],[5745,-1569],[5364,-33],[4194,1502],[2593,1769],[4601,5841],[3610,10715],[661,13018],[51,10215],[-356,3338],[-813,8178],[-687,1235],[-1678,3104],[-2440,1603],[-1118,734],[-2060,-835],[-4118,-1702],[-4601,-5074],[-6787,-6075],[-5999,-4807],[-5974,-2002],[-5949,2570],[-4753,4640],[-3356,5908],[-407,1402],[-2847,4439],[-6609,-2336],[-5618,-2804],[-686,1068],[-2415,1903],[762,5007],[356,3404],[102,935],[457,4540],[585,1268],[178,668],[330,10381],[-1042,300],[-686,134],[-1017,200],[-1195,67],[-1373,0],[-1906,-167],[-1220,-133],[-3585,-201],[-2135,-200],[-1347,-134],[-2263,-467],[839,9981],[-1601,701],[-661,300],[-1398,601],[-3381,1502],[-4118,1936],[-687,401],[-1881,1235],[-1068,734],[-813,434],[-1602,968],[-1347,801],[-635,267],[-1805,801],[-1373,534],[-991,368],[-890,467],[-788,668],[-1119,934],[-1042,901],[-1093,1135],[-839,902],[-102,868],[458,3538],[-788,667],[-3457,1770],[-610,267],[-1576,500],[-2339,668],[-1525,534],[-1500,668],[-1830,767],[-458,301],[-2313,2236],[-2009,1903],[-1474,1402],[-661,667],[-737,635],[-788,734],[-814,1001],[-686,735],[-1246,1302],[-661,767],[-1271,1603],[-813,901],[-712,868],[-559,701],[-1068,1368],[-813,1035],[-1068,1435],[-661,935],[-864,935],[-381,434],[-610,1402],[-687,1902],[-534,1603],[-381,1201],[-305,801],[-686,1402],[-992,1035],[-712,701],[-1296,1268],[-1017,1002],[-686,667],[-814,835],[-508,634],[-839,1135],[-712,668],[-1017,734],[-889,568],[-1602,1168],[-1169,1068],[839,1369],[813,1335],[712,1335],[737,834],[3254,3472],[1703,2036],[305,468],[636,1301],[406,1035],[-635,1168],[-991,1069],[-890,1201],[-1653,2237],[-1067,1235]],[[367685,852593],[1220,534],[839,701],[737,834],[915,1536],[432,1135],[585,1535],[432,801],[1093,234],[814,-167],[737,-1202],[1017,-1001],[737,801],[610,2303],[458,1636],[457,1235],[585,1636],[737,801],[-51,1969],[51,1469],[356,868],[-102,1302],[-152,901],[534,1435],[584,701],[483,1769],[687,1035],[1296,401],[814,434],[1118,1068],[1093,100],[814,-200],[1576,467],[966,634],[889,-1068],[1221,-33],[1322,734],[508,567],[1042,-901],[381,-1402],[611,-868],[457,-1936],[381,-1569],[306,-834],[203,-1502],[178,-2070],[381,-1135],[585,-1235],[457,-1201],[712,-2170],[381,-868],[865,-2403],[889,-2237],[1195,-2971],[1093,-2670],[661,-1769],[178,-501],[1653,-4373],[1652,-4205],[788,-2204],[839,-2136],[839,-2170],[1957,-4673],[2746,2871],[6812,-2403],[127,-34],[3356,0],[4194,5274],[966,2270],[3152,1235],[3000,1135],[127,67],[1907,968],[1322,567],[635,234],[1347,400],[1983,201],[1043,100],[1525,601],[1271,734],[610,334],[890,834],[661,768],[508,835],[3025,3838],[1169,1903],[1322,-835],[1983,3472],[992,2170],[889,167],[1348,400],[889,2103],[585,1536],[356,867],[483,1269],[407,701],[889,1402],[1500,-801],[966,-534],[1017,-534],[1525,-868],[534,-367],[941,-1369],[101,-1469],[-1601,-634],[-737,-1502],[711,-2070],[483,-1068],[1220,1002],[20998,-768],[8796,-301],[203,0],[330,-934],[1475,-3438],[178,-67],[1550,701],[839,-1769],[585,-1803],[-1373,-1101],[-51,-134],[2161,-4406],[1347,-734],[-508,-1436],[458,-1735],[-255,-1236],[255,-2536],[610,-8312],[203,67],[3889,2670],[4144,2871],[7702,5274],[5085,3672],[4702,3204],[1526,1235],[3609,2470],[1271,801],[2314,1503],[330,-67],[2542,-6109],[636,-1569],[3889,-9646],[203,0],[7474,5073],[11897,8045],[1068,667],[1398,568],[2288,-234],[1398,-100],[1728,-67],[865,668],[1449,4339],[661,1069],[1576,133],[3177,-1969],[2364,-1469],[661,33],[966,1102],[2136,3438],[1042,2503],[153,501],[330,1803],[153,1769],[-77,2403],[-381,1836],[-483,1369],[991,667],[966,334],[992,301],[1398,968],[966,-101],[737,-367],[941,-434],[1245,-734],[1424,-1001],[1169,-368],[737,-33],[1017,0],[941,-568],[1500,-834],[1144,-534],[889,-33],[1475,-835],[737,-968],[635,-434],[1093,-200],[738,-67],[1627,67],[1016,233],[1144,234],[839,200],[737,434],[636,1102],[788,601],[763,467],[1042,501],[1296,968],[966,734],[687,501],[991,934],[1907,1469],[1016,901],[483,601],[839,968],[712,935],[941,1502],[279,901],[737,1135],[1195,1202],[687,1268],[152,1135],[381,968],[407,1135],[534,1970],[534,901],[76,1202],[381,1368],[153,1002],[152,1702],[128,1402],[610,1969],[1093,167],[737,-200],[991,-200],[687,233],[1194,167],[1424,100],[1296,-300],[789,-100],[1474,-34],[1144,201],[712,267],[889,634],[839,567],[2797,1302],[2669,1102],[1245,400],[1297,401],[-610,3138],[-127,634],[-509,1535],[-229,1169],[-559,2970],[-1220,201],[-432,100],[-1246,501],[-508,66],[-2593,635],[356,1535],[76,901],[-153,1235],[-203,2003],[-76,1002],[-178,2737],[432,4072],[3635,-701],[1017,8579],[-3635,667],[305,3038],[25,33],[229,2437],[203,2036],[128,1636],[305,2604],[584,166],[3076,835],[1017,1235],[-76,2403],[-331,1502],[-559,1302],[-305,634],[-559,1436],[-204,1235],[-330,1636],[-178,1001],[-1246,100],[-1855,-100],[-1881,300],[101,1769],[305,5775],[1881,-67],[229,201],[1322,2436],[1144,67],[1779,100],[2670,67],[838,-67],[1602,-133],[1424,300],[533,1235],[77,1269],[25,1001],[102,1335],[305,1402],[584,768],[611,768],[610,1101],[1220,1069],[2262,1368],[1297,668],[3482,100],[1856,-3004],[1856,-3038],[5084,3505],[940,-167],[814,-2337],[1754,-5007],[203,-4506],[2136,634],[4677,1269],[2390,367],[2516,-33],[1017,33],[1652,701],[356,1302],[-381,1635],[-1042,902],[-2619,6075],[-940,-501],[-2847,6509],[610,868],[1296,401],[712,-301],[1856,-467],[1805,-501],[737,-233],[1347,-434],[1017,-267],[813,-134],[1297,-133],[1525,233],[992,501],[610,567],[1042,1369],[-636,1369],[-381,1468],[-152,1235],[-51,1936],[-26,1803],[127,4373],[1094,868],[1194,634],[3178,1335],[813,-1268],[127,-1770],[128,-1335],[76,-1802],[51,-1703],[-77,-968],[153,-1502],[1144,134],[1245,300],[992,-734],[4143,1435],[585,-634],[1246,-33],[1601,1001],[2161,1168],[3355,1169],[229,-1836],[254,-2437],[102,-801],[305,-1970],[153,-2103],[6253,368],[559,133],[1297,568],[2974,1702],[864,-3872],[3763,1001],[940,-4840],[3712,735],[406,-5008],[1831,568],[1550,334],[3686,767],[1144,2404],[1195,634],[1144,1001],[1703,501],[1042,267],[1170,768],[1093,734],[330,201],[2237,1001],[1399,2303],[3101,234],[432,-1002],[737,-1702],[382,-834],[533,-1035],[534,-1102],[509,-968],[584,-968],[560,-701],[940,-734],[1144,-1269],[763,-1068],[584,-801],[687,-1168],[584,-1636],[-533,-1101],[-407,-868],[534,-2003],[635,-300],[1068,-468],[991,-434],[839,-1535],[559,-968],[407,-1202],[483,-1368],[458,-1970],[-1271,-901],[-1068,-801],[-737,-801],[-1093,-1069],[-839,-934],[-865,-1569],[-1093,0],[-1245,901],[-1017,1102],[-458,1101],[-508,935],[-432,1102],[-432,1235],[-1017,701],[-1042,-468],[-916,-434],[-1703,-1468],[560,-1302],[635,-1135],[483,-1903],[127,-1702],[432,-1536],[305,-1869],[127,-1435],[0,-1068],[-50,-1503],[-128,-1001],[-305,-1569],[-203,-1936],[51,-1101],[25,-1603],[-686,-1502],[-534,-1068],[-407,-834],[-305,-1269],[-305,-1202],[-228,-1769],[-153,-1869],[-305,-2270],[508,-3171],[102,-3605],[-407,-2170],[-2872,-567],[-992,-467],[-228,-1336],[864,-2670],[483,-1369],[432,-1635],[102,-768],[203,-1903],[356,-3738],[330,-3238],[305,-3004],[204,-1436],[203,-801],[407,-1268],[-102,-2137],[-51,-1936],[77,-1402],[254,-2069],[203,-1569],[229,-2437],[76,-868],[153,-1602],[178,-1068],[279,-1402],[433,-1969],[25,-100],[635,-2237],[509,-2303],[102,-467],[533,-2404],[611,-2670],[305,-1669],[-102,-1035],[-280,-1602],[-203,-1068],[-153,-1536],[0,-1202],[255,-1335],[635,-1402],[1144,-2470],[178,-400],[915,-1970],[1119,-2403],[915,-2003],[661,-1369],[305,-1068],[915,-901],[1246,434],[1881,668],[178,-368],[381,-1702],[407,-1969],[610,-2971],[203,-935],[407,-5241],[102,-1135],[228,-2937],[26,-434],[178,-2537],[178,-2336],[178,-2037],[152,-1368],[458,-1536],[533,-1869],[280,-2403],[127,-635],[839,-1301],[661,-1035],[432,-1068],[51,-1169],[-51,-2770],[153,-1636],[228,-1101],[229,-1235],[254,-968],[331,-1302],[330,-2036],[407,-1569],[331,-1235],[381,-1669],[203,-1068],[127,-1469],[-483,-1836],[-254,-1335],[-203,-1870],[-204,-1435],[-559,-1302],[-864,-801],[-1093,-1268],[-305,-1135],[-305,-1569],[-356,-1969],[-127,-1102],[-102,-1202],[-51,-1669],[26,-1135],[1042,-100],[1017,-33],[1118,-34],[687,34],[1347,-67],[1373,33],[1016,-100],[1373,-267],[890,-66],[1449,-101],[1017,-133],[1423,-100],[1424,133],[1195,601],[813,534],[763,467],[1016,368],[26,-1135],[51,-1536],[-26,-1035],[-25,-1602],[0,-1035],[0,-1635],[0,-1536],[-407,-934],[-178,-1936],[-101,-1369],[-153,-1636],[-127,-1435],[-153,-1602],[-76,-868],[-1423,-1235],[-1144,67],[-1195,33],[-432,-968],[889,-7043],[356,-2671],[356,-2737],[1703,-1235],[1780,468],[1220,-735],[127,-1201],[890,-2437],[686,67],[941,66],[890,-901],[-51,-1268],[0,-1002],[-51,-1268],[-26,-1369],[-25,-1402],[508,-1802],[814,-34],[940,-33],[814,-33],[864,0],[381,-1569]],[[67238,202250],[-458,834],[-813,1102],[-610,600],[-738,1135],[-508,1402],[-483,1035],[-991,1669],[-839,1502],[-483,1302],[-382,1435],[-711,1135],[-636,534],[-534,1002],[-254,1335],[-737,1669],[-636,1302],[-457,834],[-534,902],[-534,1435],[-534,1235],[-635,1168],[-661,1536],[-305,934],[-737,1803],[-560,1469],[-254,1201],[-635,1202],[-611,968],[-483,1569],[26,1202],[-992,1034],[-1042,-701],[-1067,-100],[-483,1636],[-966,1235],[-839,33],[-941,735],[-712,1535],[-1474,735],[-1424,166],[-1474,0],[-76,1603],[254,1402],[508,1368],[483,1569],[-940,1335],[-432,1169],[152,1635],[-102,1369],[128,1168],[305,1636],[610,1602],[229,1335],[-1297,467],[-1347,-634],[-1246,634],[-915,802],[-1169,-134],[-712,-300],[-1271,-434],[-1220,667],[-127,1135],[-992,701],[-1169,-233],[-788,1268],[-1297,768],[-1169,-668],[-1195,-1001],[-1347,233],[-1144,534],[-1525,368],[-1195,600],[-890,1135],[-1118,1603],[-1144,1001],[-1068,167],[-813,-234],[-1322,935],[-585,901],[-890,-33],[-1322,-367],[-330,1435],[25,1235],[-533,1669],[-738,-334],[-1220,-467],[-330,1435],[-610,568],[101,1468],[483,768],[585,901],[-76,1569],[-865,868],[-889,434],[-534,1035],[152,1235],[661,1636],[-76,1301],[-330,1669],[25,1369],[-178,1001],[-483,1302],[-1068,768],[-966,1068],[-305,2003],[204,1335],[254,968],[-407,1269],[-178,867],[-432,1169],[-559,901],[-585,1302],[-534,1268],[-203,1402],[153,768],[50,1903],[1221,1235],[1093,734],[584,901],[-101,1636],[-26,1702],[839,835],[712,434],[1017,267],[889,233],[1043,234],[1144,134],[915,33],[762,-133],[941,-201],[839,1202],[254,1035],[508,1502],[26,1836],[-51,1402],[76,1702],[178,1536],[407,1969],[-1017,868],[-864,467],[-102,1636],[-966,734],[-788,-267],[-890,901],[-381,1803],[-991,1402],[-356,1736],[76,1301],[-1042,1336],[-610,1001],[203,1536],[941,734],[915,734],[635,1202],[738,1769],[482,1369],[611,400],[1144,868],[686,1569],[1093,434],[1296,467],[865,301],[1500,167],[966,133],[915,968],[813,1202],[788,1068],[585,968],[610,1202],[407,500],[991,768],[941,568],[610,433],[1296,902],[1322,667],[1729,868],[1576,768],[635,501],[661,801],[1653,901],[864,267],[1195,401],[1957,901],[1576,935],[2898,7143],[941,3338],[50,434],[814,6375],[610,5441],[254,3872],[-127,9414],[-127,15521],[-229,3305],[-305,4573],[-1067,3672],[-1856,7377],[4474,2971],[3966,2603],[0,34],[-1373,4205],[-737,2270],[-433,1336],[-864,2637],[-839,2370],[-686,2236],[-636,2136],[-610,2203],[-483,1903],[-610,2971],[-559,2670],[-254,868],[-382,1369],[-432,1235],[-432,1035],[-737,1435],[-254,701],[-814,2837],[-559,1803],[-483,1702],[-661,2837],[-381,1669],[-356,1703],[-204,1201],[-406,2537],[-254,1169],[-636,2804],[-483,2403],[-661,3004],[-534,1269],[-1398,-101],[-203,1669],[-229,2404],[-356,2904],[-508,1936],[-890,1435],[-407,1202],[-1525,5274],[-51,134],[509,233],[7295,1836],[-432,2804],[-457,2370],[-661,968],[-483,3271],[-839,5007],[-229,1402],[-229,1369],[-127,1869],[-152,4072],[-178,3138],[-77,2637],[26,4506],[3050,-100],[712,-33],[4601,1502],[763,267],[813,434],[839,1035],[381,968],[-127,1635],[-915,1836],[-991,2003],[-1042,2003],[-102,167],[-1475,3471],[-279,1102],[-153,1135],[77,1202],[76,1168],[76,2170],[-407,1535],[-864,1402],[-1678,2203],[-2059,2971],[-330,601],[-407,1535],[-432,2070],[-585,1669],[-483,1001],[-635,1035],[-865,1235],[-915,1135],[-1220,1535],[-1118,1235],[-814,1069],[-839,1502],[-890,1068],[-508,567],[-1118,1035],[-1449,835],[-1068,634],[-585,534],[-940,1035],[-661,1035],[-280,968],[-76,1134],[-76,1135],[-77,1569],[-330,935],[-585,968],[-508,935],[-763,1301],[-788,1336],[-585,968],[-864,1335],[1398,901],[992,701],[1754,1369],[864,634],[1424,901],[1398,-234],[610,-1568],[788,-2070],[483,-567],[1423,1034],[1144,835],[941,667],[1068,701],[1169,-634],[585,-1502],[559,-1435],[483,-301],[1245,801],[1144,701],[1678,1202],[941,401],[864,567],[1246,868],[1576,1102],[1245,867],[839,568],[1551,1035],[1195,-401],[991,-100],[864,267],[941,300],[813,234],[1093,434],[1094,467],[1067,568],[941,667],[889,1002],[560,934],[432,1402],[305,2070],[1093,1235],[1144,1102],[991,1034],[560,1069],[1296,1168],[1119,234],[788,200],[1245,434],[1449,500],[1093,301],[839,-1536],[1195,-1068],[1525,167],[992,200],[915,267],[1067,1402],[-76,1002],[-76,1268],[-178,1669],[-305,1903],[-305,1469],[-331,1368],[-152,1102],[508,1502],[483,1268],[509,1135],[330,1402],[127,1769],[-25,1302],[-26,901],[-203,1436],[-203,1569],[-890,1368],[-1144,1436],[-839,901],[-813,1368],[-204,1069],[763,1301],[1322,334],[839,734],[559,568],[839,834],[991,1369],[560,901],[559,1502],[432,1235],[457,835],[1017,1202],[915,934],[1017,868],[915,735],[712,667],[814,1235],[686,1769],[280,968],[381,1269],[280,1702],[152,1002],[636,1502],[457,801],[229,1201],[51,1836],[-305,1436],[25,834],[127,1402],[0,1869],[-127,1569],[-101,1002],[0,1535],[-26,1836],[-915,1302],[-763,534],[-762,1502],[-356,1435],[-254,1369],[-102,1068],[-178,1569],[-76,1202],[-77,934],[-127,1436],[-76,834],[-102,1302],[-127,1669],[-178,1202],[77,1502],[432,1936],[152,1569],[-356,2003],[-305,1201],[-127,1135],[178,1435],[356,1703],[458,1869],[432,1569],[483,1102],[584,1435],[560,1869],[0,1235],[-407,2036],[203,1336],[1043,801],[762,267],[1017,334],[483,767],[483,1402],[254,1269],[483,1902],[534,1669],[381,835],[560,1502],[305,868],[330,1101],[432,1603],[356,1268],[229,1302],[-51,1535],[-203,1135],[-559,1836],[-356,1169],[-280,1535],[-76,868],[-204,1569],[26,1235],[178,-67],[3432,-734],[1449,-534],[1398,-67],[889,33],[966,434],[941,-67],[864,-66],[839,167],[1246,500],[966,434],[839,401],[1322,534],[1016,-200],[1449,667],[2949,-701],[1322,-167],[381,-67],[3000,-634],[330,-1669],[102,-2069],[636,-334],[1245,67],[2390,133],[1754,100],[3508,234],[3559,33],[127,-2136],[254,-300],[2034,367],[813,-534],[-25,-1369],[76,-1903],[305,268],[5135,567],[610,0],[2110,234],[941,-301],[1271,-601],[2313,-634],[1627,-133],[407,0],[3635,-167],[991,-2337],[2110,-7243],[864,-3338],[610,-2237],[306,-1168],[1271,-5207],[17031,7710],[4068,-8979],[4982,2137],[7270,3638],[1653,-1536],[1881,-1635],[941,-1436],[838,-1468],[788,-901],[789,-601],[1499,-468],[1678,-434],[2440,-667],[1297,-200],[1017,-201],[1169,501],[1119,567],[5516,2804],[6406,3205],[1423,934],[6432,2270],[585,201],[1525,534],[4779,1635],[2949,401],[9507,2236],[-280,902],[-991,3905],[-1627,5908],[-1347,5208],[-1424,5340],[-1601,5975],[-432,1469],[-204,734],[-661,2704],[-1194,4974],[-1144,4773],[10193,1169],[915,200],[4042,968],[-203,567],[-585,1469],[-254,1135],[-559,1669],[-1042,3605],[-712,2570],[-432,801],[-992,3872],[-483,2604],[2415,868],[2619,1035],[-966,4239],[-839,3438],[-1221,3572],[-711,2036],[-839,2403],[-127,368],[-1373,4005],[2593,1002],[5872,2102],[5745,1703],[1398,434],[1373,467],[1398,367],[1271,334],[1042,701],[1373,234],[737,167],[966,200],[2517,501],[1017,133],[1169,-67],[1373,-500],[2084,467],[1932,401],[1195,200],[1017,167],[1678,400],[152,34],[1297,367],[1194,200],[1500,334],[890,267],[1551,434],[2643,734],[2034,501],[661,167],[1652,367],[356,100],[1348,267],[432,100],[1601,234],[1042,200],[916,134],[1016,167],[1144,200],[1754,167],[1729,200],[2008,234],[1602,200],[2135,234],[1602,167],[2109,233],[1297,101],[890,33],[1093,33],[712,34],[1448,133],[1602,167],[1551,100],[1067,100],[1348,67],[432,34],[1195,66],[1169,100],[1373,67],[1321,200],[865,-834],[152,-2437],[153,-2003],[127,-1335],[102,-1368],[203,-3906],[76,-133],[3229,-2838],[610,-500],[1118,-902],[712,-467],[1398,-968],[2339,-1435],[127,-100],[2695,-1770],[152,-100],[1881,-1201],[966,-635],[1043,-667],[1042,-668],[1245,-200],[1144,1202],[1220,1368],[865,1402],[762,968],[712,768],[864,667],[763,368],[1042,434],[992,434],[940,801],[788,600],[738,401],[1118,267],[737,100],[1398,167],[992,334],[1118,501],[1144,701],[915,600],[992,468]]],"bbox":[100.02671,13.42521,100.42009,13.72479],"transform":{"scale":[3.93380393380401e-7,2.995802995803002e-7],"translate":[100.02671,13.42521]}}