{"type":"Topology","objects":{"districts":{"type":"GeometryCollection","geometries":[{"type":"Polygon","arcs":[[0,1,2]],"properties":{"CODE":"7501","PARENT":"75","NAME_TH":"เมืองสมุทรสงคราม","NAME_EN":"Mueang Samut Songkhram","NAME_CN":"Mueang Samut Songkhram","COLOR_IDX":2}},{"type":"Polygon","arcs":[[-2,3,4]],"properties":{"CODE":"7502","PARENT":"75","NAME_TH":"บางคนที","NAME_EN":"Bang Khonthi","NAME_CN":"Bang Khonthi","COLOR_IDX":3}},{"type":"Polygon","arcs":[[-1,5,-4]],"properties":{"CODE":"7503","PARENT":"75","NAME_TH":"อัมพวา","NAME_EN":"Amphawa","NAME_CN":"Amphawa","COLOR_IDX":0}}]}},"arcs":[[[348806,152123],[-3618,4560],[-5516,6092],[-1368,1496],[-1147,1204],[-1324,1532],[-1500,1605],[-1897,1715],[-1324,1204],[-1633,1495],[-1412,1241],[-1323,1057],[-1589,1387],[-1324,1459],[-1103,1897],[-794,1897],[-441,1532],[-88,1131],[88,1277],[573,2116],[574,1058],[883,1970],[264,1568],[-397,1751],[-573,1423],[-177,912],[-176,1970],[-221,1131],[-706,1350],[-838,1167],[-1545,1678],[-1632,803],[-2074,-1168],[-1589,-146],[-1721,-1131],[-1059,-912],[-2515,-109],[-1588,-328],[-2383,364],[-1765,1387],[-1103,948],[-750,1605],[-706,1058],[-1545,1569],[-1014,948],[-1854,912],[-1985,1168],[-1147,802],[1632,1824],[1942,803],[750,1240],[-44,1861],[1279,2079],[574,1678],[44,1314],[397,1422],[485,1168],[442,1021],[573,1459],[44,1095],[530,1605],[221,1350],[-1633,985],[44,2261],[1059,1788],[838,1496],[353,802],[795,1569],[926,1751],[706,1532],[750,1569],[574,985],[441,1459],[574,1751],[397,1569],[750,2407],[618,1824],[1059,1314],[750,1386],[485,1386],[618,1897],[883,2371],[529,1678],[441,1350],[486,1350],[397,1350],[441,1386],[397,1277],[442,1240],[397,1496],[485,1423],[309,1094],[441,1204],[618,1897],[397,1313],[574,1678],[485,1168],[927,1349],[441,1277],[750,2189],[706,2079],[618,1897],[353,1058],[397,1204],[353,1277],[573,1605],[442,2079],[441,1241],[441,1131],[397,1386],[44,985],[530,1751],[485,1532],[265,803],[618,1970],[441,1313],[441,1386],[309,949],[486,1532],[441,1386],[882,1642],[309,839],[618,1897],[485,1422],[574,1642],[441,1240],[574,1751],[397,1350],[485,1423],[442,1277],[397,1131],[485,1422],[618,1678],[485,1058],[1059,1569],[662,2189],[-574,1897],[706,1532],[706,1240],[221,2043],[309,1168],[529,1094],[309,1423],[706,2043],[574,1568],[353,1022],[441,1568],[574,1715],[309,1167],[970,2116],[750,1605],[133,1168],[44,1240],[485,1715],[662,2043],[441,1386],[309,1058],[442,1495],[308,1022],[574,1459],[618,1240],[706,1350],[485,1277],[530,1642],[573,1860],[530,1569],[397,985],[485,1751],[265,948],[530,1459],[485,1569],[618,2189],[617,1860],[530,1606],[529,1240],[662,2116],[-706,1678],[-309,1131],[1015,1568],[927,1606],[662,1130],[529,1423],[795,2080],[1058,2480],[574,1496],[1059,3028],[927,2590],[750,2262],[838,2736],[486,1605],[441,1496],[309,839],[750,1897],[573,1568],[751,2444],[397,1277],[397,1350],[750,2298],[618,1824],[573,1569],[883,2736],[618,2006],[838,2408],[132,328],[927,2408],[1103,2955],[485,1350],[706,2699],[1192,3575],[1279,4050],[795,2334],[617,2007],[795,2444],[970,2882],[839,2590],[882,2189],[618,2006],[882,2882],[751,2189],[838,2408],[838,2262],[839,2553],[529,1934],[574,2043],[353,1240],[441,1459],[838,2517],[486,1569],[838,2554],[706,2079],[706,2298],[662,2262],[706,2298],[838,2700],[398,1167],[661,1715],[706,1824],[751,2626],[926,2554],[794,2371],[706,2007],[839,2480],[529,1241],[618,1860],[618,2517],[441,1313],[574,2007],[970,2481],[574,1641],[662,2444],[573,1715],[662,1970],[839,2517],[838,2554],[485,2006],[574,2043],[397,1240],[1324,3393],[927,2772],[882,2737],[441,1495],[839,2007],[617,1568],[574,2153],[132,1021],[309,2116],[1545,985],[1368,693],[1279,438],[2383,839],[1853,292],[1236,-256],[2206,0],[1897,365],[1633,1277],[750,948],[1544,657],[2648,474],[1103,839],[1633,1022],[2647,36],[1015,2116],[1015,1861],[2162,-219],[2162,-547],[1191,-1861],[1633,-912],[2559,-146],[1677,255],[1059,511],[1544,693],[662,1861],[2471,985],[1412,1021],[397,912],[0,1569],[-1279,948],[-1148,365],[-1765,730],[177,1532],[1633,1605],[220,949],[794,1459],[1236,912],[1456,802],[838,-2225],[45,-36],[1853,-2846],[1544,-1496],[2383,-1495],[3133,-1022],[2029,-510],[1986,-292],[3662,-329],[5207,548],[5251,839],[5560,1459],[-397,2663],[-353,2554],[-221,1787],[-44,1204],[441,1605],[618,1167],[485,1679],[1147,1495],[1148,1204],[2118,401],[1191,1314],[1942,1495],[1765,1058],[2162,1423],[3044,2006],[1589,949],[1853,1167],[1324,803],[1235,802],[1809,912],[883,438],[1897,1241],[1721,948],[662,1642],[-397,1897],[-1809,2663],[-3001,4815],[-265,730],[-750,1897],[-617,2772],[-574,3065],[-662,2334],[-1368,4670],[-662,1860],[-176,657],[2294,-37],[2648,-36],[1544,109],[2339,365],[1368,584],[1368,875],[1367,767],[1765,948],[2648,1605],[3442,2189],[1279,912],[839,1240],[706,1861],[529,1240],[1412,1532],[1236,1168],[1014,1021],[398,1350],[-89,948],[-397,1606],[-1015,3283],[-794,2882],[-794,3502],[-353,1167],[-353,401],[-1809,1496],[-1148,1131],[-926,912],[-971,1240],[-706,1058],[-750,1095],[-706,912],[-1147,1167],[-927,839],[397,1751],[1765,547],[133,1350],[-1059,1277],[-883,1131],[-662,1094],[-662,1350],[-882,1715],[-838,1386],[-1324,1496],[-927,1167],[-1279,1787],[-1501,1387],[-1941,1240],[-1853,949],[617,2152],[-1765,766],[-1368,657],[-485,1824],[177,1459],[2559,292],[2206,-1423],[2030,803],[-309,1203],[1015,1678],[1941,-802],[1236,-474],[1721,-766],[2162,182],[176,1642],[1942,1532],[1103,1058],[926,1495],[0,1606],[2604,182],[1941,-1313],[1898,-511],[2338,36],[2560,511],[926,1496],[1456,474],[-176,2152],[0,1897],[882,730],[1721,1459],[1544,839],[1236,-292],[1721,73],[1324,1423],[1897,-328],[2118,729],[1633,1387],[-309,1568],[529,2153],[1147,985],[618,1058],[353,1751],[750,875],[1545,1605],[1235,1314],[1633,-37],[1191,-511],[1765,-73],[1765,-1094],[1015,-1605],[1721,-1678],[1279,-365],[1765,803],[1236,1605],[397,1641],[706,876],[927,1751],[-89,1532],[-132,1277],[44,2116],[-794,1605],[-971,985],[-971,1824],[-441,1204],[-176,1094],[264,1715],[-176,2006],[-177,1386],[-264,1824],[-309,2299],[-177,1897],[618,2261],[2692,402],[2427,328],[1632,109],[1324,-146],[1633,-693],[1632,-693],[1456,219],[1898,1058],[1765,474],[1412,146],[1897,-511],[1809,-109],[1412,0],[2383,-36],[1235,-37],[2339,73],[1368,37],[2559,109],[1544,73],[1721,146],[2736,219],[1853,-1204],[397,-1167],[309,-1277],[1368,-1788],[1765,-511],[530,-1933],[397,-1058],[617,-1787],[839,-2080],[2383,-802],[2382,1130],[2295,876],[2029,0],[2030,-511],[1589,-73],[1235,73],[4457,402],[2074,291],[1941,-146],[1368,-182],[2383,-365],[-618,1824],[-618,1496],[-750,2006],[662,2153],[2339,0],[1897,0],[2030,36],[1676,0],[1236,-36],[10811,146],[1367,1751],[2869,8609],[617,2116],[353,1496],[353,1824],[221,1495],[-88,1824],[-221,1277],[-176,2225],[-221,2736],[-88,803],[-133,1897],[-220,1131],[-706,1860],[-706,1861],[-706,1714],[2162,912],[2074,-218],[2559,-183],[1456,-73],[2074,-73],[1809,-985],[1677,-802],[1235,-292],[1721,-365],[2427,-73],[2250,73],[2074,-511],[1280,-547],[1853,-328],[2647,-657],[1854,-729],[1279,-621],[1501,-766],[2471,-912],[2515,-985],[1323,-437],[2516,-438],[1588,219],[1809,510],[-485,1897],[1721,1168],[485,1277],[-1236,1568],[-441,1204],[794,1167],[-308,1679],[1323,985],[750,1276],[-1500,1751],[-794,1496],[-750,1095],[-794,1203],[-309,949],[-353,1532],[-177,2152],[-309,1058],[-529,1970],[-265,1642],[-220,1897],[-221,1568],[-177,1460],[-353,1787],[-88,1788],[-353,2152],[-529,1423],[-177,1131],[-485,1204],[-486,1787],[-1412,1058]],[[715747,858893],[839,1423],[618,912],[970,1313],[1059,1423],[971,729],[1897,767],[1192,1130],[441,1788],[1015,2043],[1103,875],[971,766],[1015,912],[1103,1022],[1500,1350],[927,839],[1412,1313],[882,985],[1412,1642],[838,912],[971,1386],[-882,1240],[-1015,693],[-2030,766],[-1809,1058],[-309,1095],[-176,1787],[970,912],[4016,183],[3133,292],[3971,255],[3177,292],[2647,292],[1192,985],[794,1970],[706,875],[485,1861],[-1765,1714],[-1368,1386],[-1191,1168],[-1544,1495],[-2074,2007],[-221,2189],[3486,1787],[1986,1168],[2426,1313],[2030,1131],[1853,1021],[1192,584],[1500,766],[1544,693],[1677,657],[2206,766],[1545,401],[1368,328],[1985,438],[1412,292],[1589,1131],[838,875],[1324,1131],[1765,1058],[1324,693],[1412,803],[397,985],[-442,1824],[-750,2554],[-838,2699],[-750,2408],[-971,3283],[-794,2627],[-309,985],[-971,3173],[-1015,3174],[-794,2481],[-750,2298],[-397,1204],[-530,1642],[-838,2115]],[[768300,957426],[2206,1022],[4545,2079],[5692,1605],[177,1642],[88,912],[574,1496],[529,1349],[530,1642],[2118,511],[1279,365],[927,-1824],[-44,-1350],[573,-1569],[2295,401],[1544,37],[1015,-985],[2294,-1021],[1412,255],[1854,-182],[1985,-1095],[1942,-1751],[1544,-1240],[2074,-657],[2648,-401],[1985,-584],[2339,-255],[2074,1094],[2029,730],[2251,-839],[1368,-1387],[2029,256],[1721,-766],[221,-1241],[2118,-729],[2206,474],[1236,328],[2029,146],[1589,-875],[2162,-693],[2338,693],[2251,-511],[-397,-1459],[-1059,-1751],[-530,-1788],[-220,-1277],[176,-1495],[-265,-1788],[750,-1277],[1633,-1459],[-838,-1714],[-883,-1496],[-441,-1532],[132,-1751],[2560,0],[2471,-183],[2559,-802],[1235,-1678],[1633,-803],[1456,-36],[1677,-1350],[838,-1788],[1853,110],[1809,766],[1721,-1131],[-44,-1313],[839,-1715],[1059,-1058],[1103,-1313],[441,-1314],[971,-1605],[1279,-1970],[530,-1021],[1147,-1678],[1103,-1277],[927,-1350],[926,-1568],[927,-985],[794,-912],[1103,-1423],[1280,-1824],[441,-1459],[927,-1095],[1103,-583],[1235,-1241],[662,-1568],[839,-1423],[1456,-1642],[1721,-1824],[838,-1131],[883,-1532],[1279,-1240],[1059,-657],[1412,-1204],[794,-912],[839,-985],[176,-2006],[1412,-584],[1456,-839],[1104,-948],[1323,-1678],[971,-1496],[882,-1569],[2118,-3064],[1148,-1386],[926,-1131],[1236,-1314],[1279,-1459],[1148,-1313],[794,-876],[2912,-3356],[750,-875],[2030,-2590],[618,-803],[1059,-1313],[1015,-1022],[1368,-1459],[882,-1240],[1015,-1241],[1721,-2079],[1456,-1824],[1235,-1423],[1192,-1422],[2206,-2700],[2559,-3028],[1236,-1496],[706,-875],[1059,-1277],[9354,-11418],[177,-183],[9884,-12038],[882,-1131],[1103,-1386],[1324,-1532],[1500,-1679],[1942,-2407],[3177,-3794],[794,-985],[1765,-2225],[838,-985],[1103,-1241],[1059,-1313],[971,-1094],[1236,-1387],[794,-1021],[1235,-1459],[1015,-1095],[1236,-1605],[2029,-2481],[1854,-2298],[1721,-1824],[0,-2152],[1456,-1861],[838,-2553],[485,-1314],[839,-2079],[529,-2043],[486,-1678],[264,-693],[750,-2079],[662,-2080],[486,-1678],[441,-1313],[662,-1751],[397,-1241],[706,-1933],[485,-1459],[309,-1058],[794,-2481],[530,-1897],[794,-1678],[397,-1277],[618,-1970],[309,-1058],[618,-1824],[1059,-3173],[882,-2591],[574,-1751],[1235,-4268],[971,-3174],[309,-1058],[1103,-3137],[1147,-3611],[795,-2226],[441,-1532],[618,-1824],[-133,-1860],[-265,-1642],[-220,-2773],[-397,-2918],[-530,-4669],[-220,-1824],[-309,-3576],[-265,-2115],[-88,-803],[-353,-5472],[-442,-2116],[-132,-1313],[662,-1496],[529,-1496],[486,-1568],[529,-1715],[618,-1751],[574,-1350],[750,-1714],[441,-1678],[-1544,-1788],[-1809,-729],[-2163,146],[-1147,-1241],[-3927,-1277],[-2118,-729],[-4236,-1277],[-3000,-949],[-2515,-875],[-2736,-73],[-2295,0],[-970,-620],[-3089,-949],[-839,-255],[-3574,-1058],[-5295,-1824],[-2294,-912],[-1589,766],[-1632,1131],[-2118,-511],[-1059,-510],[-1324,-1460],[-794,-1204],[-1500,-1678],[-1810,-474],[-1456,-438],[-1412,-912],[-1985,-656],[-1236,1422],[-2382,-36],[-221,-985],[-1059,-1167],[-4192,-1387],[-2250,-802],[-2957,-1022],[-2691,-839],[-1633,-510],[-1765,-1314],[-1368,-729],[-2780,-1532],[-1985,-985],[-1456,-949],[-1633,-948],[-1897,-329],[-2295,-948],[-2074,-1350],[-4721,-2955],[-1853,-1131],[-618,-875],[-2118,-1715],[-1633,-1204],[-970,-766],[-1456,-1167],[-1501,-1277],[-662,-1861],[-1544,-1751],[-1280,-1021],[-2206,-1313],[-1324,-292],[-1720,438],[-2383,-183],[-177,-1459],[-2250,-803],[-1677,-73],[-926,-1057],[-1633,-1204],[-1059,-584],[-1809,-511],[-1500,-948],[-839,-1605],[-1897,-292],[-1544,-1934],[-442,-1678],[-132,-1751],[88,-1021],[133,-1642],[-795,-1605],[-1103,-1350],[-971,-948],[-838,-1934],[-1368,-1459],[-662,-985],[-882,-1094],[-1015,-1241],[-618,-1021],[-1765,-1313],[-1191,-1350],[-1368,-1970],[-1191,-1861],[-1280,-2225],[-927,-1751],[-485,-948],[-1191,-985],[-618,-1387],[-706,-1495],[-1059,-1606],[-927,-875],[-706,-1642],[-1765,-1568],[-1323,-657],[-442,-2043],[265,-1350],[-221,-1313],[-794,-1386],[-1677,-1788],[-1279,-839],[-2118,-510],[-1236,-110],[-1014,-1642],[-133,-1568],[750,-2080],[-573,-1532],[-662,-1240],[-750,-1459],[-1148,-2554],[1501,-1642],[44,-1203],[-177,-1350],[486,-2189],[-133,-2736],[-662,-2043],[-485,-1787],[-1103,-1496],[-1103,-1204],[-2383,-766],[-706,-1240],[-1103,-912],[-441,-2226],[1412,-985],[353,-1824],[-353,-2152],[1059,-1970],[132,-1897],[-44,-948],[-44,-1533],[-133,-2407],[-220,-1131],[-1059,-1423],[-662,-1131],[-1015,-2991],[-3398,-8026],[-1147,-1787],[-1632,-2919],[-2163,-3867],[-573,-1094],[-2471,-5144],[-2515,-4305],[-265,-839],[-1191,-1276],[-1236,-1788],[-1015,-1386],[-1721,-1788],[-3265,-2590],[-1015,-802],[-1985,-1460],[-1368,-328],[-1765,-876],[-662,-328],[-2648,-1021],[-838,-475],[-5383,-3611],[-353,-219],[-1589,-1058],[-5339,-5071],[-4456,-4487],[-3354,-3064],[-1765,-839],[-1765,-1131],[-1588,-1277],[-1192,-1094],[-1676,-657],[-1192,-401],[-2029,-401],[-486,-2189],[-3839,-730],[-1897,1204],[-1589,-109],[-2735,984],[-2295,803],[-1544,547],[-1897,730],[-2339,547],[-1986,-255],[-2206,583],[-1853,365],[-1545,256],[-2426,547],[-2163,729],[-1632,475],[-1500,547],[-1059,547],[-1589,1350],[-309,1131],[-1323,1605],[-1457,-329],[-2073,-145],[-2030,182],[-1456,292],[-3310,766],[-2118,438],[-2382,-438],[-2074,182],[-1412,1095],[-10325,1787],[-1765,693],[-1368,694],[-2339,839],[-971,145],[-7810,1314],[-6574,1240],[-7810,1386],[-7060,1387],[-1545,-912],[-2338,693],[-486,-475],[-5339,-7369],[-2691,-3721],[-5472,-7551],[2030,-1167],[3530,-4013],[1235,-1350],[8914,-9813],[4147,-4633],[4369,-5290],[1367,-1860],[486,-1496],[132,-2918],[-265,-1606],[-661,-1459],[-618,-948],[-3045,-3904],[-2029,-2261],[-1677,-1533],[-3001,-2225],[0,-2079],[971,-1314],[132,-1349],[-1676,-3831],[-2383,-693],[-1500,-584],[-839,-1751],[-2250,-985],[-1059,-985],[-1412,-729],[-1236,-547],[-176,-1496],[221,-1350],[-45,-1970],[-132,-1568],[-794,-1861],[1147,-1569],[-132,-1605],[-1721,-1021],[-1456,-2481],[706,-1167],[2382,-876],[2427,-1094],[2824,-4013],[2030,-3320],[353,-839],[221,-2006],[220,-2225],[-529,-4706],[220,-1533],[1368,-6128],[1192,-2481],[-177,-1860],[-3971,-4889],[-1412,-2298],[-1147,-1131],[-927,-730],[-1721,-1276],[-1765,-1241],[-1544,-985],[-1236,-656],[-1588,-693],[-6045,-1970],[-5957,-2116],[-1809,-511],[-2736,-401],[-2118,-219],[-2074,0],[-1368,328],[-1500,-1058],[-2250,-1423],[-1147,-948],[617,-1350],[1412,-1313],[618,-693],[88,-1605],[-1103,-1387],[-2206,-1495],[-4942,-2919],[-4280,-2334],[-9619,-4670],[-2383,-985],[-2074,-693],[-6619,-766],[-3883,-474],[-1588,0],[-1809,0],[-1368,109],[-1721,-255],[-2912,-1861],[2603,-2553],[3001,-3612],[264,-1860],[-2779,-2189],[-1810,-1204],[-5250,-2663],[-13723,-6092],[-2648,-1095],[-2338,-948],[-4545,-1824],[-6266,-2262],[-2294,-803],[-1015,-364],[-3795,-1095],[-2383,-474],[-1765,-146],[-1412,36],[-2294,256],[-5560,-4122],[-7589,-3539],[-4148,-2079],[-19900,-10106],[-6575,-2809],[-618,-255],[-4191,-1641],[-1545,-292],[-1412,0],[-2206,839],[-1942,1422],[-4986,-4633],[-3397,-3137],[-89,-1167],[-573,-2080],[-221,-1532],[-176,-1386],[-442,-2043],[-529,-4742],[-177,-1314],[-353,-1897],[-353,-1751],[-661,-2298],[-750,-1933],[-2030,-4305],[-353,-766],[-353,-1861],[-2339,-219],[-2691,-437],[-751,-219],[-2206,-949],[-1412,-328],[-1897,-219],[-1368,37],[-1897,328],[-2339,730],[-1544,145],[-1986,-109],[-3618,0],[-2648,438],[-2206,-110],[-3265,-948],[-2295,-620],[-1412,-146],[-2162,-73],[-1191,-73],[-2471,-73],[-2427,-328],[-2118,-511],[-2118,-511],[-1588,-474],[-2692,-1058],[-3354,-1277],[-1103,-328],[-2471,-329],[-1632,-474],[-1898,-985],[-794,-292],[-2868,-948],[-1500,-1496],[-1280,-547],[-1632,-255],[-2030,-438],[-1412,-657],[-1192,-1714],[-882,-1788],[-750,-2116],[-353,-1204],[-1147,-2225],[-574,-1751],[-441,-620],[-1721,-1204],[-1147,-2371],[-353,-547],[-1456,-1642],[220,-2225],[927,-2773],[-177,-1787],[2427,-2846],[-485,-1568],[-2074,-365],[-2339,-329],[-1323,-1386],[-2295,183],[-1147,-511],[-1015,-1022],[-2074,-1167]],[[715747,858893],[-2294,182],[-2295,-328],[-1720,-219],[-1854,146],[-1059,620],[-1632,1241],[-1501,1131],[-1147,620],[-1765,-876],[-441,-1131],[-750,-1714],[-794,-876],[-1059,-1131],[-750,-1021],[-927,-1204],[-1677,-1569],[-1897,365],[-2515,547],[-1456,365],[-2471,620],[-1854,475],[-2294,510],[-1721,402],[-2250,693],[-1809,-1569],[-353,-1532],[-530,-2007],[-1765,-1532],[-1456,839],[-2471,621],[-2206,-292],[-1942,-73],[-2338,474],[-1633,1021],[-2030,1460],[-1279,985],[-1236,912],[-2074,1240],[-1059,1277],[-2074,1131],[-1632,766],[-1147,620],[-1280,657],[-1721,693],[-2559,291],[-3265,1131],[397,1423],[926,1204],[133,1459],[-618,839],[-1677,1204],[-485,1386],[1456,1387],[1677,1495],[1059,839],[1235,1022],[1412,1058],[1898,1349],[1676,1168],[750,1569],[-838,1203],[-706,1058],[-2339,-292],[-1588,-583],[-1897,-620],[-1148,-256],[-1676,-328],[-1192,-292],[-1765,-511],[-1368,-401],[-1853,-474],[-1721,-511],[-1676,-438],[-2030,-474],[-1765,-474],[-1059,-292],[-1677,-474],[-1191,-657],[-971,-1751],[265,-2079],[-89,-2116],[-2426,-37],[-1854,766],[-1323,-73],[-2074,511],[-1633,219],[-1721,620],[-1059,584],[-1676,693],[-2207,693],[-1721,547],[-1323,146],[-1633,-36],[-2030,-256],[-662,-1167],[-661,-1167],[-883,-1496],[-662,-1167],[-794,-1387],[-662,-1131],[-618,-1057],[-926,-1460],[-750,-1276],[-750,-1277],[-530,-949],[-706,-1350],[-618,-1276],[-1059,-1861],[-838,-1386],[-883,-1423],[-970,-1496],[-795,-1276],[-485,-1861],[2339,-948],[1015,-1314],[-89,-1897],[-353,-2845],[-309,-2481],[-88,-1277],[-1985,-839],[-1412,0],[-1589,37],[-1456,73],[-2206,292],[-1721,36],[-2648,-73],[-1720,110],[-1986,182],[-2780,182],[-1765,73],[-1500,110],[-1677,73],[-2647,-146],[-1368,73],[-2162,-1058],[-265,-1167],[-309,-1606],[-353,-1532],[-177,-948],[-308,-1496],[-486,-2189],[-220,-1094],[-662,-1934],[-530,-1240],[-529,-1131],[-574,-1131],[-706,-1641],[-750,-1387],[-485,-948],[-795,-1240],[-794,-1350],[-1765,-3320],[-1279,-2298],[-1765,-2773],[-1015,-1386],[-750,-1277],[1500,-1094],[1765,-1168],[1588,-1021],[1192,-766],[1853,-1167],[1897,-1204],[2118,-1387],[927,-1678],[750,-1131],[882,-1276],[398,-1387],[485,-1678],[485,-1204],[-1015,-1349],[-2559,-547],[-1765,-402],[-1632,-365],[-4148,-912],[-3751,-839],[-3441,-802],[-3045,-693],[-2383,-511],[-2382,-511],[-133,-875],[486,-1861],[352,-1386],[398,-1204],[308,-1386],[-2603,-1824],[-3000,-511],[-927,-1933],[-1103,-912],[-1544,-256],[-1280,-182],[-2603,-401],[-2869,-402],[-3530,-583],[-3088,-475],[-3398,-510],[-3706,-402],[-3001,-328],[353,-2262],[221,-1933],[176,-1131],[-397,-1569],[486,-1532],[617,-1021],[750,-1678],[662,-767],[-4412,-2152],[-2604,-1277],[-2603,-1240],[-2471,-985],[-2294,-1131],[-2030,-912],[-1986,-912],[-1809,-766],[-1677,-766],[-1235,-511],[-1853,-802],[-1942,-985],[-2559,-1168],[-1765,-802],[-1500,-766],[-2118,-949],[-1236,-693],[-1897,-803],[-2206,-1130],[-2030,-584],[-1147,875],[-1059,1569],[-1280,1058],[-927,1459],[-882,1095],[-1500,1459],[-1324,1058],[-574,912],[-1279,1204],[-1854,912],[-794,437],[-1544,985],[-1942,912],[-1544,548],[-1059,510],[-1191,985],[-1324,511],[-2030,912],[-2118,1277],[-1677,583],[-1323,402],[-1412,365],[-2030,328],[-2471,36],[-2030,37],[-1191,109],[-1677,110],[-1588,-475],[-971,-729],[-1324,-1605],[-1015,-1168],[-1059,-839],[-1897,-948],[-1412,-438],[-1809,-401],[-1500,-219],[-1633,-182],[-3927,-475],[3795,-11491],[2559,-5910],[2736,-5946],[-2295,-292],[-4810,-219],[-3309,-365],[-2647,-656],[-3354,-1204],[-4412,-1277],[-2339,-474],[-1986,-110],[-1676,73],[-2604,365],[-3132,584],[-3883,948],[-3619,912],[-3883,912],[-2029,657],[-1633,620],[-1633,912],[-2162,1386],[-8383,3028],[-2383,474],[-574,146],[-1412,256],[-3133,401],[-2382,182],[-1854,-109],[-2426,-474],[-2957,-730],[-4015,-729],[-2074,-292],[-7060,-803],[-4104,-365],[-3000,-36],[-3442,146],[-4324,438],[-2471,145],[-1589,146],[-1500,37],[-2736,146],[-2426,401],[-1633,876],[-1103,912],[-1456,1313],[-1147,1350],[-1104,1167],[-970,1094],[-1148,1642],[-1014,1459],[-398,547],[-1103,2189],[-1103,2481],[-1103,2408],[-1059,2116],[-838,1824],[-927,2699],[-441,1678],[-486,1934],[-1412,2736],[-1412,2006],[-2338,2809],[-2030,2444],[-1985,2444],[-1721,1861],[-1192,1058],[-1500,1204],[-1412,948],[-1588,876],[-1765,839],[-1986,693],[-3309,1094],[-1809,438],[-1457,255],[-2206,146],[-2250,-474],[-1677,-948],[-971,-803],[-1368,-1423],[-1809,-2298],[-926,-1350],[-883,-1532],[-1279,-1569],[-2516,-1860],[-970,-766],[-2251,-1824],[-882,-766],[-2912,-2517],[-3486,-2481],[-2030,-1386],[-2736,-2116],[-2603,-2225],[-2515,-1824],[-1898,-949],[-3927,-1532],[-2471,-985],[-2426,-693],[-2869,-329],[-4500,-145],[-3354,36],[-2294,73],[-1986,219],[-1721,328],[-1456,329],[-2338,620],[-2030,583],[-2339,693],[-2074,803],[-1500,803],[-1544,875],[-1633,1131],[-3353,2298]],[[171072,755471],[-4192,3648],[-3045,2992],[-2162,2334],[-1853,2518],[-1809,2772],[-750,1386],[-530,1350],[-353,1277],[-176,1313],[-89,3028],[89,2007],[441,2006],[573,1423],[706,1313],[1192,1642],[1853,2663],[2118,3319],[2427,3940],[1412,2517],[176,292],[1677,3247],[1280,2408],[529,1240],[794,2371],[398,1314],[441,1240],[220,1167],[45,1569],[0,1058],[-265,1641],[-1015,4086],[-44,146],[-574,1861],[-1588,3137],[-1368,2335],[-1236,1495],[-1588,1241],[-1500,948],[1588,1459],[1059,548],[1545,802],[1059,256],[1941,291],[2427,1131],[529,1532],[89,1423],[750,1569],[2029,438],[1633,547],[1059,1058],[1059,1386],[1853,1094],[574,949],[1588,1058],[2471,292],[1059,547],[2560,620],[1412,803],[1412,1495],[-89,1496],[221,985],[309,1496],[618,1860],[-221,1934],[-485,1495],[-530,1131],[-353,1386],[-176,1350],[-45,1095],[-441,1313],[-662,1715],[-44,1313],[-88,1568],[-88,1022],[0,1386],[441,1459],[618,1241],[485,1240],[353,985],[971,1715],[971,1130],[926,912],[1500,1423],[1589,1897],[1147,1386],[1103,1679],[1412,1860],[1721,949],[971,875],[1809,1715],[1147,1094],[1148,949],[308,1422],[1280,2007],[265,1386],[2250,766],[2339,730],[1544,693],[2162,401],[2383,912],[1412,1569],[485,1094],[486,1386],[970,1715],[662,1605],[1721,1094],[1898,292],[1367,584],[2471,146],[1501,-37],[1235,657],[1677,730],[2294,583],[1059,1277],[1192,1532],[2074,37],[1147,912],[1147,547],[1633,657],[1368,547],[2426,730],[1633,875],[2515,511],[1456,438],[1500,656],[1854,657],[1853,802],[1853,949],[530,1240],[2647,329],[1412,620],[353,1860],[397,1751],[1898,547],[1588,1897],[706,1788],[1456,985],[2648,474],[1853,730],[2250,292],[1765,985],[2251,437],[1147,292],[2030,657],[2691,511],[2868,1021],[-13502,20283],[-11119,15395],[1191,547],[1853,1167],[1810,694],[1411,364],[1633,511],[1236,365],[1941,438],[1677,656],[1588,547],[2295,730],[1059,511],[1500,839],[1986,255],[1191,547],[1853,694],[2251,547],[1985,547],[1456,875],[1103,475],[1633,73],[2295,292],[1323,0],[2030,328],[2383,729],[1015,292],[1765,329],[1368,364],[2206,912],[1500,-146],[1809,-656],[2427,-547],[1412,-621],[971,-1605],[1015,-693],[1367,-985],[398,-1058],[44,-1787],[794,-1204],[750,-803],[1853,-583],[530,-1934],[-883,-1021],[309,-1459],[618,-2262],[1412,-511],[2427,-693],[706,-1094],[1456,-1715],[750,-876],[1059,-1021],[794,-766],[1192,-1167],[1544,-1569],[1147,-1168],[1633,-1751],[2383,-2590],[1985,-2188],[574,-694],[1191,-1313],[662,-547],[1147,1496],[1854,1349],[1720,-1787],[1368,-1642],[795,-1204],[1059,-1970],[308,-1605],[177,-1350],[573,-1751],[221,-839],[177,-1495],[88,-1387],[-133,-2225],[-353,-1678],[-3309,37],[-265,-657],[795,-2627],[529,-2261],[574,-1934],[1235,-584],[1721,256],[1721,328],[2250,474],[1368,292],[2074,438],[971,182],[1809,329],[4192,766],[2603,510],[5516,1058],[1897,256],[2162,-511],[1986,-584],[3574,-693],[7148,-1386],[6442,-1131],[3619,-511],[3353,-73],[2471,219],[11561,2444],[6001,1642],[1500,182],[2118,-218],[2162,-256],[1456,-292],[2692,-912],[1721,-802],[2515,-1459],[1853,-839],[971,-365],[1676,-547],[2736,-438],[1015,-985],[1324,-730],[1941,-73],[2030,474],[1721,511],[1235,73],[1589,-182],[2206,-584],[1809,-109],[1986,839],[1853,583],[1147,438],[1765,-985],[839,-2116],[309,-1094],[750,-2043],[1235,-2189],[221,-584],[971,-2225],[1059,-2116],[1147,-1787],[971,-1824],[485,-876],[1765,-3283],[618,-1532],[838,-1642],[750,-1459],[971,-2079],[838,-1168],[1589,-1678],[1323,-1568],[883,-1095],[2118,-2444],[1191,-1788],[1633,-2006],[1544,-2006],[1412,-1642],[133,657],[1368,2006],[2779,-803],[2648,511],[353,1642],[-574,1021],[-88,1934],[1721,2334],[1544,2007],[-309,1605],[-662,1715],[-617,2699],[485,1167],[2250,-145],[3619,-256],[5515,-365],[397,-36],[8516,-547],[1324,-219],[397,2116],[1589,1240],[1235,693],[5339,2955],[5163,2517],[5780,3028],[4016,2079],[2074,1168],[5603,3502],[6752,3940],[7457,4049],[4897,2444],[2427,1241],[4589,2371],[4016,2116],[5250,2626],[2869,1569],[1456,109],[1015,-1532],[1412,-1714],[1147,-1423],[529,-1788],[221,-1058],[882,-1094],[1457,-657],[1367,-474],[1280,-912],[927,-1824],[926,-1423],[883,-985],[1015,-985],[926,-1058],[971,-1021],[1897,-1423],[1280,-364],[1500,-1861],[971,-1970],[1191,-1131],[1589,-1386],[926,1240],[2074,2919],[662,912],[3795,5143],[838,1168],[1677,2335],[2868,3866],[1059,1423],[3133,4195],[1500,2080],[2295,3101],[1368,1933],[2515,3393],[3441,4596],[2162,3138],[971,1349],[2206,2955],[1148,1496],[1412,1824],[2206,3064],[3706,4925],[1677,2043],[2692,3612],[926,1203],[2030,2809],[2559,3174],[4060,5363],[3750,4998],[927,1240],[1765,-657],[1236,-583],[2515,-402],[1368,-839],[1412,-1751],[661,-948],[1015,-1022],[353,-1386],[1059,-1605],[2030,-401],[1765,-1022],[-618,-1131],[-1059,-2298],[2295,-1021],[1191,-657],[1236,-693],[2073,-146],[1148,-73],[1676,-693],[1236,-1277],[1897,-1167],[1677,-876],[1809,-438],[2339,-474],[971,-693],[1411,-1350],[2516,-292],[1897,730],[2471,-474],[1633,-511],[1500,146],[1632,73],[1721,-1386],[1765,-949],[2604,-839],[1235,-985],[1236,-875],[2691,-1314],[3001,-1313],[1897,-876],[1280,-255],[1985,-255],[1236,-474],[1235,-621],[2692,-219],[3089,1241],[176,-73],[3751,-8427],[441,-1022]],[[348806,152123],[-1500,-1058],[-1192,-1642],[-441,-693],[-1677,-948],[-1809,-1131],[-1015,-876],[-1588,-255],[-1280,219],[-1544,-255],[-1280,-511],[-2029,36],[-1898,37],[-2515,109],[-2030,-219],[-2073,-328],[-5604,-1313],[-1500,-730],[-1721,-36],[-3883,-3174],[-7060,6566],[-6310,6166],[-5736,4523],[-1412,-766],[-530,-1496],[-1015,-1021],[-1897,-693],[-1633,-1204],[-1500,-1788],[-1721,-985],[-1456,-219],[-1897,-912],[-1721,-1167],[-1192,-693],[-1367,-511],[-1986,-292],[-2162,110],[-2030,-73],[-1368,-474],[-1985,-365],[-1898,-876],[-1147,-1167],[-1500,-730],[-2030,1095],[-971,620],[-1544,985],[-221,1131],[-970,1532],[-1368,-255],[-750,-1642],[662,-1532],[529,-1095],[-529,-1751],[-971,-1167],[-2074,109],[-927,-839],[-750,-1459],[133,-1021],[-1324,-1460],[-1059,-1021],[-1324,-1605],[-1412,-1824],[-353,-1788],[2295,-255],[308,-1569],[398,-912],[1367,-1641],[-44,-1496],[-1147,-1204],[574,-2116],[2029,-583],[1324,-657],[-88,-1715],[-1589,-693],[-882,-985],[-1059,-985],[-1677,-1131],[-132,-1313],[750,-1423],[-177,-2079],[1589,-1788],[2515,584],[2250,-912],[2074,-1313],[309,-876],[-176,-2006],[176,-2116],[177,-474],[1853,-2554],[1103,-1277],[-574,-1933],[-2515,-3356],[-1015,-1387],[-1456,-328],[-1500,-584],[-794,-802],[-3574,-5582],[-1545,-1240],[-1103,-401],[-2118,-110],[-1632,292],[-1545,474],[-3309,1460],[-5913,3283],[-3530,2335],[-5560,2955],[-1676,474],[-2692,438],[-5295,583],[-3883,183],[-3618,-146],[-2603,-329],[-1457,-328],[-2206,-657],[-2559,-985],[-4104,-1641],[-2294,-657],[-1280,-219],[-2206,37],[-1103,219],[-2471,-693],[-441,-2007],[-795,-1678],[-1367,-1751],[-1015,-839],[-2030,-620],[-2383,1094],[-3044,1751],[-1942,876],[-2118,-620],[221,-1241],[-1545,-948],[-1412,-146],[-1720,-1095],[-1104,-1240],[-2691,365],[-309,1496],[-1324,912],[-2338,-365],[-1810,-547],[-573,-1606],[2250,-2444],[-1147,-1094],[-1986,-474],[-397,-2007],[-1721,-1277],[1942,-1459],[-1368,-1933],[-2074,620],[-882,1277],[-2251,-183],[-1456,-146],[-1059,-1459],[-1500,-1240],[-2515,-876],[-927,-255],[-1897,-365],[-1103,-620],[-1103,-1350],[-1545,-1313],[-1544,-1386],[1412,-1569],[1191,-1386],[927,-1058],[1059,-1386],[1191,-803],[1500,-1897],[618,-1058],[1103,-1787],[1192,-2043],[1853,-1751],[88,-1496],[353,-1715],[1103,-948],[618,-1204],[265,-1131],[2074,-328],[2471,511],[1279,-1058],[2030,474],[1544,-401],[2118,-365],[1501,-2299],[-839,-510],[-662,-2116],[795,-1167],[1632,-730],[1721,-657],[1456,-437],[1633,-912],[529,-1715],[883,-438],[2383,-547],[1588,-1058],[1412,-1897],[1500,-1933],[1721,-1715],[1853,-474],[618,-1241],[971,-1276],[794,-1715],[838,-1131],[-264,-1970],[750,-1605],[1632,-1423],[751,-1678],[-618,-656],[-2736,-3028],[-1677,292],[-1588,474],[-1545,-183],[-1456,-437],[-1544,-1934],[-2074,-1459],[-1809,109],[-1721,1569],[-88,2043],[-1015,1569],[-794,1860],[-1677,1532],[-1588,548],[-1457,109],[-1720,-292],[-1721,1167],[-1192,584],[-1897,1350],[-1633,875],[-970,694],[-1986,474],[-2515,474],[-1456,292],[-1589,292],[-1103,620],[-1500,839],[-2648,620],[-794,1569],[486,985],[-706,1860],[-1368,1350],[-795,1277],[-1720,73],[-1898,-912],[-1412,-584],[-1632,110],[-221,2152],[-1059,1933],[-1544,-364],[-1412,-365],[-2383,-693],[-1544,1131],[-1589,1386],[-1809,-256],[-927,2080],[1192,802],[-1192,1606],[-1632,510],[-2339,-912],[-1412,-1605],[-2515,-511],[-1412,-109],[-2118,766],[-1280,1021],[-1985,-437],[-1765,73],[-1236,328],[-1853,36],[-1280,-364],[-1500,-292],[-1721,-584],[-2427,-219],[-1544,-328],[-2030,-1022],[-926,-182],[-1633,-1240],[-44,-1715],[-1633,-438],[-1720,-875],[-2207,-1240],[-1588,-402],[-1633,766],[-2162,803],[-2250,401],[-1368,219],[-1853,365],[-2692,328],[-1280,-328],[442,-1897],[176,-839],[441,-1934],[795,-2188],[706,-2445],[397,-1532],[-5030,1095],[-2604,437],[-2603,73],[-971,-437],[-1059,-2226],[-1235,-656],[-2383,-329],[-1765,-1386],[-2427,-328],[-3221,-547],[-3574,-1022],[-16723,107508],[-13414,86604],[-1324,8317],[-441,2627],[-133,657],[-353,2298],[-573,3794],[-353,2152],[-530,3356],[-485,3101],[-706,4670],[-662,3976],[-309,1970],[1412,766],[-88,1496],[264,1860],[1059,2043],[706,839],[2118,2007],[530,1605],[265,3356],[-44,2590],[220,1861],[221,1094],[-530,1678],[-88,1386],[397,1751],[839,2773],[838,2590],[309,657],[-353,1751],[-353,1313],[971,1751],[264,693],[0,1861],[353,1422],[883,1642],[309,1313],[44,1387],[-530,2298],[750,1678],[1059,803],[662,1678],[-309,2152],[-617,4232],[-44,437],[-442,2299],[-44,1495],[88,839],[353,1533],[265,2699],[1103,1751],[1721,1277],[2162,1569],[795,1897],[132,1751],[-441,2189],[-442,1422],[1942,402],[1456,729],[1191,803],[-529,1641],[309,1861],[88,1240],[-221,1386],[0,1314],[89,1058],[838,1131],[1015,1167],[750,2043],[485,2043],[662,1131],[1280,1422],[971,657],[1059,1240],[44,1569],[617,1642],[839,1641],[662,2189],[441,1605],[618,1241],[441,948],[838,1350],[1721,1422],[574,1241],[-706,1568],[-1015,1752],[-1500,1021],[-1545,1277],[-264,2116],[1897,1131],[1368,547],[1059,1933],[176,1277],[-132,1204],[-618,1605],[-132,1240],[706,1897],[838,1569],[309,1021],[44,1314],[133,2152],[441,2116],[265,1131],[397,1495],[662,2043],[1014,3247],[353,1204],[353,1386],[530,1459],[662,1861],[441,1350],[485,1459],[530,1204],[838,1860],[530,1387],[617,1605],[398,1240],[573,1605],[397,839],[618,1423],[838,1933],[398,1168],[617,2006],[706,2517],[353,1314],[486,1933],[750,2043],[882,1496],[1148,1787],[882,1788],[265,1240],[441,1569],[530,1678],[573,1824],[353,2152],[618,1751],[1500,3429],[133,438],[529,1897],[574,2043],[441,1496],[353,802],[618,1569],[573,1423],[397,1422],[265,1861],[177,1642],[617,2152],[309,1313],[133,511],[353,3064],[176,1569],[177,1167],[750,1678],[441,1204],[441,1204],[486,1788],[44,1276],[44,1131],[397,1241],[529,1933],[221,1167],[177,1350],[88,1241],[220,1532],[618,1787],[574,1168],[441,985],[750,1422],[750,1423],[442,1569],[353,1860],[882,3904],[530,2225],[706,2590],[882,1824],[618,1532],[397,1605],[309,1204],[529,1605],[662,1897],[397,1131],[883,2262],[882,1824],[1280,2262],[706,1313],[1147,2371],[574,1131],[1677,2882],[926,1350],[794,948],[1324,1314],[618,766],[573,1350],[530,912],[1059,1349],[662,1204],[573,1313],[662,1679],[618,1824],[574,1751],[1191,1824],[530,1021],[661,1131],[662,1751],[618,1167],[574,1058],[1015,1605],[1279,1606],[618,1131],[353,1568],[353,2298],[662,1679],[1103,2042],[1721,2663],[1324,1679],[706,1349],[705,2809],[486,1058],[882,1387],[574,656],[397,1824],[574,1605],[838,1861],[706,1313],[794,620],[795,1715],[573,985],[353,2079],[971,1897],[706,1934],[-177,1678],[398,1313],[1588,1459],[1015,949],[618,2189],[1147,1860],[1324,1715],[882,1313],[618,1532],[309,1423],[618,1094],[838,1131],[706,985],[838,1350],[883,2006],[1456,2663],[794,1423],[-618,2006],[971,1642],[485,1204],[398,1058],[1367,1131],[442,985],[706,1568],[794,1678],[441,1022],[618,1167],[1103,876],[927,1240],[529,1423],[1368,3502],[441,876],[662,1167],[662,1386],[1059,1423],[883,948],[838,1168],[794,1532],[574,2225],[88,1241],[971,948],[1235,730],[397,1459],[-88,1094],[883,1532],[1103,1058],[750,1095],[1279,2189],[574,1058],[794,1532],[706,1313],[486,949],[750,1240],[1588,2225],[1015,1605],[618,912],[882,1532],[221,1058],[1103,1204],[927,693],[882,1642],[1368,1933],[44,1606],[486,839],[1676,1276],[1015,1314],[1148,1641],[794,1131],[353,2007],[-1103,1714],[1059,1605],[485,1496],[1765,1240],[1633,1642],[661,1678],[-132,1131],[-176,1313],[-398,1824],[-397,1168],[44,1897],[398,1058],[617,1167],[1192,1423],[1059,1897],[-221,1605],[-44,1532],[-88,1897],[-1677,1787],[-1236,1241],[-176,1860],[-221,1642],[133,1240],[353,2080],[617,1641],[530,1350],[441,2116],[-132,1167],[-971,1423],[-2383,693],[-926,1350],[88,2663],[485,2918],[1059,1751],[1059,1022],[750,1313],[-132,2225],[-1324,1314],[-1412,620],[-132,2006],[574,985],[-442,1788],[-1235,1277],[485,1568],[1412,1423],[486,474]]],"bbox":[99.85215,13.24211,100.07878,13.51623],"transform":{"scale":[2.2663022663022675e-7,2.7412027412027403e-7],"translate":[99.85215,13.24211]}}