{"type":"Topology","objects":{"districts":{"type":"GeometryCollection","geometries":[{"type":"MultiPolygon","arcs":[[[0]],[[1]],[[2]],[[3]],[[4]],[[5]],[[6]],[[7]],[[8]],[[9]],[[10]],[[11]],[[12]],[[13]],[[14]],[[15]],[[16]],[[17]],[[18]],[[19]],[[20]],[[21,22,23]]],"properties":{"CODE":"8301","PARENT":"83","NAME_TH":"เมืองภูเก็ต","NAME_EN":"Mueang Phuket","NAME_CN":"Mueang Phuket","COLOR_IDX":0}},{"type":"Polygon","arcs":[[-23,24,25]],"properties":{"CODE":"8302","PARENT":"83","NAME_TH":"กะทู้","NAME_EN":"Kathu","NAME_CN":"Kathu","COLOR_IDX":1}},{"type":"MultiPolygon","arcs":[[[26]],[[27]],[[28]],[[29]],[[30]],[[31]],[[32]],[[33]],[[34]],[[35]],[[36]],[[37]],[[38]],[[-24,-26,39]]],"properties":{"CODE":"8303","PARENT":"83","NAME_TH":"ถลาง","NAME_EN":"Thalang","NAME_CN":"Thalang","COLOR_IDX":2}}]}},"arcs":[[[251353,360],[-887,-360],[-1553,388],[44,457],[266,541],[178,512],[222,540],[310,472],[666,831],[-355,748],[-1686,374],[-1286,346],[0,582],[1109,901],[221,139],[1376,720],[1419,651],[1642,610],[-400,637],[89,693],[1508,360],[1952,305],[2130,360],[1597,180],[1730,527],[532,748],[1286,319],[1287,277],[621,401],[-222,596],[222,416],[1109,679],[887,443],[266,776],[-88,582],[1996,554],[665,734],[843,402],[1242,679],[444,748],[-266,361],[-89,568],[178,568],[1286,263],[2263,28],[1375,41],[2351,430],[1065,526],[1863,582],[1686,277],[1951,250],[1686,152],[1020,499],[1287,734],[1109,346],[1287,749],[1818,443],[1464,-28],[400,-540],[133,-485],[-133,-651],[-400,-610],[-887,-748],[-1020,-513],[-1375,-443],[-1154,-291],[-1686,-471],[-2306,-416],[-3017,-595],[-2706,-471],[-1153,-610],[-1464,-430],[-1864,-471],[-1597,-692],[-621,-776],[266,-541],[311,-789],[-710,-804],[-1242,-831],[-1508,-665],[-1464,-790],[-1641,-804],[-799,-471],[177,-512],[-443,-790],[-932,-582],[-1286,-485],[-1597,-568],[-2307,-610],[-1775,-346],[-1907,-443],[-1331,-555],[-798,-900],[-355,-859],[44,-845],[-266,-762],[-488,-596],[-532,-471],[-1065,-513],[-843,-429],[-799,-485],[-354,-388],[-222,-610]],[[334531,62431],[266,-471],[1686,-458],[1508,-110],[1774,-70],[1021,-263],[222,-540],[-1243,-859],[-1685,-1136],[-710,-915],[-178,-637],[89,-610],[178,-651],[-222,-596],[-621,-748],[133,-790],[-266,-679],[-311,-678],[-1242,-832],[-887,-762],[-754,-803],[-1420,-707],[-1464,-637],[-1286,-887],[133,-928],[-444,-735],[-1553,-692],[-1508,-305],[-1508,-97],[-1553,-222],[-1907,-762],[-1509,-790],[-2040,-706],[-2218,-347],[-2218,-415],[-1287,-568],[-1065,-901],[-754,-568],[-1153,-610],[-1109,-415],[-1553,-457],[355,-416],[1420,-430],[-577,-859],[1420,-582],[1508,-97],[1464,-27],[310,-873],[-887,-346],[44,-846],[710,-540],[-665,-526],[-1775,-485],[-1597,-333],[-1685,-332],[-2085,-208],[-1287,-236],[-1331,-512],[-1331,-568],[-976,-388],[-1109,-361],[-1818,-55],[399,762],[1198,887],[443,485],[-399,498],[89,832],[-2440,914],[-2041,485],[-2262,291],[-1464,97],[-2307,208],[-621,554],[-621,499],[-1553,83],[-1863,-97],[-1331,679],[311,471],[88,485],[-1197,582],[-1331,305],[88,678],[932,818],[-532,610],[-222,249],[1730,568],[665,457],[267,485],[177,443],[1863,264],[1863,-28],[2662,-42],[2573,-207],[2129,83],[577,388],[133,485],[266,679],[134,498],[-622,748],[-621,665],[1065,818],[976,568],[2750,166],[1997,-152],[1331,41],[1951,194],[2219,333],[976,610],[1685,429],[1420,540],[931,665],[2706,901],[888,623],[1064,707],[932,831],[222,762],[133,832],[-44,789],[-932,541],[-2129,166],[-2041,69],[177,679],[2307,707],[1597,485],[1996,221],[2529,388],[1375,250],[1154,706],[1153,610],[1641,526],[267,596],[-444,582],[2085,166],[1996,-180],[1908,388],[2440,250],[1109,-291]],[[533892,182997],[1020,-485],[-976,-720],[-1109,-305],[-1907,-83],[-2219,-277],[-1863,-527],[666,-471],[1020,-485],[444,-332],[-222,-763],[-976,-249],[-1464,-263],[-2351,-444],[-932,-235],[-577,-610],[1642,-651],[1286,-374],[799,-831],[931,-776],[1509,-804],[0,-873],[-1775,-429],[-2262,-499],[44,-540],[-1198,-638],[-1375,-346],[-1552,-222],[-1686,-194],[-1154,-318],[-1863,-554],[-2661,-208],[-4082,-554],[-1685,-555],[-1287,-498],[-1286,-388],[-976,-333],[-1731,-554],[-1996,-305],[-1597,-235],[-1508,-693],[-799,-679],[-887,-762],[-843,-818],[-1064,-443],[-1464,-526],[-1730,-402],[-2307,-762],[-1420,-804],[-399,-429],[-665,-568],[-134,-555],[-532,-651],[-1907,-623],[-1642,55],[-2262,-166],[-710,-513],[-1065,-457],[-1863,-388],[-1907,-249],[-2219,-679],[-1907,-873],[-2085,-513],[-2529,-263],[-5101,222],[-2839,221],[-1597,167],[-1642,-222],[-2218,-97],[-2972,-55],[-1686,124],[-2395,153],[-1864,332],[-1286,153],[-1775,83],[-1508,69],[-1863,166],[-1464,277],[-1996,513],[-1420,499],[-887,415],[-887,679],[-222,416],[-1508,679],[488,540],[1952,388],[931,444],[488,540],[-443,485],[-577,609],[-399,444],[-444,609],[310,804],[178,513],[-887,692],[-1065,430],[-1109,554],[-488,762],[222,596],[-1109,402],[-1021,388],[-1197,235],[88,818],[1642,609],[754,790],[355,859],[1331,679],[709,554],[222,596],[-443,693],[-621,457],[709,720],[2085,402],[1420,152],[1641,-138],[1287,180],[976,554],[1907,541],[2041,540],[2750,610],[1376,484],[1109,984],[1375,1012],[1109,568],[1242,429],[1331,333],[1597,-70],[1198,-124],[1330,-291],[1731,-430],[2085,-305],[2439,-41],[4082,41],[3549,181],[2395,194],[1553,-42],[3726,-277],[5279,-374],[2884,-97],[2928,41],[1863,111],[1375,166],[1065,361],[221,595],[-488,610],[-266,637],[-931,638],[-1375,235],[-1819,167],[-2085,83],[-2485,235],[-1774,263],[-1109,264],[-1020,568],[-2352,388],[-1375,221],[-1153,444],[-133,499],[-1597,429],[-1597,139],[-1242,180],[-1065,443],[-444,610],[-1109,692],[-1286,236],[-1642,582],[400,443],[1464,360],[1730,347],[1819,249],[2528,430],[2174,360],[2395,42],[4170,-167],[4525,-582],[3150,-457],[1819,-1053],[887,-1205],[44,-1164],[222,-928],[976,-762],[1597,-568],[311,-790],[1774,-277],[1553,-194],[1996,263],[2129,374],[1065,180],[2041,-221],[2085,484],[1508,790],[355,804],[-44,734],[-178,665],[1908,748],[2617,956],[1641,430],[2218,0],[2174,249],[1553,970],[665,707],[355,845],[399,997],[1154,596],[1996,-180],[932,-610],[931,-554],[1065,-388],[1020,-332],[1242,-374],[1376,-541],[1020,-789],[532,-970],[621,-374],[1021,-471],[621,-416],[-222,-776],[133,-651],[577,-444],[-45,-706],[-1020,-721],[222,-526]],[[170925,352651],[-1597,-96],[-1952,221],[-1641,596],[-1065,416],[-798,415],[-311,554],[-488,693],[0,638],[89,526],[710,568],[1064,887],[1243,734],[1153,471],[1730,444],[1464,166],[1420,97],[3016,166],[1863,0],[1819,-111],[1819,-332],[1020,-430],[355,-499],[799,-678],[0,-652],[0,-817],[-444,-1635],[-1153,-720],[-1109,-388],[-1864,-527],[-2085,-249],[-5057,-458]],[[509537,370483],[4924,-28],[4348,277],[9138,804],[266,28],[3372,443],[1508,332],[1775,222],[1996,111],[2307,-28],[3194,-194],[1641,-374],[1420,-651],[1242,-443],[1331,-444],[1863,-443],[2351,-222],[1952,42],[2129,180],[2440,457],[1287,111],[1774,0],[1952,0],[2041,-69],[1819,-499],[-45,-499],[-976,-609],[-2218,-485],[-3637,-679],[-2085,-610],[-1065,-706],[-976,-1275],[-710,-1219],[-976,-499],[-3150,-887],[-4347,-1385],[-2972,-804],[-3638,-499],[-4436,-55],[-1553,41],[-1730,56],[-1331,28],[-1907,263],[-1154,318],[-1996,181],[-931,387],[-1952,-97],[-1864,-152],[-1330,-83],[-1775,55],[-1419,430],[-1775,305],[266,762],[888,277],[-533,790],[-488,374],[-710,512],[-1863,568],[-1286,139],[-311,693],[-798,471],[-2573,138],[-1997,-499],[-1508,-83],[-1242,-374],[-1907,-180],[-1021,-277],[-1153,-319],[-799,-734],[-931,-402],[-2307,-14],[-1375,-55],[-2174,14],[-1819,-83],[-1153,111],[-1997,-56],[-2129,-222],[-1109,-332],[-1819,-263],[-2661,-236],[-1908,319],[-1686,235],[-1863,167],[-1774,-167],[-2662,-277],[-1686,-332],[-1464,-277],[-1331,-180],[-2173,-208],[-1065,-194],[-2529,27],[-1641,-304],[-1153,-568],[-533,-859],[-5900,-2453],[-1109,-374],[-488,-720],[-976,-527],[399,-1468],[-1552,-527],[-1242,28],[-710,429],[-577,735],[-710,1344],[-1330,1856],[-400,804],[-399,734],[0,831],[1020,790],[1642,416],[1464,138],[1730,347],[1419,221],[1952,347],[1331,318],[2263,1289],[3327,2438],[798,361],[1109,471],[1730,776],[4836,1745],[7186,2078],[1730,472],[1376,124],[1375,125],[1286,222],[2263,401],[5501,1247],[1330,250],[1819,41],[1509,-69],[1463,-374],[1819,-554],[932,-485],[3061,-1206],[1641,-845],[3727,-637],[887,-111],[1952,-249],[3371,-14]],[[194171,365717],[-2706,-194],[-2041,69],[-1996,693],[-1509,803],[-1641,1081],[-577,970],[222,568],[1464,457],[178,1039],[-222,735],[-533,457],[-754,984],[577,914],[887,914],[1819,458],[1863,55],[2218,0],[1819,0],[1109,0],[1730,-97],[1287,-623],[1685,-652],[622,-651],[1286,-499],[1286,-304],[1464,-277],[976,-402],[0,-845],[-1508,-929],[-1153,-1357],[-1109,-873],[-2218,-1261],[-2352,-804],[-2173,-429]],[[316209,378990],[-4036,-277],[-400,983],[-665,652],[-1464,609],[177,499],[1908,499],[1375,360],[710,388],[532,499],[488,859],[887,997],[178,222],[665,1247],[0,55],[621,1137],[133,180],[1420,1039],[843,499],[665,318],[2529,513],[3992,526],[755,153],[2085,471],[2440,790],[1153,720],[976,817],[1198,624],[1552,513],[1597,97],[2130,-56],[2395,-222],[533,-166],[1064,-693],[-355,-1066],[-931,-1123],[-3017,-2951],[-1419,-2327],[-134,-887],[-133,-901],[267,-942],[-134,-997],[-2484,-679],[-3283,-1247],[-2750,-762],[-2440,-402],[-1242,-416],[-2174,-97],[-2262,-27],[-3372,-28],[-2573,0]],[[196433,396724],[-2307,-415],[-1730,-374],[-1552,-70],[-1287,402],[-1242,139],[-1819,41],[-2617,83],[-1730,-55],[-1242,-125],[-1509,-166],[-2484,222],[266,415],[1464,665],[89,499],[89,485],[488,526],[1907,430],[1242,166],[2751,153],[1774,111],[1686,41],[2795,0],[1774,-97],[1952,-69],[1286,-263],[1331,-167],[1376,-263],[1597,-513],[-222,-457],[-666,-471],[-1508,-457],[-1952,-416]],[[597772,384629],[-1552,-236],[-2218,111],[-2440,-14],[-2529,-97],[-2573,291],[-2972,776],[-488,416],[-355,1233],[-665,1081],[443,651],[444,582],[488,568],[710,1455],[488,387],[665,513],[4392,998],[310,55],[2662,527],[2484,304],[4525,485],[2884,347],[2750,443],[1553,416],[4924,1524],[3993,1427],[2839,817],[2351,527],[2972,318],[2529,111],[3105,0],[2972,-235],[1198,-222],[1331,-901],[0,-1773],[-3061,-1829],[-2617,-1233],[-3816,-1247],[-2883,-554],[-6876,-1593],[-1996,-513],[-1287,-443],[-2883,-1511],[-1597,-831],[-1287,-429],[-3238,-1026],[-2839,-803],[-1331,-305],[-1509,-568]],[[989707,392388],[-355,-665],[-89,-527],[-576,-513],[-799,-498],[-843,-471],[-1464,-513],[-1641,-429],[-2928,-1247],[-2173,-665],[-1376,-333],[-709,-319],[-1819,-609],[-2795,-1026],[-2795,-1233],[-887,-318],[-754,-624],[88,-429],[0,-665],[311,-610],[799,-623],[354,-1774],[45,-831],[-533,-582],[-887,-527],[-1064,-374],[-1420,-180],[-2085,28],[-2662,97],[-2085,374],[-1952,707],[-488,457],[-266,499],[133,817],[89,457],[133,444],[444,457],[665,485],[932,609],[887,693],[665,443],[621,527],[355,374],[666,499],[1242,1205],[488,457],[532,652],[754,388],[577,471],[1686,873],[310,290],[-310,762],[0,610],[1198,568],[1153,194],[1597,97],[-311,818],[-754,623],[-1508,443],[-1375,0],[-1819,652],[-710,651],[89,623],[133,513],[266,1164],[932,498],[1198,236],[1242,346],[1020,347],[1686,374],[2262,319],[932,249],[1331,402],[842,249],[1110,457],[1197,790],[976,346],[1287,236],[2040,443],[1021,319],[1375,610],[532,471],[1375,582],[755,498],[665,361],[1375,554],[1375,360],[2485,111],[1331,0],[2040,-236],[1331,-291],[887,-291],[666,-512],[44,-1261],[-1020,-1538],[-3727,-2591],[-5545,-5874]],[[500443,439245],[932,-83],[2484,14],[1996,-111],[1730,-208],[1908,-291],[2218,-318],[5323,-790],[3993,-485],[3815,-346],[2440,-319],[2041,-139],[931,56],[1375,471],[1198,222],[1553,138],[2218,527],[1641,277],[1553,97],[2040,-14],[2307,-208],[1331,-374],[2396,-443],[1952,-125],[2395,42],[1287,13],[1996,14],[621,-693],[-1065,-831],[-1242,-291],[-887,-499],[1419,-484],[1065,-361],[266,-415],[2573,-2508],[222,-166],[1375,-970],[1775,-208],[2218,-55],[1153,374],[1065,304],[1952,208],[1375,-277],[665,-554],[222,-416],[1553,-1967],[1109,-1164],[1020,-1039],[1287,-249],[1641,-194],[2573,277],[2351,304],[1997,-166],[-134,-623],[-177,-485],[-798,-818],[-843,-637],[-267,-263],[-354,-735],[-400,-665],[133,-845],[1109,-582],[1597,-637],[710,-610],[-1907,-138],[-1553,319],[-932,443],[-1508,388],[-222,637],[-1242,610],[-1153,138],[-2174,250],[-2440,221],[-3283,153],[-2173,0],[-2307,-56],[-2706,-374],[44,-706],[-266,-832],[-1109,-678],[-2351,-139],[-1863,-263],[-1242,-319],[-2396,-305],[-2129,-138],[-2085,27],[-2396,-83],[-3637,-360],[-3727,-332],[-1819,-84],[-1597,-152],[-1508,-125],[-2307,208],[-1375,0],[-3904,-69],[-4480,332],[-1775,180],[-843,236],[-2040,374],[-2751,346],[-1552,347],[-1331,388],[-1642,-222],[-2661,28],[-1464,-14],[-1730,-152],[-1376,-28],[-1774,180],[-1686,263],[-1552,153],[-2529,83],[-4835,-14],[-8607,-194],[-8872,-42],[-3638,-13],[-2262,193],[-2662,-193],[-1819,207],[-1730,319],[-3149,845],[-3150,1039],[-1375,499],[-754,776],[-178,720],[45,555],[-888,540],[-1153,471],[-2262,513],[-4969,831],[-2351,-139],[-1775,153],[-798,263],[-1952,305],[-1331,208],[-1952,457],[-89,582],[-576,554],[798,720],[1375,610],[1553,457],[1464,291],[1464,305],[1553,208],[1685,319],[932,304],[1952,430],[1686,97],[1242,208],[1286,208],[1420,83],[1863,41],[2396,360],[1996,97],[1774,305],[1242,153],[1642,41],[1819,0],[1685,166],[843,305],[710,430],[1420,817],[1197,721],[1287,873],[1198,457],[1242,471],[710,388],[1597,582],[1375,-277],[1375,-222],[1907,0],[1864,471],[843,332],[1774,402],[1331,83],[1863,361],[2706,27],[1775,0],[1685,-55],[1109,-69],[1775,-83],[1464,-28],[1641,-42],[2085,-194]],[[533049,447004],[-1420,-291],[-1996,277],[-843,444],[45,637],[1419,277],[1464,194],[2307,152],[443,-471],[-266,-595],[-1153,-624]],[[125854,471555],[-1863,-125],[-2085,42],[-1908,249],[-1774,499],[-400,457],[1908,610],[1508,291],[2706,526],[1464,181],[1730,41],[2307,83],[2307,-208],[177,-665],[-177,-498],[-710,-665],[-843,-624],[-4347,-194]],[[698828,488029],[3771,-513],[1419,236],[1287,166],[1907,-194],[1198,-333],[799,-346],[2395,97],[1730,-69],[1730,-430],[1243,-665],[-533,-568],[-310,-512],[-311,-832],[-443,-734],[-1243,-430],[45,-415],[-1597,-388],[-2440,-347],[-1198,-360],[-665,-457],[-1065,-610],[-1020,-318],[-2041,180],[-1553,249],[-2395,402],[-3238,762],[-1775,319],[-2262,69],[-2263,83],[-1508,28],[-1952,166],[-1819,346],[-1552,28],[-2618,-69],[-1508,291],[-1154,346],[-1064,416],[-1154,540],[-1197,582],[-843,582],[443,610],[1376,360],[1641,152],[2396,-332],[1730,-263],[1464,-70],[3637,-152],[1819,-14],[1109,69],[1464,319],[1109,416],[976,415],[1331,568],[1198,527],[1552,374],[1952,-277]],[[735737,487946],[-1686,-14],[-1464,221],[-1109,485],[-355,416],[-44,721],[399,845],[-1996,609],[-976,430],[-444,457],[1376,1039],[488,554],[0,513],[798,748],[1597,804],[1642,457],[2395,374],[1908,-180],[1109,-762],[887,-1760],[89,-762],[44,-499],[-222,-637],[222,-803],[133,-513],[0,-651],[-932,-818],[-177,-568],[-887,-651],[-2795,-55]],[[619288,519438],[1686,-499],[1508,0],[2174,-14],[-1376,-83],[-1508,-235],[-1242,-208],[-2262,-222],[-2573,-97],[-1243,153],[666,692],[1065,236],[1641,194],[1464,83]],[[877783,615703],[-1508,-194],[-666,221],[-355,721],[666,485],[310,679],[754,595],[1997,388],[754,-291],[931,-540],[577,-679],[133,-277],[-754,-305],[-1508,-526],[-1331,-277]],[[821976,642360],[-843,-277],[-1730,692],[-177,444],[-1065,346],[-266,485],[1153,319],[1775,221],[975,250],[1819,194],[577,-444],[-488,-471],[-355,-402],[-976,-678],[-399,-679]],[[796424,644673],[-222,-1759],[1109,-1067],[710,-526],[532,-679],[843,-485],[1109,-638],[710,-332],[2307,-693],[1330,-651],[133,-596],[-399,-582],[-532,-720],[710,-693],[488,-596],[-89,-859],[-355,-388],[-222,-512],[-1819,-430],[-1419,-318],[-843,-305],[-932,-638],[-399,-595],[355,-374],[-177,-596],[-444,-347],[-577,-1108],[178,-166],[-2352,-541],[-2129,-872],[-2041,-1095],[-2129,-679],[-3327,-914],[-2617,-555],[-3194,-859],[-5590,-1454],[-798,-194],[-1597,-361],[-2573,-27],[-1287,582],[-1065,526],[-798,818],[-488,623],[-976,485],[-1242,388],[-2218,-42],[-1553,-249],[-2262,291],[-1597,-42],[-1686,194],[-1952,499],[-1198,125],[-2085,277],[-2085,-443],[-1685,-693],[-2396,28],[-1375,207],[-1775,485],[-1508,568],[-1508,679],[-887,388],[-1819,28],[-2396,-42],[-1863,70],[-1686,152],[-1242,-374],[-665,-291],[-1908,-208],[-1286,-83],[-1775,-360],[-1109,-374],[-1286,-430],[-444,-346],[-932,-693],[-1242,-235],[-2440,83],[-2306,152],[-2795,360],[-1819,416],[-1730,596],[-1952,637],[-710,457],[-621,582],[-89,748],[932,444],[1020,1136],[-221,402],[-1420,332],[-932,374],[-2617,319],[-310,-845],[-2396,-194],[-311,706],[843,679],[577,444],[577,859],[-89,623],[266,679],[799,873],[399,817],[-311,527],[222,415],[-89,818],[-842,582],[-888,277],[-133,651],[1021,416],[931,388],[1686,554],[932,443],[310,554],[0,624],[399,526],[267,693],[621,582],[621,804],[1330,429],[1819,194],[2396,0],[2573,-14],[2972,-305],[2262,-249],[1110,-97],[1818,-235],[1376,-264],[1109,-194],[8961,-1427],[3327,-429],[2573,-194],[576,-14],[4481,-97],[1907,166],[4259,277],[4081,458],[4259,845],[3283,665],[577,138],[2040,638],[2618,152],[2573,-14],[1330,125],[1109,346],[1686,485],[843,430],[1641,429],[1908,111],[2129,388],[1021,388],[1552,83],[1642,305],[1242,360],[3327,554],[1420,111],[1774,153],[2085,-527],[1109,-526],[976,-208],[1331,-319],[1286,-610],[266,-595],[-1020,-361],[-798,-388]],[[850811,667645],[665,-596],[577,-360],[355,-513],[-355,-678],[311,-679],[931,-374],[1109,-652],[577,-401],[710,-596],[1242,-984],[1242,-222],[1863,-110],[2174,-42],[2085,-69],[1242,69],[1819,-249],[754,-347],[754,-706],[222,-638],[133,-388],[-177,-582],[-1198,-637],[-1154,-582],[-931,-388],[-399,-429],[-533,-707],[-576,-402],[-1597,-651],[-1553,-208],[-1420,-97],[-1508,56],[-1996,166],[-1420,56],[-1597,193],[-1819,541],[-1242,277],[-1819,402],[-621,637],[-1375,637],[-1819,208],[-3371,333],[-3460,346],[-2440,416],[-1509,471],[-1153,499],[-1597,831],[-532,471],[-1198,1663],[44,748],[355,873],[444,789],[1198,956],[1597,762],[1774,610],[1730,-55],[2129,291],[1376,457],[1508,512],[1331,236],[2307,55],[1907,374],[1464,0],[1464,-318],[710,-735],[266,-540]],[[863277,672467],[-1775,-153],[-1597,83],[-1774,-97],[-2218,153],[-1243,318],[-976,444],[799,277],[1908,540],[1286,263],[1153,194],[2352,458],[1464,388],[709,443],[2041,346],[621,-623],[-932,-568],[-1552,-734],[-577,-499],[44,-651],[267,-582]],[[610238,674836],[-222,-845],[1553,-652],[665,-554],[-221,-346],[-976,-582],[-2662,-208],[-1819,-180],[-2484,180],[-1464,180],[-2617,-138],[399,-845],[1064,-3076],[267,-513],[1153,-831],[1819,-499],[710,-374],[-133,-623],[-1819,-666],[-1597,-692],[-444,-374],[0,-541],[355,-540],[2750,14],[2573,-14],[1819,194],[577,596],[44,457],[1553,540],[1464,0],[1198,-554],[488,-513],[88,-845],[222,-720],[666,-541],[1597,-526],[1597,-319],[1197,-720],[178,-831],[-399,-763],[-311,-1122],[-266,-693],[-1819,-318],[-2174,69],[-1819,-41],[-1508,97],[-2351,13],[-798,-415],[1242,-582],[1330,-471],[1952,-818],[1553,-692],[1331,-582],[1020,-929],[976,-776],[1908,-429],[1020,-568],[1908,-1566],[976,-928],[621,-554],[310,-291],[355,-596],[-355,-651],[355,-388],[-577,-665],[1331,-693],[1686,0],[1065,-222],[1685,-471],[976,-831],[1021,-332],[2351,69],[1552,-831],[5989,-2591],[1997,-361],[2706,-207],[1552,-208],[1198,-194],[2174,-347],[843,-443],[354,-790],[488,-471],[1731,-540],[1064,-914],[1819,-139],[1375,332],[1198,125],[2218,180],[1730,-41],[1642,-180],[443,-499],[-887,-624],[44,-304],[799,-707],[1020,-499],[976,-817],[976,-485],[3549,-1358],[976,-374],[2129,-845],[2085,-915],[1952,-859],[399,-180],[2884,-1136],[1331,-582],[443,-305],[1154,-803],[1020,-735],[843,-637],[399,-1538],[-133,-582],[1597,-679],[2307,-706],[1286,-956],[178,-1358],[266,-1095],[-577,-872],[-754,-790],[-710,-693],[-1242,-665],[-665,-388],[-1508,-568],[-1864,-388],[-2040,-222],[-2174,-221],[-2795,-416],[400,-637],[4303,-374],[3016,-250],[1686,-595],[1331,-610],[1375,-527],[222,-845],[-266,-956],[-1597,-609],[-2352,-180],[-2617,-291],[-621,-721],[1819,-235],[1065,-111],[1996,14],[1553,55],[1463,28],[2041,0],[2396,-222],[1286,-429],[2662,-1095],[798,-402],[1109,-845],[355,-416],[178,-595],[-178,-748],[-310,-721],[931,-568],[1642,-14],[2129,-263],[2262,-319],[1154,-138],[2395,-319],[1686,-471],[1508,-333],[1686,-429],[887,-166],[3194,-568],[1376,-402],[843,-707],[754,-748],[-222,-623],[710,-347],[1552,-277],[1464,-125],[1287,-304],[621,-970],[-89,-416],[-1065,-388],[-2573,-235],[-1685,-208],[-488,-360],[88,-527],[577,-1081],[710,-374],[355,-845],[887,-554],[932,-236],[1330,-415],[-44,-762],[-310,-361],[177,-540],[532,-374],[1109,-513],[2706,-166],[2440,0],[3727,-55],[2573,-70],[2173,402],[1952,-97],[89,-859],[2484,14],[2706,-111],[2130,-208],[2573,125],[798,679],[-222,554],[-133,651],[89,832],[-44,554],[-311,762],[-89,429],[-88,638],[221,402],[355,720],[0,637],[45,402],[2307,374],[2484,236],[976,706],[177,125],[1331,915],[1198,637],[1774,457],[577,485],[-89,817],[621,693],[222,721],[-222,873],[1819,540],[1375,900],[133,555],[-177,873],[-89,540],[-798,332],[222,707],[621,817],[133,444],[976,429],[2173,458],[2041,110],[3460,14],[3593,-83],[2352,208],[798,374],[1508,388],[1243,222],[1286,401],[1553,471],[2706,361],[2839,360],[2883,596],[1553,401],[1775,250],[1508,194],[2928,208],[1685,235],[1331,194],[2174,0],[1996,-637],[355,-610],[-754,-720],[-89,-222],[-266,-1344],[-665,-706],[-799,-527],[-177,-568],[266,-1081],[1553,-651],[665,-554],[-222,-402],[-488,-568],[-1508,-513],[-1065,-678],[-443,-776],[754,-485],[754,-596],[-444,-457],[-576,-499],[-400,-527],[-798,-678],[-932,-416],[-754,-416],[-754,-706],[-177,-444],[-1021,-692],[-1686,-956],[-576,-527],[-266,-374],[-355,-513],[-1642,-1510],[-798,-360],[-1109,-568],[-754,-402],[-355,-568],[-355,-540],[-222,-804],[-177,-887],[-134,-568],[-177,-831],[-222,-1095],[89,-803],[133,-457],[444,-513],[576,-1011],[1464,-735],[1287,-512],[0,-748],[89,-860],[487,-748],[400,-429],[798,-693],[1863,-1510],[1553,-984],[932,-499],[1685,-679],[2529,-526],[1109,-208],[1996,-125],[2573,194],[1154,610],[2173,333],[1420,-42],[1996,-360],[577,-485],[-89,-443],[-266,-513],[-44,-471],[532,-457],[1331,-887],[976,-762],[976,-748],[843,-471],[621,-624],[-2130,-263],[-976,-263],[-1375,-513],[-1020,-707],[-178,-817],[0,-887],[-1286,-665],[-1908,-734],[-1730,-416],[-1197,-124],[-2440,152],[-1553,526],[-665,347],[-1287,554],[-1419,388],[-267,416],[0,637],[-355,429],[-975,582],[-1731,291],[-2129,83],[-1242,-55],[-2617,-319],[-3860,-554],[-2174,-402],[-3504,-873],[-1686,-526],[-3992,-1787],[-1553,-832],[-665,-457],[-1464,-443],[-1553,-97],[-2218,-263],[-1597,249],[-2351,360],[-1686,430],[-754,291],[-1553,554],[-1331,180],[-1685,-236],[-2307,-595],[-1686,-845],[-1375,-1566],[-887,-1635],[-888,-1981],[222,-347],[1996,-526],[1819,222],[2174,-139],[754,-499],[666,-679],[1508,-207],[1774,-430],[1775,-651],[1109,-1386],[931,-554],[843,-471],[2218,-346],[1553,-208],[1908,-374],[2572,-194],[1331,14],[1509,83],[1064,291],[1997,360],[1375,-166],[1331,-111],[3282,125],[1287,-638],[-488,-402],[-311,-817],[0,-540],[755,-361],[1907,-803],[1020,-471],[488,-707],[-532,-596],[-1198,-485],[-2173,-526],[-1686,-236],[-1952,153],[-1730,471],[-2041,457],[-1907,513],[-1376,83],[-1685,-125],[-1331,-208],[-3105,-166],[-2396,208],[-843,360],[-310,485],[-178,457],[-222,596],[45,928],[-178,582],[-1020,582],[-1819,596],[-1464,208],[-3460,429],[-3682,374],[-1553,14],[-1641,-14],[-1775,-27],[-1641,249],[-665,471],[-267,804],[134,512],[133,499],[-710,610],[-1109,235],[-2041,222],[-2351,111],[-2262,499],[-533,526],[-488,485],[-1597,596],[-1331,499],[-1552,318],[-1642,125],[-1641,69],[-1287,14],[-1907,-28],[-2396,-221],[-3637,-374],[-843,-84],[-8651,-872],[-4037,-430],[-2661,-457],[-932,-596],[-399,-540],[-976,-250],[-1286,-332],[-1110,-596],[-2395,-984],[-754,-318],[-3505,-1483],[-1286,347],[133,471],[-178,762],[-310,720],[-9183,42],[-2085,27],[-1464,333],[488,679],[399,623],[222,277],[133,624],[-89,665],[843,679],[0,596],[-221,1357],[-222,638],[-45,526],[-1286,568],[-1508,-194],[-2396,70],[-976,609],[-2883,83],[-1420,70],[-1641,429],[-2352,346],[-2173,111],[-1952,-97],[-1952,-55],[-1597,-263],[-1775,-513],[-5500,-942],[-3150,-624],[-2351,-457],[-2351,-263],[-1420,-637],[-2573,-319],[-1774,14],[-976,-596],[-932,-360],[-1774,-485],[-1243,-402],[-887,-235],[-1508,-291],[-1863,-291],[-1553,-236],[-1597,-457],[-1597,14],[-1242,-499],[-532,-333],[-1553,-332],[-1020,-360],[-1509,-194],[-1375,-167],[-2174,-97],[-2129,181],[-2573,429],[-1109,305],[-2129,-153],[44,-706],[2174,-97],[1020,-319],[1331,-706],[-621,-832],[2174,-346],[1064,-236],[1642,-332],[931,-263],[976,-555],[266,-457],[133,-471],[-1330,-1358],[-799,-651],[1508,-679],[1509,-457],[1242,-138],[3283,-721],[1907,-485],[1198,-471],[1553,-720],[754,-527],[-178,-831],[-1508,-527],[-1775,-152],[-887,-180],[-1064,-471],[-888,-471],[-1286,-374],[-2529,637],[-2262,582],[-1065,-42],[-532,-554],[-133,-429],[-976,-513],[-1109,-208],[-2351,-235],[-1553,-70],[-1686,-27],[-1597,-14],[-1286,-28],[-1864,-180],[-1774,-222],[-710,-263],[-843,-582],[-887,-762],[-621,-734],[-932,-818],[-1730,-665],[-1508,-817],[-532,-665],[1286,-582],[45,-430],[-134,-900],[45,-1123],[-1065,-387],[-2085,-97],[-2040,-153],[-2529,-346],[-1775,-360],[-887,-361],[-1064,-623],[-622,-457],[-621,-513],[400,-430],[709,-498],[222,-374],[1553,-458],[1641,-41],[1642,97],[2706,152],[1286,-249],[2263,-540],[1730,-652],[222,-568],[-89,-512],[1375,-444],[222,-332],[1242,-1982],[0,-429],[399,-513],[1021,-485],[-267,-554],[-88,-623],[310,-762],[-310,-582],[976,-568],[0,-610],[0,-554],[1286,-637],[577,-721],[887,-443],[932,-347],[621,-415],[798,-485],[666,-402],[887,-679],[0,-374],[-666,-651],[666,-554],[1286,-624],[1553,457],[665,388],[710,485],[2218,14],[1597,-41],[1287,55],[3016,-111],[2618,14],[3061,-42],[1818,-277],[1154,-318],[222,-832],[1819,-291],[1153,-207],[2041,-14],[1463,263],[1420,610],[1153,429],[1110,430],[1020,152],[1907,-97],[888,-249],[1508,-347],[2129,-263],[1597,152],[1509,485],[1153,319],[1863,97],[1952,-222],[1153,-249],[1642,-374],[2528,-305],[1597,139],[2085,-319],[533,-499],[1064,-277],[622,-845],[-932,-748],[-2041,-305],[-1331,28],[-1641,27],[-1553,-263],[-1330,-526],[-1864,-721],[-621,-166],[-2440,-180],[-1907,166],[-2041,388],[-1109,291],[-1464,125],[-2085,-139],[-1774,-249],[-1863,-291],[-1642,14],[-2706,180],[-2085,55],[-1020,-111],[-2085,-983],[-1242,-998],[-754,-762],[-178,-887],[45,-734],[310,-471],[532,-776],[134,-194],[931,-859],[799,-485],[1863,-402],[1375,97],[2262,291],[2352,236],[2351,-56],[1464,-111],[1464,-41],[443,-748],[-2173,-485],[-888,-485],[1198,-554],[-1907,-859],[-799,-361],[-1730,-512],[-2972,-42],[-1464,374],[-1287,97],[-2528,-928],[-3993,-2023],[-843,-526],[-710,-471],[-709,-665],[133,-624],[976,-485],[1464,-138],[2085,-42],[5323,665],[1908,194],[931,-194],[3194,-2521],[1553,-28],[1952,-277],[4658,-3797],[-1154,-609],[1198,-1025],[843,-735],[-1331,-305],[-2839,70],[-1553,-665],[-2617,41],[-488,-526],[-177,-804],[-1464,-166],[-1908,305],[-621,318],[-2351,402],[-1775,-471],[-1508,-693],[-710,-637],[-399,-901],[133,-872],[621,-1746],[178,-513],[2040,-415],[1464,-375],[754,-554],[1464,-970],[932,-595],[488,-222],[1464,-610],[1508,-374],[1730,-443],[2351,-374],[2440,-56],[1730,97],[1242,555],[267,581],[-267,513],[1065,582],[3904,333],[2351,-56],[1154,-305],[621,-692],[355,-859],[1020,-499],[2218,-97],[1907,-28],[1597,-111],[1287,-124],[932,-541],[-311,-374],[-1065,-734],[0,-693],[-88,-956],[443,-1358],[1287,-1524],[621,-970],[1508,-582],[1508,-180],[1730,28],[1908,-429],[222,-1178],[-222,-457],[-2085,-361],[-2484,-346],[-2839,-1122],[-2973,-901],[-1064,-69],[-1997,235],[-2040,527],[-1952,-139],[-1242,333],[0,554],[177,790],[178,416],[-1021,540],[-1375,984],[-310,720],[-1686,970],[-2484,1205],[-1864,541],[-2262,623],[-4259,845],[-3637,610],[-4570,360],[-1730,-111],[-1375,-208],[-1686,347],[-1331,582],[-2129,346],[-1242,222],[-1730,388],[-1287,374],[-842,596],[931,374],[710,443],[-311,554],[-1996,527],[-2174,318],[-1774,665],[-1641,541],[-1686,693],[-1908,540],[-488,332],[-621,527],[-399,499],[-488,595],[-532,624],[-1154,471],[-4303,291],[-6521,374],[-1286,-416],[-311,-360],[-710,-513],[-1020,-180],[-1996,70],[-1109,-14],[-2884,-250],[-2706,-415],[-3682,-568],[-2706,-665],[-2085,-749],[-2440,-1357],[-1730,-1109],[577,-346],[1286,-457],[1464,-638],[488,-415],[44,-582],[-443,-416],[-133,-582],[-45,-388],[178,-997],[-311,-430],[-931,-568],[-1686,-55],[-1464,360],[-310,374],[-1154,527],[-1375,665],[-2263,429],[-2306,471],[-1376,499],[-2085,499],[-1774,443],[-754,194],[-399,665],[177,457],[222,513],[355,610],[710,304],[1064,652],[-89,651],[-665,1815],[-1242,1801],[-1508,2064],[-2041,1663],[-3017,2023],[-4746,2979],[-1553,1233],[-532,401],[-932,388],[-1109,749],[-532,471],[-1464,845],[-4215,1995],[-1242,582],[89,415],[0,624],[-355,360],[-798,679],[-577,596],[-444,748],[-399,1289],[-621,692],[44,499],[0,554],[89,541],[-222,582],[-1242,443],[-887,374],[-710,720],[45,749],[-622,720],[-754,374],[-887,430],[-2883,956],[-355,762],[1064,498],[577,347],[1331,845],[798,471],[311,513],[532,401],[-1863,582],[-2307,42],[-1064,388],[-2618,360],[-887,277],[-887,776],[-799,1593],[-355,402],[-1641,665],[-2351,14],[-1464,-734],[-444,-596],[-1552,-513],[-2130,-41],[-1286,0],[-12288,540],[-8606,69],[-5324,-83],[-5013,-194],[-5323,-429],[-3638,-582],[-2972,-651],[-798,-471],[-45,-596],[-976,-333],[-621,-581],[-488,-541],[-1065,-208],[-1818,-374],[-976,-526],[-666,-319],[-1197,-388],[-1598,-720],[-1286,-693],[-887,-319],[-1331,-249],[-1153,-333],[-1819,-332],[-1642,-651],[-1375,-194],[-1508,-180],[-1154,-167],[-3504,-318],[-2440,55],[-2928,180],[-1464,444],[-2395,41],[-2218,-291],[-2307,-443],[-4259,-832],[-976,-152],[-2307,-402],[-754,-471],[-1819,-194],[-843,-346],[-1109,-291],[-1907,-236],[-2484,-291],[-1864,-415],[-3016,-790],[-178,-83],[-1508,-693],[-754,-332],[-2351,-56],[-2573,-277],[-1775,-291],[-2750,-900],[-2839,-970],[-1464,-721],[-843,-443],[-1908,-721],[-976,-374],[-1064,-554],[-2263,-1288],[-1508,-1150],[-665,-776],[-666,-998],[-621,-609],[-665,-665],[-799,-1178],[-2262,-2536],[-1642,-1662],[-1730,-1178],[-355,-388],[-1286,-997],[-799,-596],[-1286,-901],[-311,-207],[-3238,-2120],[-577,-374],[-1552,-1137],[-2174,-1496],[-1996,-1164],[-1154,-651],[-976,-526],[-931,-610],[-222,-249],[-710,-665],[-399,-998],[-311,-332],[-798,-804],[-1198,-1690],[-710,-652],[-1286,-956],[-932,-789],[-488,-790],[-443,-762],[-1021,-1746],[-843,-1150],[-310,-429],[-1198,-929],[-931,-734],[-444,-346],[-1508,-1192],[-1331,-1067],[-887,-637],[-3949,-2383],[-488,-319],[-887,-554],[-2440,-1607],[-976,-637],[-2129,-1829],[-932,-1427],[-576,-1441],[177,-1247],[311,-388],[754,-540],[1419,-305],[1686,-263],[1065,-305],[1952,-541],[1774,-360],[1508,-263],[2352,-139],[1818,-568],[1376,-346],[665,-430],[0,-526],[799,-416],[1818,-415],[1376,-194],[1508,-555],[1730,-1094],[710,-679],[-266,-637],[88,-749],[0,-678],[-1419,-319],[-1509,-305],[-665,-803],[-1198,-707],[-754,-693],[-1419,-291],[-1864,-138],[-1774,-347],[-666,-443],[-310,-568],[-1730,-679],[-2263,-568],[-5323,-707],[-2529,-360],[-1907,-14],[-1908,527],[-1153,540],[-1065,513],[-2307,360],[-1907,-28],[-3105,-97],[-178,0],[-2839,-180],[-89,0],[-3859,-388],[-3948,-388],[-533,-55],[-2440,-347],[-1597,-235],[-1286,-180],[-4880,-804],[-2484,-374],[-1331,-194],[-7719,-1316],[-10381,-1857],[-354,-69],[-4348,-942],[-1952,-596],[-621,-194],[-1819,-596],[-177,-83],[-2529,-1247],[-709,-540],[-267,-693],[-931,-402],[133,-540],[1730,-471],[1730,-582],[1153,-512],[843,-208],[2307,-42],[1154,-346],[576,-527],[-266,-526],[0,-748],[-89,-430],[-1197,-485],[-267,-499],[-488,-623],[-1109,-748],[-2395,-347],[-2174,-27],[-1508,83],[-1597,194],[-1242,180],[-1775,-166],[-798,-264],[-754,-609],[-1864,-582],[-1109,-333],[-133,-679],[-754,-457],[-2395,-208],[-2130,14],[-3859,97],[-1553,-14],[-2174,-346],[-887,-388],[-2129,-277],[-1287,-180],[-1286,-457],[-2396,-42],[-1996,305],[-2262,457],[-976,208],[-1819,332],[-1597,167],[-2839,27],[-1242,582],[399,499],[-533,568],[-1951,111],[-2795,0],[-3948,194],[-1287,0],[-1641,-319],[-2041,-817],[-1686,-624],[-1020,-263],[-2307,-319],[-1641,0],[-1686,430],[222,513],[1597,443],[1375,125],[1508,471],[755,595],[88,624],[89,762],[-532,817],[-1597,735],[532,623],[1109,263],[1153,735],[267,152],[1286,665],[666,665],[1286,250],[1420,388],[2129,581],[665,679],[-754,804],[887,416],[222,609],[-576,485],[-710,430],[-1553,415],[-532,374],[44,582],[-266,901],[-488,485],[-621,845],[1597,499],[1242,318],[932,652],[355,485],[1286,595],[577,790],[-222,430],[-665,581],[-1331,984],[-843,499],[-1686,887],[-1907,831],[-1509,526],[-1730,375],[-1730,332],[-2351,-194],[-2263,-360],[-1197,-111],[-1420,-305],[-1952,125],[-1686,166],[-2218,-41],[-1863,-222],[-1153,-14],[-3549,14],[-1464,-55],[-1597,-139],[-1686,-69],[-2129,471],[-1021,388],[-2040,346],[-1242,42],[-2263,-97],[-1730,-277],[-2395,-14],[-1287,0],[-2174,-291],[-1286,-416],[-1331,-526],[-1198,-374],[-1197,-181],[-1553,-221],[-1641,-139],[-2707,0],[-1597,-14],[-2617,-14],[-710,-69],[-1597,-305],[-1907,70],[-1553,-97],[-2218,-139],[-1774,-125],[-1952,-27],[-1154,249],[-44,624],[577,526],[576,596],[-310,402],[-266,651],[-444,415],[-754,596],[-1331,402],[-976,457],[-1819,139],[-1508,637],[444,596],[2129,651],[1286,693],[533,942],[976,790],[1375,443],[2662,1067],[1597,457],[1952,222],[887,97],[1685,318],[1420,499],[532,762],[710,457],[311,776],[88,665],[-488,471],[-1597,665],[-1109,278],[-1952,-14],[-1641,-125],[-1863,-332],[-1508,-194],[-2706,13],[-2085,56],[-2529,69],[-2750,166],[-488,56],[-2174,235],[-1819,111],[-1375,69],[-1730,596],[-222,776],[0,554],[444,693],[1552,734],[222,721],[621,776],[-1819,554],[1198,762],[2440,263],[1331,153],[1685,180],[1908,-83],[5057,-97],[2928,13],[2440,-138],[1908,28],[2706,27],[2661,194],[754,70],[3505,332],[1464,97],[1952,236],[1686,360],[1286,332],[1863,638],[1109,485],[89,609],[1198,748],[44,568],[887,693],[1065,374],[1863,360],[1375,624],[755,762],[976,374],[621,430],[-976,498],[0,624],[1064,776],[2307,485],[1863,665],[621,471],[488,429],[1065,527],[-444,568],[-488,748],[1109,762],[1864,249],[2440,0],[1641,139],[665,734],[267,1026],[-89,623],[-355,859],[-355,831],[-887,1704],[-533,2245],[-1242,402],[-1508,27],[-2617,222],[-2662,263],[-1641,361],[-1730,526],[-533,457],[222,555],[1020,540],[-222,610],[-754,512],[-976,679],[1464,665],[1686,471],[2529,430],[2306,166],[1731,-83],[1818,-56],[1819,277],[887,402],[488,596],[222,430],[45,969],[-178,347],[-1065,1552],[-754,845],[-1464,1524],[-3194,2078],[-976,429],[-976,444],[-1951,776],[-2263,886],[-4214,1220],[-3860,803],[-5678,1233],[-976,-27],[-2972,-1317],[-2396,-665],[-2440,-346],[-2262,-14],[-1908,541],[-1375,955],[-754,458],[222,748],[-311,457],[178,513],[1242,540],[310,527],[932,401],[1198,610],[843,319],[1464,263],[3016,443],[1952,360],[1819,305],[2440,818],[2040,582],[2219,41],[1242,319],[532,443],[311,998],[177,817],[44,624],[45,651],[88,679],[0,1316],[-88,679],[-577,1953],[-621,1982],[-754,2078],[-89,180],[-532,1496],[-488,1081],[-133,250],[-1065,1842],[-1242,2231],[-1420,2549],[-133,291],[-1419,2494],[0,69],[-976,1608],[-621,983],[-3194,4212],[-4126,4171],[-4303,3491],[-1287,554],[-1153,277],[-2085,-152],[-976,0],[-1996,69],[-3106,125],[-2484,-166],[-2795,166],[-1286,222],[-1775,-56],[-1286,263],[-1109,471],[-932,194],[-2218,236],[-1464,-111],[-1907,-55],[-1420,83],[-1552,-56],[-843,665],[222,458],[399,471],[310,512],[-177,679],[-178,360],[-133,666],[488,429],[1908,942],[577,762],[-2396,1095],[-2573,831],[-2351,624],[-1819,193],[-2484,-346],[-1287,-235],[-1730,-194],[-1686,-139],[-2306,-305],[-1952,-55],[-2440,-291],[-1375,-56],[-2130,-263],[-1952,-97],[-1818,236],[-1021,873],[-310,485],[-533,720],[-1109,526],[-1464,416],[-1508,651],[-976,402],[-1375,83],[-1730,-14],[-2440,305],[-1287,735],[-1153,457],[-488,623],[488,499],[444,582],[-1730,402],[-1686,-208],[-1331,-97],[-1065,665],[2085,332],[2351,347],[2130,194],[-89,443],[-310,457],[2040,361],[1420,360],[-1375,609],[-1509,305],[710,541],[577,374],[710,471],[2617,305],[2085,152],[1242,471]],[[76435,548395],[4436,-139],[1730,-27],[2396,166],[1819,540],[1508,471],[1109,347],[1242,374],[1375,332],[1952,416],[1597,360],[2484,430],[1464,55],[1642,-69],[1774,-166],[2130,-264],[1907,-263],[2041,-180],[1597,-28],[2085,42],[1774,125],[1642,180],[1952,111],[1020,13],[1907,-55],[2041,-222],[1020,-207],[1242,-652],[1864,-873],[3770,-859],[4437,-678],[3016,-513],[133,-42],[2130,-762],[2661,-1205],[2085,-887],[1997,-305],[1419,-97],[2218,139],[1065,277],[1109,388],[1198,346],[2173,541],[1553,332],[2263,499],[2040,485],[1863,596],[1597,540],[2440,430],[2085,235],[1908,0],[3637,-249],[5368,-624],[6743,-762],[3815,-235],[2351,27],[3416,347],[6699,776],[4569,429],[2174,83],[1286,56],[4924,-264],[10869,-415],[3238,-194],[3239,-139],[3682,-111],[3061,-110],[1819,-194],[3726,-471],[2706,-361],[2085,-249],[2351,-125],[2130,111],[1818,430],[2085,443],[2573,180],[1509,-249],[2440,-513],[1863,-374],[1242,-249],[2395,-250],[1819,-14],[1242,180],[2529,278],[2307,41],[2661,83],[1553,-27],[2263,-56],[2617,-222],[4702,-429],[4081,-277],[4614,-333],[4436,-360],[2396,-208],[1774,-111],[2751,-69],[2040,153],[1686,207],[1730,97],[1996,250],[1021,305],[1109,415],[1597,693],[1020,291],[1198,457],[-533,596],[-133,720],[400,527],[665,374],[1775,665],[1419,346],[2174,430],[1552,249],[1864,291],[1641,263],[2041,361],[1730,138],[1552,111],[2085,-55],[2130,-194],[1597,-333],[1331,-277],[2839,-319],[1819,-194],[2040,-194],[2396,-152],[2174,0],[2528,125],[2129,221],[2219,305],[2351,236],[2484,388],[2750,415],[1597,319],[1376,471],[1552,665],[1242,693],[621,346],[1597,942],[1686,1026],[1464,970],[2307,1205],[1819,928],[1597,693],[2484,1275],[2262,872],[3372,846],[1375,720],[1375,956],[1331,665],[1642,596],[1552,707],[1331,512],[2041,818],[1419,554],[2218,887],[2928,1274],[2041,776],[1952,582],[1774,416],[1420,194],[2129,55],[2041,55],[1730,28],[1819,42],[3194,14],[1508,27],[1464,180],[710,402],[177,624],[178,415],[576,929],[1420,443],[3416,845],[1375,416],[1153,706],[932,458],[1553,415],[2129,471],[3194,430],[2928,263],[2174,55],[2306,-69],[2263,97],[1774,541],[1021,429],[931,623],[45,721],[754,471],[2528,-83],[2573,-153],[488,194],[1997,1899],[1863,-291],[1242,-139],[1641,-166],[2618,235],[2218,485],[1020,416],[665,346],[-1330,2993],[-311,1233],[0,263],[44,749],[45,1080],[89,1344],[177,1884],[-2396,28],[-2085,-111],[-1818,-83],[-2485,-346],[-1419,-416],[-976,-180],[-1863,-305],[-3682,-457],[-1464,-125],[-2529,-138],[-1597,27],[-2795,0],[-1863,-55],[-4347,-222],[-311,-14],[-2928,-152],[-1774,42],[-3327,11527],[-355,734],[44,1164],[976,1233],[1065,915],[3105,1524],[3860,1177],[9449,2868],[1996,818],[1774,665],[1331,596],[754,582],[355,623],[89,845],[0,859],[133,776],[89,582],[0,790],[0,595],[222,555],[1020,928],[710,804],[532,803],[621,831],[488,693],[222,541],[310,692],[89,818],[1065,1371],[931,1178],[1597,2342],[-2129,235],[-1597,111],[-4081,-333],[-9760,-1482],[-5057,-1150],[-3283,-1247],[-3238,-1815],[-1908,-222],[-2617,97],[-1198,250],[-12244,3505],[-2528,1067],[-976,1122],[-621,2716],[-1065,1122],[-1331,1385],[-1730,3409],[-1331,983],[-3371,1123],[-2440,415],[-1331,181],[-7142,540]],[[409990,645020],[-178,734],[311,776],[621,970],[665,457],[976,443],[2041,735],[1952,637],[1686,499],[709,208],[2440,789],[2529,707],[2662,707],[2262,512],[2351,638],[2218,609],[1775,804],[798,1039],[666,956],[310,1011],[178,610],[133,734],[-89,762],[-222,624],[-576,762],[-666,790],[-887,581],[-399,652],[-976,914],[-444,928],[0,471],[0,416],[311,845],[1197,374],[3682,513],[1686,305],[1641,457],[1464,388],[1553,457],[1508,499],[843,388],[1686,526],[976,153],[1819,0],[1242,-69],[1641,-14],[2041,-42],[1774,-291],[2352,-360],[2306,-222],[1908,277],[1020,208],[1996,208],[1509,28],[2395,-291],[1730,-388],[1952,-42],[710,360],[1020,652],[621,485],[1109,526],[1553,194],[1952,-28],[1375,0],[1642,-14],[1242,735],[-45,360],[-44,707],[1331,498],[1464,42],[1863,111],[1996,152],[1065,153],[1508,277],[2307,374],[2218,249],[1464,111],[1508,125],[1464,111],[1553,291],[1641,526],[843,457],[666,333],[842,609],[1021,749],[532,415],[887,485],[1420,305],[1464,263],[2129,374],[1686,208],[976,222],[1242,637],[355,485],[355,720],[-399,416],[44,540],[444,790],[1064,651],[754,471],[1331,305],[2085,333],[1686,-42],[1553,-41],[1464,360],[754,263],[1375,485],[2750,152],[1198,-332],[1730,-263],[2130,-153],[1552,-152],[2130,14],[1597,55],[1330,28],[1819,-83],[1642,-139],[1907,-208],[1375,-221],[1997,-582],[-133,-638],[887,-678],[1109,-375],[1419,-484],[1642,-707],[976,-568],[532,-499],[577,-443],[1774,-42],[1553,111],[1419,69],[1952,-277],[976,-457],[1109,-790],[444,-346],[976,-457],[1508,-153],[2218,-41],[1242,0],[2352,111],[1508,97],[2440,83],[2617,97],[2751,-194],[1774,-402],[799,-194],[1641,-291],[1020,-111],[1642,-166],[2173,-305],[1642,-374],[1464,-624],[576,-360],[976,-596],[1021,-457],[798,-277],[1331,-360],[2218,-374]],[[76435,548395],[976,582],[754,693],[399,817],[-576,651],[-1109,236],[-1819,263],[-1109,97],[-2041,14],[-2351,291],[-843,388],[-2262,457],[-1065,471],[-89,402],[-222,651],[-1242,305],[-1020,720],[-621,624],[-577,499],[0,360],[621,873],[710,845],[-399,720],[-3904,624],[-2218,-319],[-1641,-402],[-2307,-471],[-3283,-457],[-355,-55],[-5146,-721],[-4347,-623],[-266,-42],[-3594,-526],[-2750,166],[-2662,152],[-1286,374],[0,485],[-178,610],[355,651],[222,554],[-355,513],[-1420,651],[-488,638],[-1330,387],[-2263,125],[-1375,222],[-1020,332],[-1242,388],[-1731,665],[-1597,679],[-1996,139],[-399,499],[1153,484],[1198,582],[887,527],[222,526],[-133,527],[1819,235],[621,721],[-89,734],[355,568],[311,624],[177,443],[1686,236],[2218,55],[2307,14],[399,609],[-976,832],[-1198,457],[-133,817],[1154,596],[1064,291],[1509,263],[2306,-401],[178,-776],[-887,-457],[-45,-375],[1109,-540],[1908,-457],[1730,-83],[1508,374],[2041,277],[1552,-499],[1287,-651],[1553,-111],[1552,0],[1908,-111],[2351,-124],[1863,41],[2706,180],[2174,14],[1730,-180],[1686,-402],[1508,-693],[1109,-665],[222,-498],[-178,-776],[-443,-1940],[1020,-443],[1154,-125],[2262,-222],[6122,-83],[7320,-69],[6121,277],[4392,346],[1198,250],[1286,457],[1376,513],[1464,291],[4702,678],[2041,305],[1330,-41],[1287,-402],[1286,-457],[2396,-305],[1553,-527],[1109,-429],[1863,-125],[3460,111],[5856,402],[4258,138],[2130,-429],[621,-582],[355,-402],[1730,-499],[1286,-27],[1952,0],[1242,111],[4525,484],[1952,375],[3771,1080],[2484,1067],[3860,1954],[4746,2604],[4126,2716],[3150,2646],[3460,3603],[2484,3505],[3372,8147],[44,748],[-1508,596],[-2041,346],[-577,596],[222,485],[666,582],[-400,651],[-1153,277],[-1597,637],[443,457],[-798,555],[-1331,374],[-1464,512],[-1508,929],[-2396,1579],[-976,513],[-665,263],[-1952,859],[-222,69],[-3149,1081],[-755,263],[-2262,831],[-1198,139],[-1774,236],[-2573,706],[-2662,180],[-1242,-138],[-2662,-236],[-3904,14],[-2173,-42],[-2174,-221],[-1508,-291],[-754,-347],[-2041,-124],[-2041,-277],[-1641,124],[-2218,305],[-1730,236],[-2218,388],[-2351,346],[-2928,540],[-2795,693],[-2174,125],[-2129,568],[-266,596],[-45,803],[-621,485],[-2040,277],[-2352,56],[-887,401],[-976,361],[-1331,706],[-1330,554],[532,763],[-1642,637],[-2085,-319],[-2040,-332],[-1597,41],[-1420,402],[-1197,651],[-1598,499],[-1020,319],[-44,595],[-45,749],[-1685,429],[-1464,263],[-5013,624],[-4835,402],[-4437,166],[-1996,28],[-1730,-167],[-887,-263],[-1464,-665],[222,-679],[0,-568],[-577,-596],[-1020,-138],[-1730,-42],[-1376,-180],[-2262,-402],[-1730,153],[-1021,263],[-1064,332],[-621,582],[-843,555],[-799,623],[-177,346],[133,582],[-843,291],[-3682,444],[-1996,97],[-1508,-97],[-1775,-555],[-1153,-374],[-1464,-415],[-1198,-319],[-577,-402],[-1597,-346],[-1952,-236],[-2395,-429],[-976,-277],[-2041,-14],[-1952,111],[-621,595],[1863,250],[666,609],[222,693],[-1154,499],[-1020,499],[133,693],[-399,554],[-444,637],[-1996,513],[-2529,41],[-576,651],[88,416],[533,513],[754,305],[576,554],[45,374],[355,623],[798,361],[666,415],[1464,374],[665,762],[-44,444],[-1730,554],[-1109,513],[-622,484],[-798,610],[-266,430],[576,651],[932,609],[-1020,610],[-1597,97],[-2351,236],[-1287,55],[-1774,-610],[-1686,-291],[-1952,180],[-2041,416],[-1685,139],[-932,665],[799,609],[576,471],[710,555],[532,471],[1420,471],[444,457],[887,831],[976,471],[931,1178],[666,513],[1064,873],[666,554],[1153,748],[1065,485],[621,776],[798,554],[1464,374],[1287,637],[1419,305],[2174,69],[1375,568],[-754,291],[-843,513],[311,430],[-133,720],[-266,443],[-444,859],[-532,555],[-1065,304],[311,555],[443,401],[222,555],[710,498],[1464,499],[1996,374],[1863,208],[1464,-249],[932,-818],[1109,-526],[488,-624],[2262,-277],[1331,0],[2041,111],[2706,236],[1907,-596],[1375,-291],[1420,-388],[2396,-83],[1153,69],[1641,28],[1553,111],[6876,1011],[8251,1247],[1021,222],[1375,734],[266,554],[1020,388],[1863,97],[799,374],[2129,111],[1686,0],[1863,-111],[1154,-194],[1907,319],[2351,291],[1597,14],[1597,-167],[976,-540],[267,-402],[1153,-471],[5235,679],[4658,734],[1818,180],[1464,333],[888,360],[2351,610],[3726,1510],[1020,831],[1376,1594],[2173,3644],[2307,3782],[178,1053],[-799,2369],[-89,42],[-1197,1094],[-1331,582],[-1375,291],[-1287,166],[-1597,-249],[-1198,-485],[-1774,-28],[-3194,333],[-1952,402],[-621,429],[0,568],[-1331,638],[-311,526],[-354,485],[-1331,693],[-45,637],[-576,637],[2040,347],[887,582],[89,665],[-1508,1496],[-2396,374],[-1907,-28],[-1331,-110],[-2041,41],[-2528,333],[-1242,429],[-1376,471]],[[81758,681389],[2041,56],[1553,-14],[2351,0],[1907,180],[2440,402],[1952,97],[1464,-28],[1464,42],[1508,55],[1509,0],[1730,0],[1286,83],[1509,69],[1996,139],[1286,125],[2440,207],[1775,236],[5101,776],[1819,208],[1597,124],[2351,153],[2795,41],[1331,-13],[2484,-208],[1242,-208],[1997,-540],[1818,-555],[1376,-595],[1375,-721],[1020,-526],[1153,-665],[799,-472],[932,-443],[1641,-568],[1286,-388],[1109,-332],[1775,-305],[1597,-125],[1863,-83],[1996,-83],[1997,-56],[1996,-83],[1908,-138],[1951,-28],[1731,55],[1597,70],[1774,-70],[1597,-41],[1420,-56],[2484,-249],[1153,-194],[1509,-429],[1109,-277],[1552,-388],[1242,-236],[1420,-180],[1597,-83],[1375,28],[2174,138],[2041,180],[1863,166],[1863,194],[1996,194],[1508,153],[1597,83],[1420,0],[2706,-166],[1553,-194],[1552,-125],[1287,-55],[1730,0],[1198,0],[2173,-111],[1154,-416],[798,-665],[577,-457],[710,-416],[843,-374],[1064,-402],[1509,-679],[1020,-485],[799,-443],[887,-374],[1552,-360],[1243,-69],[2040,13],[1553,-83],[1597,-166],[2351,-291],[2307,-443],[1686,-361],[1552,-360],[932,-277],[399,-346],[532,-610],[444,-637],[444,-582],[709,-568],[888,-554],[798,-596],[976,-527],[1287,-526],[1907,-582],[1109,-319],[1597,-457],[1775,-596],[1153,-429],[1153,-527],[843,-665],[444,-692],[222,-804],[89,-637],[-267,-513],[-576,-582],[-932,-720],[-665,-652],[-577,-900],[-532,-762],[-311,-582],[0,-693],[266,-748],[355,-679],[754,-748],[1287,-818],[1375,-748],[1153,-485],[1376,-526],[1552,-748],[1242,-568],[976,-638],[843,-665],[799,-886],[709,-749],[533,-429],[754,-540],[444,-416],[2173,291],[444,55],[2218,236],[2129,305],[1864,457],[621,415],[798,624],[621,610],[932,595],[1242,499],[1641,471],[1553,416],[2484,609],[2174,527],[710,194],[1730,471],[3194,804],[2129,568],[1908,651],[2617,693],[2662,526],[1863,180],[1952,28],[2573,-153],[1952,-221],[3061,-319],[2218,-263],[1774,-166],[1686,-56],[1553,97],[1641,291],[1908,444],[2129,471],[1419,332],[2219,139],[1109,-42],[2306,-138],[1819,-208],[1908,-319],[1996,-429],[1641,-458],[1908,-512],[1597,-361],[1553,-207],[2306,-194],[2706,-153],[3904,-97],[4303,-55],[2795,-42],[2617,-83],[2618,-55],[2129,-97],[1508,-153],[1376,-249],[1907,-457],[1952,-651],[1642,-541],[1286,-568],[1508,-568],[1198,-429],[1508,-499],[1242,-347],[1952,-554],[1642,-540],[1730,-568],[2085,-333],[2218,-180],[2041,-69],[2040,-42],[1597,0],[1464,14],[1597,14],[1819,249],[1686,527],[1464,568],[798,291],[1863,332],[1420,153],[2440,194]],[[758628,708573],[-1908,-541],[-1597,319],[-1065,180],[2041,527],[1065,471],[2040,166],[-222,-457],[-354,-665]],[[862522,741423],[-1641,-139],[-1508,0],[-2307,42],[-1464,180],[-1375,42],[-444,374],[0,637],[2706,-111],[2263,-374],[1375,-138],[1641,-236],[754,-277]],[[105581,762884],[-2706,-41],[-2573,152],[-1908,360],[-976,361],[-177,637],[44,430],[44,498],[932,430],[1597,679],[1464,332],[2617,125],[2706,14],[1597,-83],[2174,-111],[1774,0],[2219,-263],[488,-638],[887,-291],[532,-706],[-1065,-485],[-1242,-596],[-1197,-249],[-1775,-305],[-2262,-97],[-1686,-111],[-1508,-42]],[[896015,767789],[2041,-291],[2351,166],[754,-679],[1420,-554],[-133,-471],[355,-665],[310,-429],[621,-762],[311,-762],[577,-499],[399,-499],[89,-388],[-267,-554],[-88,-430],[-222,-595],[-266,-790],[-976,-416],[-266,-526],[-1154,-610],[932,-499],[-533,-665],[533,-623],[-577,-444],[-754,-637],[-887,-790],[-266,-568],[-710,-692],[-1242,457],[-976,623],[-755,790],[-1375,679],[-931,457],[-843,721],[-444,415],[-887,776],[-399,845],[-444,679],[488,582],[399,499],[666,402],[976,595],[-45,361],[-44,582],[-133,401],[-355,541],[-355,471],[-399,512],[-532,776],[-577,624],[0,845],[355,845],[1641,360],[2617,-166]],[[3593,768163],[1997,-97],[1375,69],[1464,-318],[-1420,-42],[-1819,-429],[-2528,194],[931,623]],[[908703,809507],[754,-14],[3505,138],[9981,305],[1597,-83],[1375,-125],[2041,-291],[1641,-388],[1464,-679],[1420,-665],[709,-859],[976,-706],[1065,-748],[932,-693],[665,-610],[222,-526],[-355,-444],[-488,-429],[-1153,-610],[-710,-512],[44,-430],[754,-651],[1198,-624],[932,-540],[665,-374],[1464,-679],[976,-443],[1819,-651],[1375,-1317],[1198,-2909],[1508,-1136],[666,-1192],[1330,-1136],[1021,-2438],[-355,-1289],[-976,-1095],[-2174,-872],[-1464,-582],[-843,-1760],[178,-1344],[976,-1247],[-133,-1233],[-1154,-984],[-4658,-1094],[-3992,-471],[-5501,471],[-4081,0],[-3150,416],[-1597,637],[-444,914],[-44,1552],[0,1330],[222,1483],[-666,1551],[-1818,1400],[-1154,1413],[-1819,776],[-4303,1191],[-4037,1123],[-4081,498],[-1819,416],[-5190,914],[-2750,569],[-3195,1912],[134,41],[-2307,1067],[-1464,804],[-1863,1524],[-1154,1427],[-355,1399],[-266,1579],[-399,859],[-444,970],[-665,1386],[-89,623],[222,707],[710,845],[1331,762],[1685,637],[4658,1677],[1376,332],[2572,236],[3061,125],[1952,-56],[3239,-194],[2129,-263],[3638,-388],[1730,-235]],[[854582,802648],[133,-970],[-311,-249],[-532,-859],[-1375,-457],[-2041,-180],[-2351,83],[-1641,429],[-1331,527],[-1642,693],[-2129,194],[-2129,55],[-4082,125],[-2440,-42],[-2528,-166],[-1242,69],[-1686,153],[-1686,263],[-1198,734],[-975,734],[-1154,568],[-1109,444],[-1020,318],[-799,610],[1509,374],[1463,166],[1198,596],[666,762],[1330,624],[1420,291],[1952,291],[1597,97],[1242,110],[1908,264],[1641,194],[2218,304],[1375,167],[2263,291],[1774,83],[1331,332],[1242,499],[2218,236],[1420,138],[2528,208],[976,-748],[755,-471],[1020,-402],[444,-651],[0,-374],[-444,-554],[-621,-444],[-89,-568],[-665,-679],[-1376,-235],[-2351,-527],[-1331,-554],[-133,-804],[710,-609],[1109,-236],[1597,-111],[1730,-207],[976,-444],[666,-485]],[[886655,853759],[-1508,-69],[-1996,222],[-355,720],[488,430],[1286,166],[2751,-125],[576,-692],[-1242,-652]],[[698473,858179],[-843,-402],[-133,458],[45,651],[-89,471],[-44,512],[754,652],[1730,679],[887,263],[-89,-818],[-177,-595],[-976,-652],[-976,-734],[-89,-485]],[[651805,871466],[1242,-734],[44,-624],[-2528,-152],[-1464,-305],[-2085,-554],[-1287,-194],[-2306,-166],[-1642,-167],[-2617,-166],[-2484,-83],[-1908,-236],[-2262,-360],[-1376,-388],[-1597,-443],[-1109,-69],[-2085,111],[-532,789],[-177,513],[266,582],[532,679],[488,443],[1153,333],[1553,194],[1420,83],[1774,388],[1597,401],[1686,278],[1331,13],[1996,-207],[2174,194],[1685,124],[1819,194],[1553,208],[2706,139],[1774,-402],[666,-416]],[[734051,880527],[-1109,-221],[-1597,734],[-222,610],[45,540],[399,526],[1109,693],[932,333],[887,374],[843,388],[532,568],[266,388],[400,568],[798,540],[621,319],[355,-859],[621,-388],[-44,-513],[-577,-457],[-1242,-637],[-399,-458],[-355,-471],[-89,-471],[-311,-568],[-133,-762],[-443,-429],[-1287,-347]],[[436696,903956],[-1021,-138],[-887,665],[1641,457],[1597,332],[-310,-845],[-1020,-471]],[[448363,910717],[-932,-415],[0,415],[1331,679],[-399,-679]],[[81758,681389],[355,360],[1908,527],[1553,305],[5012,914],[1021,430],[133,457],[-577,2840],[-2617,5861],[-1287,623],[-1819,42],[-1730,0],[-2085,402],[932,706],[976,305],[1686,513],[-178,526],[-1153,984],[-2263,1690],[-1331,707],[-1641,416],[-2395,346],[-2352,235],[-2661,84],[-2085,-167],[-2973,-152],[-1419,55],[-44,790],[931,443],[45,555],[-1731,471],[-1818,457],[-1642,-111],[-1242,-41],[-3682,193],[-1419,361],[-89,789],[621,541],[133,582],[89,443],[1508,333],[1331,484],[931,541],[1464,319],[1775,-84],[1730,-457],[2706,-138],[1863,69],[1642,-540],[443,-402],[843,-610],[1508,-305],[1331,-471],[976,-235],[1952,-208],[1109,97],[5767,693],[1331,110],[2395,-637],[444,-416],[-621,-623],[532,-429],[2218,-347],[3638,0],[5102,83],[2085,-55],[931,-194],[2174,-499],[2262,-111],[6433,-208],[2040,-194],[1376,-83],[4924,582],[3948,887],[3238,928],[3106,1109],[7186,3214],[2972,1884],[3195,2550],[3371,3699],[2573,4406],[2529,4669],[177,374],[89,693],[88,928],[-133,2134],[-355,1884],[-399,651],[-399,624],[-266,485],[-533,1718],[-2395,7176],[-1686,4836],[-2706,4877],[-1375,2064],[-2174,3173],[-3016,2937],[-2307,2439],[-45,55],[-1818,1012],[-2485,872],[-3682,763],[-3415,360],[-2573,360],[-2440,208],[-2795,69],[-44,527],[0,734],[1907,540],[1819,291],[1952,305],[532,457],[-1641,374],[-1287,250],[-1863,748],[-1065,471],[-887,360],[-843,347],[-1952,374],[-1464,-111],[-2129,-347],[-1464,-152],[-1996,-69],[-2440,-14],[-1198,-748],[-1774,-361],[-887,-651],[-2085,-305],[-2751,-83],[-3150,-180],[-2395,111],[-1553,194],[-1819,346],[-1286,84],[-1641,-28],[-1908,-263],[-2395,221],[-932,416],[754,817],[-399,624],[-2218,1690],[-1819,540],[-2307,347],[-2218,457],[-2262,83],[-1509,14],[-1552,28],[-1065,374],[-1065,956],[45,1288],[177,762],[2174,416],[2040,-152],[2485,318],[1419,665],[754,430],[1376,471],[1464,55],[1419,-221],[2617,-319],[1775,69],[1242,291],[976,360],[1198,652],[-488,637],[-89,720],[666,790],[-488,527],[-755,304],[-709,472],[1197,678],[2307,582],[2307,499],[1508,513],[45,402],[-267,1371],[-488,818],[-1153,443],[-1730,360],[-1553,554],[444,624],[532,471],[-1419,707],[-1065,526],[-887,443],[-887,513],[44,679],[932,402],[2129,526],[754,208],[2706,582],[1065,679],[-133,374],[-400,2147],[-399,2578],[-843,1621],[-2351,4308],[-1153,1261],[-2218,277],[-1331,97],[-976,652],[-1375,429],[-2218,-28],[-1731,208],[-1419,319],[-2928,1164],[-177,27],[-2529,624],[-1287,554],[-310,333],[-1420,651],[-621,471],[-1109,429],[133,596],[-355,471],[-1419,374],[-1686,14],[-621,568],[666,416],[177,790],[-177,609],[-533,721],[-222,554],[-1064,332],[-488,485],[576,679],[1065,651],[133,527],[-44,831],[177,693],[266,596],[-1197,692],[1020,568],[887,333],[178,554],[1508,568],[-355,485],[1020,596],[1287,443],[1419,901],[1376,637],[1330,291],[1110,236],[2040,124],[3150,236],[2040,41],[1287,-55],[1286,-388],[2085,14],[3816,1385],[532,541],[1597,346],[2484,-166],[2706,568],[2307,319],[1774,-83],[1864,97],[1907,138],[1686,527],[3505,1163],[1419,416],[2750,0],[1331,-28],[1730,111],[1775,236],[4303,1898],[1109,443],[2174,360],[2661,97],[1864,153],[1508,471],[1242,277],[2440,-152],[621,-527],[89,-610],[-621,-678],[44,-596],[1287,-707],[1286,-291],[1996,-249],[1154,-28],[3726,166],[2662,264],[3016,374],[1553,457],[843,305],[2573,942],[4037,1510],[976,471],[2040,360],[3771,638],[6122,1011],[3682,887],[2706,1205],[2174,1413],[2307,2425],[1375,3242],[0,901],[-355,429],[-2396,2259],[-1508,1039],[-976,526],[-1907,554],[-444,610],[887,665],[1020,956],[622,610],[975,526],[755,388],[1330,416],[533,499],[2528,207],[1864,277],[1552,319],[1331,319],[1065,429],[1198,471],[1419,1026],[1996,1565],[1420,1635],[399,444],[1464,3158],[399,1940],[400,2494],[532,4018],[-577,2757],[-1464,4364],[-1552,3755],[-2218,4309],[-3682,6276],[-1819,2605],[-4614,6678],[-2307,3242],[-1197,2910],[-178,319],[-399,914],[-1686,5528],[-976,2549],[-2528,4573],[-1243,1745],[-842,1455],[-1509,3048],[-399,721],[-355,415],[-1508,1469],[-311,457],[-1907,2854],[-3017,4226],[-621,984],[-222,485],[-443,692],[-1109,984],[-2973,3893],[-3415,4988],[-2884,3367],[-2617,3741],[-399,609],[-1952,2605],[-2662,2840],[-1153,1843],[-2707,3048],[-2573,2536],[-443,526],[-1154,1192],[-1774,1732],[-2440,2133],[-2395,1926],[-932,638],[-3017,1745],[-2706,1455],[-1330,720],[-1731,1732],[-133,111],[1952,1136],[1819,942],[2174,1081],[1286,347],[1065,678],[1242,347],[1331,27],[1774,0],[1908,-27],[1819,-333],[1464,-263],[1730,-166],[2395,138],[3017,194],[44,14],[3061,236],[2218,180],[1553,180],[1553,125],[2839,152],[1952,-42],[1641,-263],[532,-402],[1154,-512],[1286,-180],[1464,-167],[2307,-41],[3327,-56],[2129,-13],[1908,166],[1819,263],[1109,208],[2795,-166],[1597,-485],[3061,-291],[1064,-97],[1730,-222],[2973,-194],[1907,-14],[1109,14],[2085,-457],[1154,-319],[1508,-124],[1952,-181],[710,-263],[399,-859],[89,-596],[-1642,-568],[-710,-582],[-532,-734],[-488,-817],[-754,-665],[-887,-347],[-1730,-221],[-2174,-236],[-2440,-291],[-1996,-194],[-1553,-28],[-1464,-568],[1553,-318],[1065,-471],[-267,-402],[-798,-527],[-444,-817],[976,-111],[2085,208],[2130,-69],[1109,166],[2129,305],[1109,304],[1242,208],[2218,83],[1065,278],[1153,415],[1154,388],[1020,333],[1109,429],[1774,430],[1420,-305],[4525,-319],[1109,-249],[1774,-153],[2041,-762],[2218,-776],[2617,-803],[1908,-624],[2174,-540],[798,-443],[666,-374],[665,-416],[1153,-582],[843,-540],[89,-679],[-310,-388],[-1154,-679],[932,-360],[1641,-56],[2085,111],[1287,250],[11667,-28],[1242,222],[1508,-14],[1420,-83],[1375,-181],[1198,-180],[1597,-83],[1685,-138],[1597,-361],[1908,-374],[710,-97],[2883,-429],[133,-153],[1642,-720],[798,-416],[2351,-942],[1597,-208],[1198,-429],[976,-541],[843,-221],[2440,-291],[3638,-208],[1996,-623],[-133,-638],[44,-914],[488,-707],[710,-360],[1952,-277],[1020,-416],[1153,-402],[1287,-401],[177,-458],[1065,-485],[1863,-471],[2130,-360],[2573,83],[1197,-374],[1287,-166],[2440,-277],[621,-360],[1996,-236],[3993,-679],[4081,-734],[1819,-360],[1996,-277],[1508,-444],[932,-221],[1907,-236],[2263,236],[1819,-153],[1774,-568],[1508,-790],[1775,-374],[532,-305],[2485,-512],[1996,-402],[1686,-416],[1419,-457],[1908,69],[1552,-97],[1597,-110],[1730,0],[2662,166],[1952,28],[1553,110],[1508,222],[1774,249],[1997,278],[1774,-291],[488,-319],[1464,-707],[710,-498],[665,-347],[1021,-540],[1020,-499],[621,-346],[621,-568],[444,-319],[976,-651],[488,-347],[709,-609],[89,-984],[-177,-707],[-311,-872],[44,-832],[178,-1261],[-89,-886],[-310,-1400],[488,-581],[399,-485],[710,-762],[2528,-319],[1509,-430],[1197,-1011],[1287,-1095],[887,-1053],[178,-1233],[665,-665],[310,-582],[-576,-415],[-621,-499],[-444,-734],[-577,-901],[-266,-360],[-488,-679],[0,-457],[-44,-1178],[0,-887],[-44,-692],[0,-1885],[532,-692],[710,-707],[576,-513],[267,-554],[443,-1219],[355,-956],[444,-873],[1286,-970],[710,-263],[2174,-1926],[2306,0],[1331,-263],[1021,-319],[2218,-457],[2484,-69],[2795,-83],[1819,27],[1685,111],[1775,-41],[2085,-125],[1996,-430],[1730,-651],[178,-817],[44,-942],[44,-596],[488,-707],[1065,-457],[-178,-845],[-266,-333],[-221,-651],[-222,-596],[-133,-665],[44,-360],[177,-526],[-177,-693],[-444,-444],[-798,-401],[-1020,-721],[-1331,-485],[-1198,-360],[-1819,-208],[-2484,-111],[-1686,-388],[621,-540],[932,-554],[-444,-818],[-488,-1150],[-443,-1136],[-444,-2119],[-89,-859],[0,-624],[89,-526],[133,-513],[799,-1981],[975,-1330],[666,-679],[355,-457],[443,-735],[1109,-582],[-44,-568],[-310,-803],[-134,-762],[-44,-832],[44,-526],[5235,-208],[1287,540],[1508,430],[2041,443],[1641,305],[7231,2438],[1464,499],[1552,250],[2662,-56],[1508,-180],[2662,-111],[1420,153],[1552,-14],[1464,-582],[888,-665],[399,-513],[133,-512],[-133,-541],[0,-623],[133,-1164],[-178,-457],[-621,-790],[-1730,-443],[-1774,-222],[-1996,-610],[-666,-554],[-133,-790],[444,-775],[1597,-527],[1197,-263],[2085,-180],[-177,-776],[-843,-347],[-1863,-124],[-976,-139],[-266,-734],[-178,-499],[-1996,-180],[-4126,236],[-1907,-388],[89,-402],[4968,-250],[-1065,-291],[-3282,181],[-843,-582],[-1154,-749],[1642,-69],[2573,-221],[1597,-679],[-1021,-582],[-754,-513],[16192,-1385],[1553,554],[1597,41],[2218,250],[799,595],[1597,527],[1685,0],[1464,55],[1908,-291],[2174,264],[709,332],[1642,166],[1952,56],[1597,-554],[2484,97],[1286,748],[533,526],[1819,624],[1330,374],[1154,305],[2617,-56],[1154,277],[1286,568],[2174,527],[3016,762],[976,402],[1642,443],[1419,665],[2218,818],[1775,568],[1685,512],[1598,651],[1641,569],[1419,235],[1597,263],[1819,167],[3150,110],[1331,28],[1863,-180],[1464,-97],[1774,-194],[1243,-208],[1863,-318],[1508,-194],[1331,-264],[1863,-415],[2529,-319],[1730,-471],[2307,-402],[1242,-291],[2085,-776],[709,-332],[666,-651],[754,-555],[1641,-637],[1731,-582],[-710,-845],[-1021,-928],[-2439,-374],[-1642,-471],[-177,-624],[-89,-665],[-577,-610],[-1286,-665],[-754,-304],[-400,-527],[89,-665],[355,-1094],[976,-1317],[1774,-2106],[1065,-1260],[1641,-1608],[1686,-1454],[577,-596],[665,-707],[621,-596],[400,-637],[266,-623],[-1287,-610],[-88,-526],[709,-388],[-44,-555],[-577,-415],[-1109,-457],[-355,-776],[2928,-513],[1863,236],[1287,-264],[1774,-512],[2440,-707],[1553,-720],[1641,-943],[1021,-803],[1863,-1025],[1641,-721],[1198,-388],[266,-512],[1065,-582],[1686,-250],[2085,-499],[2262,-706],[1420,-443],[1330,-458],[1420,-318],[1109,-250],[1375,-512],[533,-555],[576,-415],[1997,-360],[1375,-278],[266,-803],[1774,-596],[888,-374],[2440,-984],[1508,-734],[310,-804],[754,-485],[1021,-263],[1198,-346],[754,-693],[-488,-623],[222,-707],[1064,-180],[2573,-97],[1464,305],[2041,41],[2661,-277],[1908,-152],[1863,-430],[1375,-318],[1376,-167],[1419,-235],[1686,-388],[2129,-596],[311,-83],[2484,-540],[2351,-333],[1996,-138],[1997,-222],[1508,-153],[3904,-374],[1730,-207],[2484,-84],[2396,14],[10513,-1122],[1065,263],[1553,264],[3149,401],[1597,83],[1597,347],[2130,512],[1597,693],[1641,374],[754,208],[1686,582],[1154,430],[1153,429],[2440,-125],[-3416,-1080],[-1109,-291],[-1331,-388],[133,-568],[266,-416],[754,-554],[1021,-444],[1109,-360],[1863,-512],[1508,-361],[1908,-318],[3194,-624],[2041,-305],[1996,-221],[1464,-70],[2307,84],[2306,138],[621,83],[2219,291],[2528,430],[1508,221],[2130,347],[1242,291],[1597,402],[1153,498],[577,361],[1331,1163],[710,790],[1242,125],[1109,415],[1198,513],[1730,637],[2173,485],[1109,250],[2573,97],[1731,-14],[3460,69],[2883,-14],[1331,-69],[1508,-42],[2485,-194],[1597,-69],[1597,-14],[976,458],[1818,429],[1198,208],[1863,14],[1376,415],[1064,804],[1730,319],[1154,97],[1730,235],[44,790],[710,651],[1819,402],[1375,471],[1375,457],[2307,901],[2662,1011],[1153,901],[444,374],[798,540],[1198,194],[1242,665],[932,388],[1464,250],[1907,401],[754,167],[1243,540],[975,513],[622,471],[1641,443],[754,457],[710,665],[310,153],[888,928],[177,707],[-266,595],[-1109,361],[-1198,277],[-1730,485],[-843,512],[-266,790],[932,984],[931,706],[887,444],[1464,304],[1198,181],[2484,83],[1642,-527],[-45,-526],[-44,-555],[-89,-609],[0,-734],[621,-735],[2085,-526],[1775,-208],[843,-277],[1197,-347],[1952,-291],[2573,-27],[1819,27],[3017,181],[576,415],[666,638],[1153,415],[1198,180],[1508,194],[1509,167],[1774,194],[1242,27],[1775,0],[2040,-568],[666,-831],[-222,-873],[44,-720],[45,-818],[443,-429],[2706,-1012],[3904,-1344],[3416,-845],[3726,-513],[1553,14],[1641,180],[1021,388],[2218,305],[1685,-83],[3106,-360],[1996,-360],[1730,-319],[-843,-804],[-1464,-194],[-576,-429],[88,-873],[355,-623],[1154,-458],[665,-263],[532,-790],[-88,-776],[-621,-734],[-1198,-637],[-5279,-1039],[-4170,-264],[-1420,-318],[-1730,-568],[-1064,-707],[-488,-374],[-666,-623],[-488,-790],[89,-3284],[-45,-4004],[976,-3214],[355,-651],[1686,-1095],[1109,-582],[3239,-887],[1419,-332],[1908,-457],[6299,-1511],[2883,-720],[1908,-236],[1908,-69],[1863,139],[2040,249],[1819,-83],[1996,-430],[799,-498],[1375,-735],[1331,-471],[2129,-554],[799,-499],[-311,-692],[-976,-402],[-1242,-430],[-1552,-415],[-1198,-679],[1020,-1455],[444,-693],[843,-402],[1685,-678],[-1552,-402],[-3416,235],[-2484,0],[-1597,-41],[-2263,-153],[-2085,-429],[-1819,-402],[-2306,-333],[-1420,319],[-1464,568],[-1198,305],[-1597,222],[-1153,83],[-1730,41],[-1464,555],[-2041,568],[-3726,-361],[-2218,-388],[-2928,-595],[-3061,-929],[-2529,-1330],[-399,-235],[-3726,-1981],[-2618,-1441],[-2306,-2120],[-8207,-5944],[-1642,-1441],[-843,-748],[-354,-1192],[1375,-443],[222,-333],[842,-498],[932,-624],[-266,-942],[931,-679],[1952,-457],[533,-596],[44,-623],[-532,-457],[-666,-458],[-754,-360],[-222,-526],[-221,-471],[44,-458],[976,-415],[2085,-499],[2129,-568],[1021,-333],[576,-720],[-843,-513],[-931,-457],[-2085,-222],[-1109,-360],[-1154,-707],[178,-595],[266,-873],[-665,-582],[0,-388],[665,-1205],[1553,-804],[1242,-166],[1996,194],[1730,111],[1375,0],[1775,-84],[576,-512],[-576,-638],[-932,-512],[-3371,-721],[-2839,-512],[-1553,-70],[-1775,111],[-1730,222],[-1730,637],[-1641,582],[-1020,347],[-1420,526],[-577,651],[-709,721],[-355,346],[-1021,499],[-1597,776],[-976,249],[-5589,457],[-932,70],[-5811,623],[-2174,402],[-1109,568],[-843,734],[0,721],[-1774,346],[-2351,28],[-1198,180],[-1553,263],[-1419,139],[-1642,-14],[-1686,-153],[-2085,-124],[-5279,-1857],[3860,-1829],[1952,-1039],[44,-790],[-754,-457],[-444,-720],[1154,-444],[-1996,-471],[-1154,388],[-1730,333],[-1597,166],[-1153,222],[-1952,318],[-1331,-41],[-1375,-416],[-89,-526],[-754,-568],[-1730,-527],[443,-748],[444,-416],[44,-498],[-355,-624],[444,-859],[-665,-928],[-1154,-776],[-3283,-582],[-2085,-166],[-1242,14],[-1597,429],[-1419,97],[-3017,-845],[-754,-499],[177,-651],[-355,-831],[-931,-942],[-1109,-749],[-4303,-1856],[-3594,-1372],[-2351,-388],[-1331,153],[-1552,13],[-1331,-568],[798,-789],[-310,-748],[-887,-375],[-444,-651],[2085,-318],[1819,-665],[577,-291],[44,-665],[-311,-596],[-975,-762],[-355,-374],[-710,-1580],[-1287,-2632],[-443,-873],[-311,-568],[-488,-610],[-44,-609],[-444,-1594],[-355,-554],[-399,-804],[133,-1413],[399,-3186],[178,-555],[399,-623],[89,-610],[-311,-429],[-266,-499],[1065,-540],[44,-416],[-399,-762],[-532,-762],[-488,-928],[-311,-929],[-2262,-498],[-2307,-125],[-222,-734],[532,-762],[1154,-513],[399,-859],[355,-457],[444,-527],[576,-499],[932,-720],[710,-623],[488,-818],[133,-374],[355,-651],[177,-679],[665,-1386],[178,-484],[976,-763],[1464,-734],[1419,-291],[3372,-512],[2351,-305],[1331,-125],[1952,-319],[1552,-651],[444,-402],[444,-859],[266,-360],[621,-665],[1198,-970],[1508,-1274],[976,-804],[931,-526],[1154,-444],[1020,-374],[1597,-319],[1686,-332],[2662,-679],[1907,-402],[1464,-83],[2129,208],[1154,-568],[532,-554],[1065,-818],[2218,-1413],[1065,-610],[532,-318],[1109,-651],[1198,-458],[1286,-457],[1375,-526],[1376,-555],[399,-152],[2662,-637],[2972,-596],[1686,-249],[3061,-278],[1552,0],[1375,278],[2618,1025],[1153,332],[2174,111],[2174,-332],[842,-430],[267,-443],[-89,-541],[-1198,-637],[-1464,-402],[-1730,-471],[-1065,-402],[-488,-387],[-354,-472],[-755,-748],[-1907,236],[-1242,318],[-1863,167],[-1198,-42],[-2396,-402],[-2218,-637],[-3061,-901],[-1064,-207],[-1908,0],[-976,859],[-1819,1233],[-1730,1468],[-1952,1081],[-1552,610],[-577,263],[-1863,1039],[-1376,485],[-1109,222],[-4347,512],[-2839,347],[-2484,249],[-2218,416],[-1952,180],[-3061,277],[-4703,485],[-3815,235],[-2661,-97],[-1597,-41],[-1731,0],[-1419,83],[-2041,166],[-2129,-221],[-577,-250],[-2085,-125],[-1774,-41],[-2440,-56],[-2041,-180],[-2129,-277],[-1952,-263],[-3061,-540],[-5146,-749],[-2440,-429],[-2573,-831],[-710,-153],[-3415,-706],[-267,-56],[-6476,-1136],[-45,-14],[-4214,-734],[-1375,-180],[-1686,-250],[-532,-1260],[621,-402],[-799,-831],[-1863,-638],[-2218,-499],[-488,-678],[1774,-153],[1775,-305],[266,-803],[-532,-471],[-2085,-485],[-1952,-139],[-1597,0],[-1819,125],[-4259,-513],[-5856,-679],[-842,-346],[-3461,-859],[-3726,-734],[-1863,-541],[976,-762],[1774,28],[1109,-222],[1597,-609],[488,-541],[-177,-498],[488,-665],[1952,-569],[754,-554],[1419,-388],[888,-249],[709,-568],[-88,-693],[-400,-332],[-1508,-319],[-1774,-859],[-178,-665],[-133,-596],[-355,-568],[-399,-762],[-266,-734],[577,-568],[1375,-208],[1242,-291],[1286,-319],[6433,-1524],[1686,-318],[1463,-264],[-1153,-665],[-3105,-720],[-754,-263],[-1864,-984],[-1419,-374],[-1819,-485]]],"bbox":[98.25791,7.47852,98.48333,8.20028],"transform":{"scale":[2.2542022542022513e-7,7.217607217607215e-7],"translate":[98.25791,7.47852]}}