{"type":"Topology","objects":{"districts":{"type":"GeometryCollection","geometries":[{"type":"Polygon","arcs":[[0,1,2,3]],"properties":{"CODE":"9401","PARENT":"94","NAME_TH":"เมืองปัตตานี","NAME_EN":"Mueang Pattani","NAME_CN":"Mueang Pattani","COLOR_IDX":3}},{"type":"Polygon","arcs":[[4,5,6]],"properties":{"CODE":"9402","PARENT":"94","NAME_TH":"โคกโพธิ์","NAME_EN":"Khok Pho","NAME_CN":"Khok Pho","COLOR_IDX":0}},{"type":"Polygon","arcs":[[7,8,-7,9,-3]],"properties":{"CODE":"9403","PARENT":"94","NAME_TH":"หนองจิก","NAME_EN":"Nong Chik","NAME_CN":"Nong Chik","COLOR_IDX":2}},{"type":"Polygon","arcs":[[10,11,12,13]],"properties":{"CODE":"9404","PARENT":"94","NAME_TH":"ปะนาเระ","NAME_EN":"Panare","NAME_CN":"Panare","COLOR_IDX":3}},{"type":"Polygon","arcs":[[-12,14,15,16,17]],"properties":{"CODE":"9405","PARENT":"94","NAME_TH":"มายอ","NAME_EN":"Mayo","NAME_CN":"Mayo","COLOR_IDX":2}},{"type":"Polygon","arcs":[[18,19,20,-16,21]],"properties":{"CODE":"9406","PARENT":"94","NAME_TH":"ทุ่งยางแดง","NAME_EN":"Thung Yang Daeng","NAME_CN":"Thung Yang Daeng","COLOR_IDX":1}},{"type":"Polygon","arcs":[[22,23,24,-22,-15,-11,25]],"properties":{"CODE":"9407","PARENT":"94","NAME_TH":"สายบุรี","NAME_EN":"Sai Buri","NAME_CN":"Sai Buri","COLOR_IDX":0}},{"type":"Polygon","arcs":[[26,-23]],"properties":{"CODE":"9408","PARENT":"94","NAME_TH":"ไม้แก่น","NAME_EN":"Mai Kaen","NAME_CN":"Mai Kaen","COLOR_IDX":2}},{"type":"Polygon","arcs":[[-13,-18,27,-1,28]],"properties":{"CODE":"9409","PARENT":"94","NAME_TH":"ยะหริ่ง","NAME_EN":"Yaring","NAME_CN":"Yaring","COLOR_IDX":1}},{"type":"Polygon","arcs":[[-17,-21,29,30,-8,-2,-28]],"properties":{"CODE":"9410","PARENT":"94","NAME_TH":"ยะรัง","NAME_EN":"Yarang","NAME_CN":"Yarang","COLOR_IDX":0}},{"type":"Polygon","arcs":[[31,-19,-25]],"properties":{"CODE":"9411","PARENT":"94","NAME_TH":"กะพ้อ","NAME_EN":"Kapho","NAME_CN":"Kapho","COLOR_IDX":3}},{"type":"Polygon","arcs":[[-31,32,-5,-9]],"properties":{"CODE":"9412","PARENT":"94","NAME_TH":"แม่ลาน","NAME_EN":"Mae Lan","NAME_CN":"Mae Lan","COLOR_IDX":3}}]}},"arcs":[[[433579,812449],[-14,-49],[-1117,-9344],[-523,-4374],[-325,-3777],[-608,-3927],[-494,-3404],[-57,-398],[297,-5716],[452,-3653],[29,-248],[367,-1367],[1612,-6088],[70,-249],[1018,-4051],[339,-3901],[-113,-3802],[-268,-5418],[-976,-5392],[-1173,-5120],[-1329,-6560],[-876,-5716]],[[429890,729895],[-2191,-1715],[-2474,-2584],[-2912,-2659],[-1923,-1616],[-2036,-1814],[-3166,-2982],[-1951,-1864],[-2248,-2311],[-3590,-3032],[-3238,-1839],[-2686,-894],[-933,621],[-805,-75],[-481,-248],[-834,-99],[-707,-25],[-382,-298],[-424,-547],[-664,-597],[-551,-323],[-509,-174],[-453,-124],[-551,-99],[-4665,621],[-3633,1317],[-1258,124],[-1202,299],[-1343,173],[-1555,174],[-14,-1441],[-28,-870],[0,-1093],[-14,-1069],[0,-1366],[-14,-870],[70,-2883],[71,-4026],[184,-1218],[141,-546],[57,-1466],[-170,-994],[-71,-995],[-56,-1018],[-128,-895],[114,-820],[410,-472],[678,-597],[566,-223],[424,-646],[565,-696],[679,-1019],[-368,-820],[-297,-547],[-127,-1093],[141,-1243],[-240,-845],[240,-1466],[156,-721],[-43,-845],[-197,-745],[-495,-1069],[-382,-1093],[-297,-945],[14,-720],[481,-1292],[679,-721],[452,-348],[438,-447],[354,-721],[113,-1168],[113,-1168],[-283,-1267],[-481,-473],[-466,-919],[-198,-1094],[-580,-1192],[-28,-796],[57,-1590],[183,-1044],[71,-1242],[-580,-994],[-494,-721],[-594,-447],[-424,-323],[-481,-473],[-608,-944],[-339,-621],[-396,-1268],[-99,-869],[-14,-1442],[-28,-820],[71,-1267],[240,-945],[184,-1242],[0,-1019],[-128,-845],[-113,-1118],[-141,-1118],[-99,-1218],[-254,-1019],[-326,-398],[-367,-1143],[-255,-1541],[-226,-944],[-2021,423],[-1386,298],[-1343,-224],[-862,-3628],[-622,199],[-905,74],[-636,-124],[-509,273],[-551,-273],[-792,273],[-452,125],[-763,198],[-396,150],[-990,372],[-692,75],[-439,397],[-1951,-74],[-4905,-273],[-2389,-199],[-3633,-149],[-3152,49],[-1301,0],[-2728,-198],[-3238,-25],[-4071,-274],[-3930,-25],[-650,0]],[[332221,629149],[-226,622],[-509,1168],[-481,1317],[142,1118],[240,770],[523,1069],[-42,1019],[-538,770],[-353,323],[-1400,2237],[-961,1218],[-367,348],[-622,149],[-1202,-398],[-608,-50],[-495,149],[-395,-670],[-637,198],[-721,-919],[29,-920],[-241,-1043],[-99,-820],[-226,-920],[-692,224],[-396,1242],[-255,870],[-254,795],[-438,1516],[-396,174],[-523,621],[-481,473],[-481,-821],[-636,-1018],[-565,-1317],[-424,-1069],[-467,373],[-339,1217],[-254,671],[-806,-869],[-481,149],[-509,745],[-693,994],[-381,298],[-665,-124],[-523,646],[-141,1094],[85,696],[452,1143],[-297,894],[-438,796],[-155,745],[-99,845],[-15,969],[-127,771],[57,1217],[-410,945],[-764,372],[-508,696],[-382,249],[-721,919],[-438,1019],[-481,273],[-466,-546],[-736,-696],[-494,-50],[-636,-25],[-340,25],[-1117,1317],[-282,746],[-297,820],[-354,696],[-706,894],[-877,696],[-1272,1069],[-905,720],[-806,696],[-763,671],[-537,547],[-566,745],[-240,423],[-339,919],[-255,1044],[-113,721],[-127,870],[-537,969],[-552,-348],[-622,-25],[-735,149],[-791,-199],[-438,-273],[-580,-373],[-509,-497],[-438,-547],[-368,-248],[-579,-124],[-1004,25],[-664,124],[-453,199],[-537,-274],[-368,-199],[-565,174],[-424,125],[-537,-373],[-552,174],[-410,-75],[-692,-969],[-580,-422],[-622,621],[-184,1864],[-410,795],[-904,224],[-538,223],[-325,249],[-678,3678],[-509,2708],[-707,3778],[-254,1416],[-71,870],[-28,1069],[113,1416],[198,1094],[141,845],[297,1714],[184,1069],[183,1143],[170,994],[198,1143],[141,771],[170,1317],[99,969],[42,1342],[0,1043],[14,1342],[0,1318],[0,2236],[0,1591],[0,1540],[0,2187],[15,2585],[0,3031],[0,2784],[593,-75],[1117,-149],[1159,-224],[566,-124],[410,-99],[622,25],[622,-149],[452,-224],[622,-373],[608,-373],[707,-397],[495,-124],[523,397],[-622,2833],[-1046,4622],[282,696],[410,721],[410,472],[325,497],[128,895],[226,1317],[169,969],[184,1392],[28,1242],[425,920],[480,74],[453,-223],[706,-75],[453,-422],[311,-547],[494,-671],[184,-646],[424,-622],[297,-372],[382,-646],[353,-845],[495,-1168],[141,-572],[820,-50],[594,671],[594,572],[184,1019],[735,745],[240,696],[57,944],[367,498],[325,894],[99,1019],[226,1069],[241,919],[70,597],[15,994],[-15,795],[170,845],[410,671],[523,571],[495,-422],[268,-1094],[453,-298],[495,75],[452,0],[622,-100],[650,497],[622,-49],[127,1093],[-636,447],[-381,622],[-269,497],[-410,671],[-297,497],[-749,671],[-509,248],[-594,820],[-480,472],[-552,1243],[-127,895],[-311,820],[-268,671],[-85,1242],[-71,969],[-226,945],[-382,447],[-664,174],[-212,522],[-198,944],[-566,1168],[-410,547],[-198,919],[85,1218],[368,696],[693,348],[480,870],[-480,124],[-990,298],[-650,149],[-495,99],[-679,100],[-721,0],[-848,25],[-1541,-50],[-919,-99],[-1555,-100],[-933,-74],[-537,-25],[-1300,-25],[-848,0],[-962,-50],[-1625,-124],[-679,0],[-650,0],[-750,-25],[-862,-50],[-721,-49],[-579,-100],[-891,-174],[-848,-149],[-566,-124],[-721,-124],[-834,-174],[-848,-174],[-579,-149],[-679,919],[-721,572],[-438,-398],[-665,870],[-268,746],[-283,894],[-170,646],[-311,1541],[-169,696],[-453,1441],[-537,1616],[-608,372],[-480,-745],[-679,-149],[-466,49],[-552,25],[-692,174],[-651,0],[-395,224],[-481,497],[-707,-572],[-452,348],[-467,1193],[-495,895],[-339,1043],[-42,820],[-184,1044],[-212,920],[-339,497],[-552,-25],[-692,124],[-594,398],[-735,845],[-467,869],[-339,721],[-367,944],[-297,671],[-453,895],[-396,621],[-636,522],[-509,373],[-664,770],[-495,646],[-664,597],[-354,199],[-664,174],[-707,720],[-707,1069],[-509,944],[-325,721],[-240,522],[-438,845],[-241,596]],[[247430,786182],[-1074,3082],[664,74],[651,174],[1159,447],[2078,994],[2573,1417],[2615,1764],[1371,1019],[2616,2013],[1583,1740],[2785,2634],[523,745],[537,696],[537,497],[778,323],[3435,796],[608,596],[947,696],[1908,1615],[2177,1566],[6545,4274],[2404,1690],[4269,3280],[1781,1218],[269,522],[636,298],[353,323],[1485,1814],[706,920],[806,522],[453,248],[523,597],[466,546],[283,597],[396,621],[395,149],[1004,224],[4015,3926],[1993,2112],[1937,2958],[2163,3727],[2629,5517],[1456,3380],[-268,1143],[-198,1143],[-156,1143],[-1527,5517],[-2346,8226],[-1499,5045],[269,571],[2870,2783],[2714,2560],[2516,2460],[438,299],[735,671],[439,646],[664,919],[-2431,8052],[565,-1839],[537,-1789],[552,-1790],[777,-2559],[297,-522],[523,-497],[382,-870],[169,-919],[340,-423],[480,-646],[184,-1218],[396,-770],[297,-1218],[325,-571],[325,-721],[226,-721],[297,-820],[396,-1193],[283,-521],[720,-945],[566,-1019],[650,-969],[622,-845],[382,-323],[693,770],[212,572],[296,795],[142,1019],[-481,1143],[-480,1193],[-326,1044],[-127,2808],[806,621],[735,-49],[353,-299],[792,-497],[622,547],[735,124],[707,-497],[1583,-1093],[453,174],[311,795],[-113,895],[-637,497],[29,3678],[0,1242],[-8510,25],[749,249],[3534,0],[2954,-25],[1358,25],[254,198],[707,25],[353,-397],[14,-1119],[-14,-2087],[99,-696],[269,-1044],[551,-944],[424,-447],[594,24],[311,324],[452,521],[509,150],[467,24],[848,149],[565,274],[1315,1019],[778,372],[381,0],[3054,-273],[707,-50],[381,-49],[1414,-100],[749,-447],[1513,-1690],[749,-795],[1187,-1243],[1259,-1317],[339,-472],[495,-571],[296,-597],[425,-919],[381,-796],[523,-994],[198,-422],[495,-1069],[1202,-2435],[876,-1591],[877,-1590],[848,-1516],[494,-870],[297,-596],[707,-1267],[127,-224],[1824,-2038],[919,-1019],[1173,-223],[2446,-448],[2573,-497],[-538,-323],[-763,124],[-749,125],[-481,124],[-438,124],[-467,75],[-791,49],[-693,75],[-806,149],[-551,75],[-523,621],[-382,447],[-735,771],[-791,-746],[0,-1193],[183,-1217],[594,-945],[763,-696],[792,-273],[354,124],[636,274],[466,248],[523,100],[580,74],[622,149],[381,-149],[792,-298],[665,99],[551,-223],[339,-149],[707,74],[523,-99],[707,-274],[622,-198],[608,24],[664,994],[438,1168],[566,-198],[339,-150],[763,-298],[736,-298],[480,-174],[891,-373],[381,-149],[538,-919],[-99,-895],[-707,-6635],[-156,-1814],[0,-1118],[-14,-845],[-14,-796],[226,-1143],[142,-1143],[84,-2336],[-14,-845],[-70,-1118],[-29,-522],[-268,-1839],[-311,-795],[198,-1094],[551,-1242],[184,-1118],[608,-1069],[579,-1218],[834,-1416],[523,-621],[382,-497],[396,-721],[410,-174],[650,-323],[763,-795],[622,-647],[764,-472],[537,-174],[749,224],[523,-174],[764,50],[509,273],[777,721],[721,323],[792,397],[593,249],[552,99],[198,224],[1668,994],[735,671],[1230,770],[2375,2063],[2007,1914],[721,671],[396,372],[678,870],[693,870],[2460,2460],[495,895],[565,994],[749,770],[552,572],[282,571],[806,348],[537,274],[410,472],[636,546],[481,473],[565,298],[495,373],[537,298],[594,174],[806,248],[650,-199],[537,-223],[580,-597],[353,-447],[396,-621],[1781,-3703],[1061,-1715],[268,-174],[608,-522],[339,-521],[311,-721],[523,-1516],[566,-1441],[523,-870],[325,-174],[551,-969],[764,-820],[381,-522],[297,-646],[523,-299],[439,-720],[452,-746],[622,-696],[410,-223],[495,-572],[1696,-199],[636,100],[368,-298],[664,198],[877,249],[509,-373],[862,-1019],[933,-1267],[848,-1292],[339,-647]],[[269314,431734],[-2446,-8101],[-19141,-45129],[-3223,-3753],[-1710,-3678],[-396,-199],[-580,-521],[-381,-1218],[-15,-895],[57,-1541],[-156,-1143],[-183,-1019],[0,-1267],[28,-994],[99,-1367],[113,-944],[156,-1069],[84,-1019],[5938,-1913],[-113,-3604],[579,-8996],[28,-2460],[-763,-20800],[-155,-1789],[-877,-6635],[-834,-3753],[-1767,-8723],[-2884,-13966],[-1286,-6834],[-905,-273],[-212,-944],[28,-1019],[-28,-969],[-254,-1094],[1540,-1292],[1372,-1143],[452,-348],[1329,-1118],[1597,-1342],[2107,-1765],[1145,-944],[1965,-1665],[2035,-1665],[2092,-1765],[2955,-2460],[-1965,-9418],[1004,-15259],[4340,-17047],[5583,-26318],[3846,2411],[904,298],[849,75],[1639,74],[721,-74],[735,-174],[2036,-448],[1781,-720],[325,-199],[1089,-969],[240,-323],[1216,-2038],[1612,-3877],[1371,-4175],[438,-944],[608,-497],[919,-447],[593,-572],[297,-571],[340,-1019],[226,-1342],[28,-199],[113,-1988],[198,-1690],[113,-795],[693,-2560],[636,-2162],[382,-1242],[339,-696],[509,-423],[862,-25],[693,448],[608,223],[749,-74],[396,-124],[480,-547],[269,-870],[226,-1243],[240,-869],[481,-1268],[424,-845],[764,-1217],[452,-472],[693,-448],[1116,-373]],[[298915,155566],[-1032,-3578],[-395,-895],[-919,-944],[-877,-1168],[-1442,-1914],[-834,-1466],[-494,-1043],[-453,-1467],[-268,-1938],[-170,-671],[-170,-1441],[-183,-1044],[-99,-522],[-891,-2411],[-1060,-2609],[-1386,-3007],[-933,-2112],[-678,-2038],[-877,-2212],[-947,-2037],[-1003,-1442],[-2432,-2510],[-2092,-1640],[-1654,-845],[-1555,-373],[-1428,100],[-1823,199],[-1541,497],[-2700,1292],[-1852,944],[-1866,870],[-2319,522],[-1442,-100],[-1809,-372],[-1159,99],[-1442,25],[-1484,398],[-2093,795],[-1767,870],[-2262,1192],[-1427,299],[-834,0],[-1428,-572],[-1244,-224],[-778,0],[-608,497],[-1159,597],[-1385,1168],[-806,522],[-806,397],[-876,0],[-1400,-497],[-1696,-770],[-1824,-621],[-1696,0],[-1315,25],[-2134,646],[-1824,795],[-1399,522],[-1527,1441],[-877,770],[-1102,1442],[-806,1019],[-735,795],[-1159,1416],[-1032,1566],[-947,1168],[-806,770],[-1202,597],[-1173,0],[-1103,-373],[-2361,-1143],[-1682,-497],[-2714,-249],[-2050,398],[-1611,920],[-806,646],[-961,1317],[-651,1665],[-805,2211],[-721,1541],[-594,1168],[-721,522],[-1541,1292],[-1032,671],[-1527,1044],[-1314,1814],[-1697,1690],[-1314,770],[-1244,398],[-1386,149],[-1470,0],[-3449,-1516],[-3676,-1913],[-3378,-1268],[-2347,-497],[-1908,25],[-2489,398],[-2134,795],[-2262,1566],[-3265,3180],[-2192,2610],[-1060,2236],[-2078,3778],[-580,1242],[-1441,4150],[-1442,4150],[-608,1392],[-1301,2286],[-4891,7406],[-1216,2410],[-2431,5269],[-778,1193],[-99,124],[-2431,1516],[-2502,1814],[-976,572],[-3209,1739],[-2502,1193],[-353,99],[-1880,473],[-990,2162],[-353,1242],[-566,2535],[-1541,7530],[-410,1565],[-989,2634],[-1442,2187],[-1400,1193],[-2827,1988],[-3068,1864],[-1456,423],[-1187,546],[-905,572],[-2092,1938],[-1286,1317],[-1244,969],[-3393,2113],[-3153,1242],[-3930,572],[-1809,0],[-1824,-447],[-1159,-572],[-1329,-919],[-2601,-2312],[-791,-472],[-1866,-621],[-990,-174],[-71,0],[-1399,0],[-523,99],[-622,274],[-735,596],[-1089,1442],[-1541,2808],[-1343,3379],[-749,1914],[-1809,5070],[-241,1168],[-509,3031],[-155,1442],[-71,1019],[43,1590],[-43,1367],[-282,1019],[-495,571],[-339,348],[-1146,920],[-353,372],[-735,1119],[-325,546],[-2573,5791],[-424,969],[-834,1367],[-1272,1913],[-1555,1640],[-1273,1491],[-2488,2436],[-2714,2410],[-8213,7480],[2898,6114],[3392,7952],[2474,6635],[1570,4995],[1003,7654],[99,1864],[2106,845],[340,149],[1131,1069],[1116,1963],[1047,2286],[1555,4449],[2120,6585],[99,671],[-113,2908],[-14,2932],[-368,348],[-608,547],[-636,472],[-1272,621],[-1343,422],[-848,348],[-297,2063],[198,1665],[226,1019],[212,944],[240,1491],[241,994],[155,1516],[424,1243],[-141,1143],[-240,1839],[-99,969],[-57,920],[14,745],[142,1317],[127,1094],[169,546],[297,1268],[113,1242],[142,771],[381,720],[354,870],[311,348],[721,472],[-354,1640],[-197,1640],[-326,1591],[-155,1069],[-14,621],[0,1068],[-99,771],[-255,1590],[-113,1466],[-85,1094],[-183,1143],[-283,969],[-509,1268],[-184,2112],[-56,174],[-453,894],[-565,199],[-495,-25],[-876,100],[-523,397],[-665,622],[-212,1491],[85,1367],[28,1168],[-311,720],[-127,1218],[-28,721],[14,1043],[42,622],[85,944],[57,671],[56,1019],[28,1267],[-127,870],[-198,671],[-1131,373],[-622,-373],[-749,-373],[-707,-323],[-494,-323],[-707,-497],[-863,-571],[-947,-647],[-777,-497],[-735,-323],[-792,-223],[-1272,-373],[-976,-298],[-975,-299],[-1103,-323],[-1753,-521],[-1583,-448],[-834,-223],[-438,-100],[-523,-25],[-439,100],[-494,149],[-679,149],[-791,-572],[-128,-1416],[-141,-969],[-664,-1069],[-622,-398],[-608,-497],[-495,-447],[-693,-721],[-480,-770],[-538,-671],[-763,-596],[-636,348],[-283,1590],[-297,1665],[-254,1591],[155,1267],[467,721],[212,1018],[85,796],[282,1143],[241,745],[212,796],[155,1068],[142,1044],[282,1367],[198,696],[241,844],[226,1467],[28,894],[-28,1019],[-142,994],[-113,1094],[-99,1192],[-84,995],[-57,944],[-85,1044],[-71,795],[-70,969],[-71,1069],[-184,1491],[-452,820],[-1795,-771],[-3633,-1416],[-580,-224],[-1131,-596],[-622,-100],[-834,0],[-594,199],[-848,423],[-1074,646],[-1301,348],[-579,273],[-792,224],[-1499,472],[-1979,1168],[-1753,1143],[-452,124],[-523,100],[-608,223],[-466,348],[-410,373],[-622,795],[-552,1019],[-565,895],[-452,522],[-467,323],[-424,174],[-778,671],[-777,472],[-1400,348],[-678,646],[-509,720],[-792,1069],[-509,1168],[-791,1889],[-255,770],[-240,1441],[198,1119],[85,944],[410,820],[707,671],[381,1118],[580,100],[579,397],[255,572],[438,820],[495,348],[480,373],[693,845],[679,74],[692,348],[481,348],[424,249],[325,944],[368,199],[438,522],[99,1317],[240,994],[-84,944],[-227,994],[-155,820],[-99,845],[-509,944],[396,1342],[424,299],[579,745],[396,895],[552,1193],[509,1043],[593,870],[537,398],[495,174],[679,223],[367,398],[424,944],[509,522],[325,174],[835,348],[834,572],[466,1342],[255,770],[692,348],[622,422],[-28,771],[-85,894],[141,1069],[481,894],[156,1168],[-184,721],[-71,920],[-212,1366],[212,1168],[382,746],[367,348],[439,795],[608,969],[42,1019],[-170,621],[-198,845],[509,1144],[255,894],[-14,820],[-241,1019],[-42,1566],[-580,199],[-438,1242],[-57,870],[-141,1342],[170,919],[-156,920],[-537,646],[-452,969],[-495,99],[-566,721],[-551,249],[-452,869],[169,1516],[425,1069],[-57,919],[-693,945],[-452,795],[-424,447],[-240,795],[127,1168],[141,696],[141,845],[43,820],[-170,895],[-452,745],[-594,1144],[566,969],[551,522],[565,198],[523,647],[340,1416],[42,1168],[368,1168],[466,298],[438,249],[566,720],[565,100],[495,124],[325,1044],[-509,596],[-212,1044],[523,920],[396,447],[665,-124],[636,869],[85,845],[-467,1143],[212,1218],[-396,1317],[-452,472],[-467,1218],[-339,770],[-580,0],[-480,-24],[-679,472],[-70,1292],[-113,944],[-340,920],[-297,1068],[-113,696],[-297,1119],[-494,497],[-580,546],[-240,597],[-99,1193],[-14,894],[42,1268],[-141,720],[-184,1292],[-240,1069],[-566,-248],[-466,969],[14,696],[56,944],[71,696],[184,1540],[297,1044],[282,1367],[-113,1193],[57,1019],[42,1118],[43,1417],[42,521],[396,1044],[466,224],[735,-25],[552,944],[-14,895],[-29,994],[340,1441],[-14,1019],[-425,944],[-197,721],[113,1118],[-269,796],[-42,1466],[-212,1441],[-184,1094],[-142,1516],[-28,1068],[226,597],[622,1441],[566,1044],[537,472],[735,571],[325,970],[368,273],[678,-423],[750,-198],[706,74],[467,-124],[636,572],[396,646],[85,770],[523,447],[325,671],[537,696],[636,795],[-28,1293],[155,770],[-367,1044],[325,1292],[777,-124],[509,149],[509,74],[439,299],[-43,1242],[509,1243],[580,199],[692,546],[14,1243],[-579,621],[-283,1367],[764,571],[650,150],[565,49],[665,398],[-57,820],[-311,1193],[269,1267],[664,224],[594,547],[466,670],[311,1342],[241,1939],[141,944],[71,621],[14,1119],[-212,1466],[-43,919],[113,1417],[354,919],[396,572],[410,745],[381,771],[509,497],[537,50],[778,323],[636,348],[537,521],[721,920],[651,845],[494,447],[1018,845],[1173,746],[1160,671],[1597,770],[905,497],[763,572],[1117,1068],[1173,1541],[622,944],[1089,1914],[820,1391],[254,348],[608,448]],[[52008,626963],[749,372],[891,25],[481,-124],[466,-298],[523,-448],[679,-894],[551,-895],[664,-1044],[651,-1043],[480,-1119],[255,-869],[268,-1094],[142,-522],[353,-1068],[481,-1044],[565,-746],[495,-497],[523,-347],[452,-150],[594,-124],[749,0],[849,100],[989,198],[947,125],[863,24],[975,-49],[961,-124],[820,-224],[778,-298],[565,-373],[594,-547],[452,-621],[368,-597],[509,-969],[537,-1143],[693,-1615],[367,-696],[481,-696],[452,-472],[665,-422],[395,-125],[622,50],[636,348],[990,770],[679,547],[565,373],[848,298],[636,25],[622,-149],[594,-323],[636,-472],[1343,-870],[1527,-1119],[580,-596],[367,-497],[438,-696],[283,-671],[212,-745],[255,-622],[551,-770],[396,-273],[579,-199],[424,-75],[481,75],[975,422],[1909,1168],[1032,771],[3237,2236],[156,-1416],[240,-1491],[268,-1069],[467,-1118],[382,-721],[763,-820],[679,-298],[494,149],[552,572],[381,447],[396,398],[665,447],[777,149],[749,-149],[608,-423],[453,-323],[579,-348],[693,-149],[452,100],[665,372],[452,423],[594,621],[636,696],[594,422],[537,249],[551,149],[523,-50],[919,-174],[594,-223],[692,-423],[509,-372],[1471,-1218],[989,-795],[1329,-1119],[1088,-1019],[1259,-1590],[494,-547],[354,-248],[608,-124],[678,596],[269,1242],[42,1019],[57,1566],[141,696],[368,696],[805,99],[509,-373],[481,-522],[792,-894],[537,-696],[622,-994],[480,-969],[311,-522],[707,-249],[665,373],[494,273],[665,150],[481,-150],[523,-695],[226,-646],[424,-1293],[466,-770],[735,-249],[552,497],[283,572],[409,1193],[425,1044],[367,1018],[297,1144],[438,1018],[382,348],[622,249],[424,25],[650,-298],[255,-1392],[339,-1218],[396,-1044],[367,-521],[453,-647],[367,-546],[43,-1044],[-71,-919],[-113,-1442],[56,-1342],[156,-770],[424,-1268],[396,-695],[777,-597],[594,274],[311,347],[622,75],[467,-721],[735,-894],[480,-671],[241,-448],[509,-571],[325,-398],[565,-1043],[127,-721],[128,-969],[113,-771],[636,-696],[594,473],[636,894],[565,100],[396,0],[580,49],[99,-1441],[268,-1441],[382,-771],[-184,-1342],[-580,-795],[-607,-1143],[-509,-1118],[-226,-1367],[494,-1218],[580,-845],[537,-124],[778,-522],[537,-248],[707,-100],[494,-174],[679,-795],[283,-895],[113,-571],[381,-870],[368,-199],[537,-124],[707,-273],[707,-224],[1032,-273],[1187,-224],[665,-199],[749,-696],[693,-546],[480,-299],[552,-720],[791,-1417],[735,-1267],[368,-721],[226,-522],[382,-820],[240,-522],[749,-497],[509,323],[438,845],[637,1044],[438,298],[862,323],[467,100],[862,-249],[353,-969],[651,-1019],[777,-497],[721,-547],[410,-223],[594,-249],[876,-248],[848,-274],[863,-198],[834,-373],[452,-398],[509,-820],[636,-1242],[453,-1019],[508,-1168],[340,-671],[424,-547],[424,-422],[495,-423],[424,-398],[424,-621],[353,-820],[297,-1143],[226,-1218],[142,-696],[56,-944],[-113,-1392],[-113,-1466],[-141,-1516],[0,-1366],[127,-895],[396,-1193],[537,-895],[622,-422],[481,-75],[706,-124],[622,-248],[467,-274],[509,-348],[495,-298],[650,-149],[537,-671],[85,-1143],[311,-920],[537,-521],[735,-771],[396,-696],[679,-347],[777,347],[551,522],[340,298],[650,224],[693,75],[763,-423],[311,-696],[565,-770],[326,-99],[706,-149],[1018,-274],[976,-298],[848,-398],[1258,-646],[721,597],[580,497],[720,621],[396,522],[368,571],[254,771],[85,1019],[0,1192],[0,870],[707,746],[523,199],[693,223],[537,50],[664,-174],[410,-746],[509,-919],[453,-298],[791,348],[594,571],[396,497],[707,920],[508,-50],[778,-25],[707,75],[890,199],[368,174],[678,-25],[524,-100],[890,75],[396,298],[438,770],[283,696],[565,1193],[580,522],[876,174],[764,224],[537,0],[608,99],[862,-25],[580,-348],[495,-223],[706,-199],[608,-199],[368,-124],[721,-746],[297,-696],[367,-1118],[693,-969],[763,-298],[537,0],[1018,149],[467,49],[692,-99],[481,-273],[396,-423],[466,-596],[538,-597],[720,-472],[509,-149],[707,-149],[580,-174],[396,-149],[622,-423],[509,-571],[1088,-1243],[1810,-2162],[494,-497],[368,-397],[565,-771],[354,-621],[325,-745],[240,-547],[693,-1715],[438,-1193],[452,-1367],[396,-1416],[113,-770],[113,-821],[85,-994],[156,-1913],[113,-1417],[170,-1714],[197,-1963],[184,-1765],[438,-3827],[227,-2535],[212,-2037],[212,-2262],[198,-1839],[212,-2038],[212,-2236],[198,-1963],[155,-1566],[57,-1093],[-14,-1069],[3265,-23211],[664,-3404],[2347,-5120],[2926,-2932],[1909,-1615],[1625,-1541],[1174,-1342],[2474,-2510],[2163,-2609],[2360,-2808],[241,-274]],[[332221,629149],[113,-1093],[-311,-1069],[-481,-497],[-367,-273],[-410,-1069],[184,-745],[325,-795],[297,-721],[466,-1416],[127,-522],[311,-945],[255,-546],[537,-646],[650,-522],[396,-423],[693,-894],[509,-746],[509,-522],[579,-199],[693,-919],[85,-1044],[339,-1193],[495,-422],[636,-50],[565,75],[693,99],[778,199],[565,149],[848,75],[622,-100],[495,-99],[495,-149],[919,-299],[1286,-621],[650,-273],[566,-149],[452,-25],[636,199],[382,621],[452,994],[523,547],[410,49],[481,-323],[269,-696],[113,-869],[169,-1616],[170,-1491],[127,-919],[198,-969],[184,-870],[297,-1019],[311,-795],[593,-1069],[637,-1019],[551,-696],[396,-372],[452,-298],[566,-199],[551,-25],[551,-25],[382,-348],[226,-1044],[99,-969],[113,-1218],[113,-1391],[127,-1218],[184,-1068],[311,-1467],[241,-770],[296,-746],[481,-1168],[255,-1416],[-198,-1367],[-241,-994],[-240,-1342],[-424,-1839],[-354,-1789],[-127,-944],[-240,-920],[-255,-721],[-169,-671],[-396,-1590],[-353,-1218],[-269,-1168],[-184,-919],[-240,-969],[-410,-1044],[-339,-820],[-424,-1094],[-509,-1565],[-467,-1143],[-466,-970],[-566,-919],[-608,-944],[-339,-622],[-452,-894],[-170,-820],[-565,-796],[-481,-1217],[-551,-994],[-594,-1069],[-580,-969],[-480,-820],[-283,-597],[-325,-745],[-495,-721],[-438,-248],[-1103,-224],[-848,-199],[-424,-174],[-763,-546],[-481,-125],[-947,398],[-608,50],[-325,-149],[-636,-448],[-580,-99],[-636,0],[-594,-25],[-777,0],[-424,25],[-736,273],[-735,-74],[-396,-398],[-579,-721],[-622,25],[-665,671],[-706,323],[-382,-795],[-339,-1367],[-396,149],[-509,224],[-438,124],[-509,423],[-283,596],[-749,-397],[-113,-821],[-241,-944],[-325,-671],[-537,-745],[-311,-1342],[255,-1293],[-99,-994],[-113,-894],[-114,-1168],[15,-1491],[127,-1143],[85,-821],[-382,-1168],[-71,-919],[57,-1069],[-113,-820],[-481,-894],[-311,0],[-594,348],[-509,149],[-410,-25],[-706,-174],[-792,-50],[-693,274],[-466,-174],[-608,-870],[-353,-373],[-863,-50],[-551,-74],[-636,-423],[-382,-323],[-580,-124],[-650,1093],[-268,1094],[-495,-25],[-537,-895],[-538,-596],[-508,-224],[-509,-124],[-707,75],[-453,621],[-890,-124],[-438,-448],[664,-1491],[382,-944],[282,-870],[311,-1466],[71,-895],[-721,-2659],[-353,-1193],[-340,-1168],[-113,-497],[-155,-1068],[-113,-1193],[42,-969],[283,-1094],[594,-994],[1159,-1714],[707,-1566],[325,-1292],[806,-4125],[466,-2684],[608,-2510],[396,-920],[410,-720],[523,-671],[424,-398],[410,-248],[551,-274],[1145,-547],[1188,-571],[480,-274],[580,-546],[226,-547],[198,-1044],[99,-720],[57,-1143],[-15,-696],[-70,-1019],[14,-1019],[42,-795],[142,-1491],[254,-1193],[311,-696],[339,-472],[424,-373],[538,-323],[664,-348],[763,-348],[608,-397],[778,-796],[664,-820],[297,-546],[283,-721],[297,-1118],[127,-1144],[14,-1416],[71,-1317],[183,-1268],[227,-1217],[325,-1143],[311,-870],[466,-895],[311,-422],[750,-547],[1031,-770],[1061,-870],[353,-249],[495,-472],[622,-820],[382,-770],[551,-1143],[311,-746],[269,-745],[197,-1144],[57,-869],[0,-796],[-127,-2261],[-71,-895],[-184,-1193],[-226,-1018],[-452,-3281],[-43,-546],[71,-1119],[396,-1019],[678,-447],[495,348],[438,1118],[283,1094],[156,720],[593,622],[622,-796],[184,-1093],[-127,-1342],[-184,-870],[-268,-671],[-410,-447],[-990,-721],[-466,-273],[-778,-572],[-636,-472],[-438,-373],[-424,-596],[-552,-1044],[-169,-720],[99,-1243],[240,-795],[579,-945],[693,-447],[848,-99],[820,223],[325,224],[622,621],[396,473],[396,571],[368,572],[607,795],[467,248],[466,75],[594,74],[636,-124],[735,-447],[396,-1317],[0,-1243],[-56,-646],[-184,-1093],[-311,-1193],[-368,-1168],[-226,-770],[-254,-1367],[-14,-994],[14,-1044],[-14,-944],[28,-1019],[71,-721],[127,-820],[198,-994],[169,-671],[410,-1044],[340,-1242],[197,-671],[297,-746],[467,-1168],[283,-720],[183,-671],[170,-1293],[28,-745],[14,-1491],[15,-1019],[-57,-870],[57,-721],[113,-1516],[42,-1540],[14,-1516],[43,-1317],[70,-994],[170,-1193],[170,-944],[282,-1342],[311,-1243],[57,-224],[410,-1118],[339,-1019],[410,-994],[523,-969],[452,-746],[354,-472],[777,-646],[721,-348],[142,-74],[749,-497],[495,-597],[523,-149],[367,-447],[354,-746],[353,-820],[226,-944],[14,-795],[-226,-920],[-311,-596],[-353,-472],[-438,-547],[-439,-497],[-622,-1118],[-254,-895],[-28,-1218],[226,-845],[622,-646],[692,50],[410,323],[425,472],[650,597],[424,248],[707,298],[523,-25],[650,-198],[749,-249],[509,-273],[735,-75],[410,497],[382,746],[509,969],[862,-124],[382,-845],[141,-721],[-127,-944],[-523,-1119],[-424,-621],[-396,-522],[-339,-671],[-241,-994],[255,-869],[297,-622],[495,-1217],[98,-324],[340,-1317],[198,-1043],[-29,-1491],[-339,-920],[-339,-472],[-424,-423],[-410,-198],[-481,-50],[-495,50],[-424,124],[-636,149],[-551,199],[-424,0],[-537,-398],[-453,-820],[-339,-621],[-467,-572],[-622,-522],[-664,-472],[-424,-273],[-566,-174],[-636,-50],[-608,-273],[-296,-572],[-227,-1242],[0,-945],[184,-1242]],[[351927,361456],[-10532,-497],[-11549,6138],[-3421,2237],[-4382,571],[-7577,12475],[-2503,-74],[-2219,2236],[-3859,3380],[-5174,3902],[-3435,2162],[-3181,2311],[-2488,2460],[-2446,3852],[-1724,3081],[-2305,3430],[-3718,5393],[-1215,1863],[-311,224],[-679,-199],[-594,-1814],[-763,-646],[-438,124],[-551,497],[-4270,12624],[-1413,1864],[-1866,2684]],[[52008,626963],[-311,2087],[-240,174],[-2220,969],[-1866,1143],[-4947,6312],[-4482,6039],[-1032,2411],[-593,2385],[-580,3852],[-495,6288],[-353,6958],[169,6759],[283,6710],[198,7803],[382,5641],[353,1417],[2799,4647],[5853,8673],[1625,3355],[184,994],[-85,696],[-1385,1689],[-1470,1989],[-891,1689],[-297,497],[-664,299],[-467,-50],[-664,-646],[-311,-547],[-1046,-2162],[-721,-596],[-523,-25],[-453,248],[-579,622],[-495,1043],[-240,771],[-269,1068],[-297,1342],[-183,994],[-128,1019],[-99,1243],[-42,944],[28,1044],[113,820],[241,1044],[410,1192],[395,721],[538,646],[650,597],[622,447],[777,621],[538,845],[141,1143],[-42,820],[-354,1392],[-353,646],[-453,547],[-480,422],[-509,547],[-382,646],[-396,1367],[-99,1267],[170,820],[509,597],[678,199],[736,-75],[720,-397],[453,-423],[452,-547],[905,-1168],[608,-497],[650,-149],[806,50],[537,174],[806,397],[1117,771],[1187,820],[1103,919],[282,299],[1103,1192],[226,274],[891,1242],[481,721],[395,472],[877,870],[2205,1590],[976,796],[650,447],[523,323],[466,199],[467,99],[791,75],[439,-100],[565,-198],[905,-497],[580,-224],[579,-124],[566,-50],[537,25],[523,149],[509,174],[707,696],[339,770],[212,696],[226,1093],[198,1143],[141,1094],[85,870],[283,1093],[509,149],[933,174],[622,497],[523,274],[537,372],[353,497],[679,497],[721,274],[367,49],[552,0],[551,100],[170,1093],[-368,1317],[-85,2063],[269,50],[1711,323],[1922,546],[1597,448],[2503,571],[509,100],[2445,546],[269,50],[1908,323],[1371,174],[509,50],[580,0],[1795,0],[1668,398],[170,24],[1838,274],[777,323],[1654,745],[848,125],[1075,372],[1018,-174],[127,0],[1159,-24],[1272,149],[14,0],[3549,372],[5018,721],[2813,522],[665,-25],[1187,373],[1951,596],[594,100],[466,174],[509,323],[693,223],[551,50],[1089,25],[551,25],[523,-174],[580,-323],[664,-423],[664,-546],[354,-348],[353,-671],[410,-323],[566,-398],[820,-621],[466,74],[438,1218],[481,1665],[1004,1441],[5018,348],[7535,-373],[8058,-1267],[466,-124],[3987,-994],[1328,-249],[3153,-571],[608,-149],[2714,-622],[664,-323],[806,-199],[1018,25],[806,174],[551,-25],[424,50],[749,-25],[665,-25],[622,50],[1201,-99],[1683,-75],[805,75],[721,273],[509,845],[651,572],[565,1043],[975,373],[976,99],[14,0],[1145,-124],[2219,-248],[2856,-423],[580,-74],[353,-50],[2658,-273],[1809,571],[2460,75],[4538,-50],[2785,-199],[2685,249],[1852,-298],[2630,671],[2516,919],[2304,1441],[863,274],[1116,671],[806,49],[481,0],[452,274],[354,1267],[579,944],[495,249],[608,944],[353,547],[481,522],[1498,596],[594,100],[806,-597],[396,-695],[579,-100],[424,944],[170,821],[721,49],[2347,124],[198,0],[735,-24],[834,0],[1456,49],[820,100],[311,99],[1738,100],[2192,124],[636,74],[537,100],[579,0],[524,-199],[862,-25],[792,273],[692,398],[2121,870],[325,174],[3082,1888],[791,274],[481,25],[608,223],[791,274],[538,124],[1060,472],[622,100],[622,-522],[692,-746]],[[815843,579671],[-947,-671],[-989,-720],[-1287,-820],[-1329,-920],[-537,-522],[-820,-795],[-805,-745],[-425,-522],[-494,-671],[-735,-771],[-410,-348],[-651,-497],[-395,-323],[-1117,-944],[-1287,-1044],[-876,-671],[-990,-745],[-551,-298],[-919,-497],[-2361,-1541],[-805,-522],[-962,-596],[-2756,-1666],[-8694,-5964],[-31991,-15407],[-10588,2286],[-2248,870],[-2955,-174],[-2374,-845],[-1739,-1168],[-636,-423],[-2008,-4199],[-1385,-3330],[-6531,-16601],[-85,-4821],[481,-4374],[339,-4647],[-1060,-4299],[-1414,-4150],[-1357,-3057],[-1824,-2857],[-2261,-3157],[-2079,-2584],[-2346,-1963],[-2177,-994],[-2276,-895],[-2432,-323],[-1116,-671],[-594,-273],[-961,-1069],[-439,-770],[-311,-795],[-622,-1690],[-735,-2933],[-721,-4125],[-1187,-3579],[-99,-248],[-650,-820],[-1683,-1591],[-2092,-1118],[-3774,-2236],[-919,-994],[-919,-1765],[-3110,-5989]],[[683823,449080],[-749,1615],[-1089,2560],[-707,1690],[-311,721],[-933,2286],[-565,1367],[-481,1143],[-523,1391],[-268,771],[-453,1491],[-834,2659],[-692,2137],[-919,2908],[-792,2435],[-580,1764],[-650,1964],[-438,1168],[-537,1441],[-594,1789],[-862,2411],[-1046,2733],[-552,1516],[-480,1143],[-453,1019],[-523,920],[-1201,2013],[-1513,2385],[-1046,1690],[-1046,1616],[-976,1640],[-834,1342],[-975,1441],[-1216,2013],[-452,696],[-467,795],[-494,919],[-354,622],[-1117,1714],[-1357,2138],[-1117,1714],[-1145,1790],[-1229,1963],[-1711,2435],[-650,920],[-1089,1640],[-1781,2833],[-1343,2087],[-806,1243],[-919,1441],[-452,671],[-495,820],[-1696,2610],[-1852,2907],[-1159,1765],[-1640,2683],[-1301,1964],[-1710,2783],[-1343,2013],[-1682,2659],[-2206,3454],[-692,1019]],[[626726,556560],[3873,2336],[3449,2808],[255,373],[1541,3752],[1201,2138],[2757,4970],[2898,7331],[-240,5591],[-1386,16153],[-1526,9419],[-1244,7679],[-778,4597],[-1838,11208],[-1427,4970],[-622,2510],[-2050,6287],[-1485,3206],[-1880,3454],[-2163,3305],[-1753,3107],[-169,74],[-2135,3653],[-2064,3306],[-367,671],[-2389,3255],[-1654,1988],[-721,1292],[-933,2535],[-438,2162],[-778,3380],[269,3479],[226,1417],[212,869],[325,1044],[452,1093],[354,870],[466,696],[1004,1516],[608,646],[579,323],[552,25],[551,-149],[1188,-398],[876,-199],[862,75],[566,298],[551,472],[664,1019],[538,1243],[367,1093],[665,2311],[212,597],[692,1565],[241,497],[537,746],[608,770],[509,572],[706,745],[637,671],[523,448],[325,273],[551,224],[721,74],[665,-124],[438,-373],[495,-422],[664,-249],[594,-74],[410,0],[862,373],[466,646],[637,1242],[1060,2088],[678,1043],[410,547],[735,820],[1513,1417],[481,820],[226,646],[198,919],[99,796],[42,1043],[85,2485],[99,771],[141,795],[325,1367],[326,1292],[876,2560],[353,1168],[170,994],[42,1913],[-14,249],[-311,4249],[-14,1143],[57,945],[113,646],[396,895],[820,521],[480,-49],[2757,-1491],[707,-224],[890,99],[764,323],[650,373],[1201,1069],[2093,2187],[424,596],[424,572],[325,546],[297,696],[254,696],[311,1044],[325,1267],[29,1044],[-29,1193],[-169,919],[-269,1118],[-141,498],[-778,2162],[-297,820],[-268,621],[-311,646],[-848,1342],[-622,696],[-1598,1342],[-466,372],[-1866,1144],[-481,198],[-1781,597],[-1371,397],[-523,249],[-495,273],[-693,547],[-565,572],[-325,422],[-651,969],[-297,572],[-523,1391],[-268,1193],[-721,4871],[-495,1988],[-410,945],[-678,844],[-679,497],[-707,398],[-650,174],[-594,-174],[-480,-323],[-608,-1069],[-509,-1640],[-99,-646],[-28,-1168],[-29,-2957],[-70,-621],[-368,-1591],[-353,-870],[-424,-795],[-453,-646],[-537,-522],[-707,-373],[-1103,-323],[-1314,125],[-1046,174],[-552,223],[-579,423],[-453,497],[-367,546],[-481,1044],[-141,472],[-735,2833],[-424,970],[-509,646],[-721,497],[-1188,695],[-226,125],[-1088,845],[-2347,2733],[-551,522],[-467,75],[-777,4199],[99,5294],[28,1441],[99,1516],[212,2982],[141,3206],[184,4299],[537,5194],[651,3330],[127,621],[622,4101],[396,2857],[127,796],[678,4622]],[[620463,825049],[750,-398],[381,-273],[566,-447],[1484,-1268],[1145,-969],[339,-273],[622,-448],[1301,-795],[1583,-770],[580,-274],[495,-149],[410,0],[607,348],[806,-50],[467,-298],[523,-497],[565,-870],[509,-770],[551,-646],[948,-1168],[933,-944],[2799,-3057],[1555,-1640],[1399,-1218],[1979,-1963],[976,-671],[834,-224],[890,224],[735,-124],[566,-174],[636,-298],[438,198],[778,696],[537,-422],[608,-646],[537,-547],[410,-323],[565,-373],[693,-547],[636,-149],[707,50],[481,50],[452,149],[467,0],[424,174],[805,372],[806,-671],[537,-397],[806,373],[636,323],[410,273],[354,870],[-269,720],[226,1243],[71,920],[-580,497],[-494,-348],[-382,-473],[-481,-671],[-480,771],[-495,25],[-297,-920],[-353,-447],[-453,1193],[396,621],[495,944],[551,448],[763,323],[382,174],[679,422],[509,746],[565,348],[820,-25],[424,-522],[636,-845],[537,-746],[227,-298],[537,-820],[311,-497],[692,-770],[453,-547],[594,-795],[664,-696],[523,-447],[594,-572],[325,-572],[466,-745],[538,-870],[508,-745],[919,-1193],[905,-1143],[693,-895],[664,-621],[438,-522],[354,-423],[622,-347],[565,-522],[594,-945],[565,-621],[481,-596],[537,-771],[325,-472],[524,-795],[466,-646],[353,-696],[425,-447],[749,-274],[735,-596],[565,-547],[509,-497],[495,-497],[353,-298],[580,-224],[339,-298],[608,-671],[778,-522],[777,-646],[537,-273],[396,-75],[806,-99],[396,-547],[495,-671],[395,-323],[735,-497],[425,-373],[438,-348],[692,-497],[439,-323],[480,-373],[382,-298],[481,-348],[480,-372],[537,-497],[679,-622],[806,-621],[848,-596],[679,-448],[947,-373],[692,-49],[523,124],[792,373],[650,994],[113,919],[-579,1168],[-113,1069],[339,1044],[509,124],[678,522],[637,149],[395,-100],[721,-149],[523,-447],[693,-25],[707,-199],[735,75],[650,199],[410,174],[764,472],[622,870],[268,969],[212,944],[269,746],[85,1366],[438,870],[763,696],[424,497],[566,-944],[509,-746],[1640,-2162],[1116,-1342],[863,-870],[862,-720],[382,-149],[707,447],[98,845],[425,596],[452,100],[664,-25],[665,-199],[254,-447],[1032,-1939],[396,-919],[353,-621],[693,-1119],[1301,-2833],[820,-1491],[410,-894],[1343,-2883],[777,-2038],[905,-1839],[523,-1416],[495,-1367],[424,-795],[424,-572],[579,-1441],[1230,-2734],[1951,-3802],[2290,-3926],[198,-299],[1357,-2062],[2050,-2933],[2106,-2982],[3167,-4846],[876,-944],[2149,-2311],[551,-398],[806,-199],[481,-223],[339,-721],[679,75],[622,372],[212,895],[834,-25],[438,1119],[-156,1515],[707,25],[820,0],[947,-298],[820,-497],[495,-224],[749,473],[792,-522],[664,124],[665,721],[537,-100],[820,-124],[763,-199],[410,274],[622,149],[735,-448],[566,-869],[1272,-3330],[1173,-3306],[636,-1814],[750,-2112],[2516,-6635],[919,-2560],[1032,-2858],[2219,-6362],[1895,-5442],[282,-820],[325,-994],[721,-2137],[905,-2684],[2432,-7083],[989,-3056],[566,-1715],[2671,-8101],[566,-1790],[1230,-4001],[339,-1043],[155,-473],[1103,-3404],[354,-1069],[1795,-5417],[1201,-3604],[354,-1118],[1230,-3877],[2813,-8598],[3972,-12301],[1216,-3827],[1668,-4921],[1244,-3578],[961,-2759],[3732,-11009],[1273,-3951],[438,-1342],[339,-1019],[1004,-3007],[1781,-5641],[1668,-4821],[537,-1541]],[[683823,449080],[-3421,-2808],[-2092,-2112],[-2290,-2485],[-2333,-4349],[-2248,-3554],[-3081,-7927],[-778,-4424],[-1399,-5467],[-128,-472],[-268,-1392],[-43,-273],[-226,-2560],[99,-1466],[255,-1268],[254,-596],[636,-1143],[919,-1168]],[[667679,405616],[-2658,323],[-3590,-25],[-2333,-373],[-1809,-522],[-552,-223],[-2643,-1541],[-1230,-944],[-664,-398],[-1852,-671],[-2630,-497],[-3930,-25],[-325,25],[-3604,199],[-3266,124],[-3407,124],[-3336,448],[-2856,497],[-2827,497],[-240,49],[-2446,299],[-2460,522],[-2883,347],[-1838,-2162],[-99,-497],[-905,-4796],[-2912,-1640],[-4326,1243],[-2262,-796],[-3958,174],[-3180,-1317],[-566,-646],[-481,-1292],[-127,-547],[-396,-2460],[-99,-1094],[29,-2062],[0,-2212],[-57,-770],[-254,-1317],[-877,-2336],[-650,-2833],[-71,-1839],[608,-3629],[523,-4100],[-184,-3032],[-466,-1615],[-523,-1889],[-198,-720],[-792,-2709],[-876,-2734],[-665,-2659],[-56,-397],[-141,-2635],[-15,-1267],[326,-4324],[99,-4771],[-354,-4374],[-1131,-3579],[-749,-4547],[-452,-1193],[-142,-646],[99,-1765],[382,-1640],[283,-696],[169,-795],[142,-2435],[664,-2436],[565,-2435],[778,-1392],[664,-1963],[608,-3081],[85,-3405],[438,-4448],[-396,-5716],[-579,-1839],[-1329,-3852],[-721,-3429],[-113,-1218],[-42,-1839],[99,-1243],[42,-770],[-339,-3057],[-297,-4771],[-311,-2236],[-650,-2858],[-1315,-2933],[-1075,-795],[-14,0],[-834,-795],[-509,-1442],[-509,-3230],[-183,-1466],[-580,-3778],[14,-3603],[481,-5368],[-142,-3852],[-268,-3628],[-184,-2336],[452,-596],[792,-1019],[382,-472],[424,-497],[466,-597],[750,-745],[466,-448],[551,-571],[594,-522],[552,-497],[438,-348],[410,-298],[-184,-1889],[-452,-944],[-425,-125],[-353,-671],[28,-1317],[71,-1689],[-85,-1889],[-410,-1740],[-240,-894],[-226,-945],[-424,-1118],[-467,-994],[-806,-199],[-678,-348],[-382,-149],[-466,-571],[-778,-125],[-622,-298],[-339,-149],[-650,0],[-778,-25],[-565,-248],[-297,-1044],[-127,-1292],[-15,-2287],[184,-1068],[325,-696],[354,-721],[424,-869],[198,-473],[-1315,-223],[-1654,-547],[-1880,-298],[-2347,-423],[-721,50],[-240,-25],[-1753,124],[-2530,1044],[-3704,945],[-3704,894],[-2488,771],[-2870,646],[-3732,621],[-198,50],[-2601,124],[-1173,596],[-3562,2361],[-3436,2336],[-593,398],[-396,-348],[-198,-1591],[311,-3603],[0,-2013],[-113,-2858],[-551,-4001],[-1456,-4721],[-1796,-5020],[-1074,-1591],[-1569,-397],[-3025,497],[-1146,348],[-127,49],[-6262,1939],[-1004,248],[-1894,423],[-1075,-696],[-579,-1044],[-240,-422],[-905,-1889],[-863,-2734],[-848,-1416],[-1244,-1417],[-820,-2062],[-2021,-4026],[-1202,-2436],[-1216,-2460],[-113,-3106],[255,-3032],[777,-2908],[2644,-5864],[678,-1218],[297,-572],[1103,-2236],[353,-1715],[113,-3305],[453,-2460],[1032,-5617],[212,-1888],[-226,-1491],[-849,-671],[-1470,-224],[-1583,-323],[-2149,-1367],[-2869,-2038],[-3421,-1341],[-2446,-1367]],[[502113,123360],[-3350,2187],[-3436,1640],[-2078,1342],[-749,1590],[113,895],[283,4423],[-1145,4995],[-1767,3554],[-2234,3057],[-2785,4945],[-1809,3852],[-693,2485],[382,3603],[806,4076],[1413,6312],[1979,5716],[340,3031],[-85,2386],[-368,2460],[-169,5418],[-170,7952],[-212,6064],[-1018,3876],[-1018,5343],[57,4175],[1357,7729],[-14,1789],[-127,3504],[-227,1243],[-607,3280],[-1089,7406],[-1399,7281],[-1965,11009],[-255,4970],[-480,2361],[-919,2112],[-1951,2759],[-339,1491],[-1669,7753],[-904,4399],[-2248,5467],[-3690,10065],[-1894,5740],[-1979,6213],[-4354,15457],[-3619,9791],[-2516,6412],[-2050,2883],[-509,720],[-4071,6089],[-764,1963],[-721,2833],[-1569,6014],[-1852,3976],[-2629,7828],[-2813,6163],[-1018,3405],[-1357,3578],[-2333,6312],[-2375,4449],[-1215,1565],[-184,1392],[-28,323],[56,2833],[764,3901],[1442,3703],[3590,4697],[4185,4349],[410,1541],[14,1888],[-241,1168],[-834,1442],[-848,2982],[-169,1491],[-467,646],[-891,75],[-1993,-1168],[-4877,-1690],[1258,1068],[1414,1044],[7747,7828],[3505,4249],[3634,4225],[622,696],[1724,3976],[2135,5144],[1838,7306],[1003,5716],[622,5169],[580,10139],[424,8027],[141,2535],[-198,1640],[-706,2311],[-142,273],[-2007,4623],[-523,1714],[-57,1193],[241,1640],[494,1541],[424,945],[538,2261],[127,1118],[0,1417],[-57,273],[-268,3753],[-735,2708],[-1329,5443],[-1866,6212],[-1174,7530]],[[447574,548036],[4835,-894],[5174,248],[2940,-124],[3379,-472],[3223,-622],[2417,-472],[3676,-1193],[2714,-1018],[3082,-1665],[1569,-920],[1414,-944],[5004,-2659],[2318,-1516],[1273,-820],[3067,-2833],[1584,-1392],[819,-895],[2686,-1789],[-84,-25],[2883,-1441],[3817,-1317],[4114,-1094],[2573,-596],[2855,-770],[4227,-647],[2290,-621],[2333,-248],[3407,-771],[3633,-1217],[2134,-920],[2319,-621],[4891,-423],[3181,895],[3279,1243],[2813,1739],[3365,2460],[693,994],[494,1516],[637,2212],[381,1093],[693,1914],[678,1914],[1018,2808],[340,1043],[268,3330],[424,1243],[269,770],[325,1069],[198,745],[283,1392],[183,1069],[156,696],[975,3230],[933,3231],[990,3156],[85,621],[169,1044],[283,1615],[650,2982],[622,2436],[255,969],[226,1317],[-42,1118],[763,-820],[99,-25],[1597,-124],[495,-199],[947,-621],[778,-770],[297,-572],[1541,-2386],[2756,-4498],[2262,-3578],[1498,-1690],[2672,-2808],[4114,-4374],[3096,-3355],[4142,572],[1541,223],[28,25],[2460,373],[28,0],[2205,671],[3280,-249],[1187,-99],[3563,895],[4354,1640],[2431,646],[2248,0],[1569,422],[1343,1839],[3266,3703],[1244,1019],[3958,1491]],[[697634,313096],[-2841,-2808],[-226,-174],[-1471,-770],[-1328,-348],[-424,-199],[-3238,-2957],[-325,-224],[-1937,-895],[-650,-223],[-1781,-224],[-848,224],[-1117,571],[-396,323],[-2290,2088],[-367,223],[-849,-447],[-1187,-1690],[-976,-1391],[-2247,-2162],[-523,-423],[-778,-348],[-466,-74],[-3025,49],[-71,-447],[169,-2982],[622,-6262],[651,-8127],[947,-8524],[438,-3528],[1329,-5244],[876,-2510],[509,-1242],[1202,-1665],[438,-1839],[28,-323],[-183,-3206],[-453,-3256],[-480,-8523],[-57,-497],[-14,-1666],[325,-2261],[255,-870],[2742,-7703],[1696,-4076],[311,-920],[1131,-5218],[764,-5119],[155,-4076],[0,-1342],[-169,-1292],[-85,-2759],[141,-5591],[113,-1367],[552,-6039],[537,-7703],[268,-4896],[410,-4051],[184,-6038],[495,-5020],[551,-5318],[382,-3827],[353,-3654],[382,-2833],[551,-2286],[792,-2286],[664,-2933],[509,-1714],[1386,-3330],[1456,-2485],[862,-2063]],[[692008,132306],[-1173,323],[-665,273],[-353,174],[-495,423],[-650,1044],[-608,1143],[-481,671],[-735,-820],[-466,-646],[-538,-448],[-353,-323],[-721,-397],[-452,-522],[-368,-696],[-523,-895],[-438,-745],[-297,-572],[-297,-671],[-297,-845],[-452,-969],[-438,-746],[-523,-621],[-467,-472],[-678,-472],[-410,-323],[-481,-348],[-608,-298],[-565,-199],[-792,-447],[-679,-547],[-508,-100],[-439,497],[14,1243],[213,746],[353,720],[325,472],[85,1168],[-537,199],[-764,149],[-622,199],[-565,447],[-184,746],[-226,1218],[-42,795],[42,994],[85,770],[212,820],[268,845],[538,1143],[452,895],[452,895],[-155,1441],[-650,273],[-552,-422],[-297,-696],[-70,-1118],[-184,-1193],[-269,-746],[-396,-1366],[-226,-820],[-198,-771],[-876,-174],[-170,795],[-184,1069],[-141,1441],[-452,1144],[-424,521],[-538,1119],[-508,248],[-693,-199],[-57,-1192],[156,-721],[283,-870],[706,-721],[509,-323],[311,-447],[99,-1193],[-113,-1466],[-85,-845],[-735,-99],[-721,944],[-212,1317],[0,597],[-297,1068],[-509,696],[-424,0],[-410,-721],[-155,-944],[56,-721],[241,-944],[127,-696],[85,-1093],[-622,-473],[-580,721],[-254,671],[-707,621],[-537,-273],[-170,-1491],[-353,-1416],[-396,74],[-721,249],[-424,-100],[-410,-696],[-156,-1441],[-212,-572],[-608,-695],[-890,-75],[-382,572],[-480,1093],[-227,895],[-395,1093],[-509,-373],[-424,-1068],[-255,-746],[-99,-1019],[283,-795],[438,-1143],[-523,-1168],[-565,323],[-834,99],[-764,-124],[-622,-25],[-678,125],[-693,74],[-452,274],[-594,-150],[-396,-1391],[226,-870],[537,-1118],[523,0],[114,-1094],[-255,-646],[-495,-646],[-537,-547],[-579,-323],[-835,423],[-480,745],[-552,895],[-424,-75],[-650,-472],[-155,-1416],[353,-323],[664,-547],[354,-1044],[-325,-1342],[240,-621],[226,-820],[-353,-1118],[-721,-647],[-467,75],[-579,422],[-438,721],[-849,298],[-791,-99],[-467,-149],[-480,-124],[-820,49],[-566,1243],[99,1143],[-495,373],[-353,149],[-792,671],[-650,-721],[-820,572],[-664,49],[-340,671],[-381,1019],[-325,224],[-538,-671],[-509,-199],[-678,-25],[-792,-74],[-466,348],[-749,770],[-665,-174],[-438,149],[-551,348],[-665,-422],[-495,919],[-537,-99],[170,-1019],[-438,-994],[-707,447],[-863,348],[-593,-249],[-467,324],[-410,298],[-650,373],[-396,670],[-14,721],[-551,1168],[-665,75],[-452,522],[-763,-224],[-241,-895],[-791,-223],[-566,-895],[127,-770],[212,-870],[368,-1268],[368,-1590],[268,-2510],[184,-1491],[622,-4498],[226,-2311],[85,-1963],[14,-895],[-28,-994],[-85,-1193],[-240,-1118],[-651,-1094],[-169,-596],[-99,-994],[-212,-1764],[-255,-1193],[-282,-845],[-665,-1417],[-1060,-1590],[-283,-522],[-1965,-2759],[-1060,-1167],[-1937,-1342],[-1187,-622],[-2347,-671],[-1753,-273],[-594,25],[-1484,248],[-3463,1317],[-1810,970],[-424,174],[-1004,273],[-1159,149],[-2389,298],[-2530,-74],[-1555,25],[-1470,-274],[-1061,-422],[-169,-75],[-820,-323],[-537,-149],[-1739,-149],[-1329,199],[-1145,298],[-452,174],[-863,497],[-919,696],[-791,820],[-707,944],[-467,721],[-1498,2535],[-693,1764],[-509,895],[-395,497],[-495,348],[-863,347],[-508,50],[-750,-149],[-622,-273],[-579,-572],[-622,-845],[-2700,-4374],[-820,-1192],[-735,-696],[-637,-323],[-480,-149],[-438,-50],[-834,149],[-481,249],[-467,521],[-650,945],[-509,596],[-579,273],[-410,100],[-636,-497],[-792,-447],[-594,372],[-396,597],[-593,-125],[-538,-422],[-777,-99],[-537,-100],[-863,-373],[-1611,-1317],[-2149,-1565],[-1399,-1914],[-184,-522],[-693,-447],[-367,-447],[-637,373],[-692,49],[-566,-1093],[-99,-969],[-480,-522],[-255,-646],[156,-1193],[-28,-423],[-481,-1242],[-749,-398],[-637,273],[-537,-298],[-424,-223],[-650,-398],[-820,-472],[-961,-671],[-85,-100],[-580,-1018],[-1286,-2659],[-452,-597],[-693,-74],[-382,-497],[-254,-746],[-241,-1267],[128,-622],[706,-770],[354,-447],[198,-994],[-241,-1218],[-325,-621],[-509,-299],[-480,-149],[-863,-74],[-508,-149],[-750,-373],[-593,-447],[-495,-970],[-226,-770],[-453,-373],[-353,-745],[-467,-870],[-282,-497],[-637,25],[-480,50],[-438,-398],[-594,-795],[-1145,-945],[-552,-447],[-1003,-472],[-552,-373],[-735,-522],[-593,-447],[-1244,-944],[-43,0],[-890,-224],[-764,-746],[-947,-348],[-311,-248],[-424,-895],[-452,-621],[-340,-646],[-622,646],[-282,795],[-721,348],[-665,124],[-452,-248],[-594,-99],[-551,-299],[-693,-49],[-240,571],[-424,621],[-424,1193],[-820,423],[-1357,-199]],[[515967,49329],[-538,1789],[-2742,6586],[-3181,5765],[-1951,4150],[-2049,5244],[-2488,8275],[-538,3628],[-127,2361],[764,2933],[1654,3031],[1357,1367],[410,895],[1088,3081],[396,2833],[-28,622],[-1216,7455],[-3025,10735],[-1640,3281]],[[667679,405616],[2318,-2684],[1810,-2162],[580,-721],[721,-621],[1738,-422],[495,-25],[1329,174],[1343,49],[749,-74],[778,-274],[551,-372],[735,-646],[650,-199],[778,323],[367,397],[1188,1392],[1315,1044],[1441,348],[1895,124],[537,-124],[1541,-721],[791,-646],[481,-1143],[255,-870],[282,-1590],[71,-1044],[0,-2510],[-170,-2237],[29,-820],[99,-770],[296,-1417],[424,-1267],[849,-2112],[904,-2311],[523,-970],[311,-422],[467,-472],[947,-597],[1414,-497],[240,-149],[1315,-944],[3703,-3604],[2234,-2311],[-989,-3802],[-213,-1367],[-212,-2187],[-311,-2435],[-42,-1938],[-396,-2684],[-466,-1839],[-184,-1069],[-85,-770],[-28,-1417],[-71,-646],[-141,-1118],[-509,-1168],[-410,-572],[-339,-298],[-1046,-646],[-1061,-696],[-523,-1292],[-42,-820],[71,-920],[197,-894],[269,-547],[1301,-2162],[353,-820],[721,-2212],[226,-1143],[28,-795],[-84,-920],[-170,-969],[-184,-820],[-1315,-4249],[-254,-1069],[-650,-3728],[-467,-1665],[-184,-1515],[-381,-4747],[-113,-795],[-665,-1889]],[[913682,302733],[-707,-571],[-877,-721],[-494,-398],[-3746,1144],[-4058,1118],[-198,745],[-240,796],[-1428,-423],[-3746,-1068],[-3449,-1044],[-4679,25],[-2446,497],[-367,74],[-3110,2784],[-3011,2733],[-1174,-1466],[-820,-1093],[-466,-696],[-340,-547],[-452,-944],[-311,-1243],[-99,-795],[0,-1143],[28,-671],[85,-895],[156,-745],[268,-994],[368,-945],[410,-969],[297,-596],[466,-895],[608,-1044],[424,-646],[509,-646],[438,-447],[439,-323],[636,-448],[805,-546],[721,-547],[368,-373],[396,-646],[184,-696],[0,-1143],[-184,-770],[-354,-1044],[-480,-994],[-368,-771],[-537,-994],[-1088,-1764],[-608,-1019],[-368,-621],[-438,-895],[-354,-696],[-763,-1491],[-565,-795],[-340,-323],[-537,-497],[-594,-721],[29,-845],[169,-820],[382,-894],[325,-323],[792,-423],[579,323],[453,448],[466,521],[750,647],[409,99],[764,-547],[424,-795],[-198,-1317],[-622,-547],[-410,-149],[-594,-99],[-735,-125],[-410,-124],[-509,-273],[-650,-845],[-254,-671],[-283,-1019],[-240,-1168],[-227,-1466],[-127,-1367],[-56,-1292],[-85,-597],[-198,-1068],[-198,-870],[-339,-1392],[-255,-1217],[-212,-1168],[-198,-1466],[-113,-970],[-226,-1168],[-170,-596],[-268,-895],[-283,-820],[-269,-770],[-296,-944],[-99,-746],[155,-895],[382,-944],[311,-472],[424,-547],[396,-397],[495,-498],[424,-472],[664,-1019],[269,-1118],[56,-770],[43,-2013],[-29,-920],[-28,-1019],[42,-1267],[128,-1317],[183,-1740],[425,-1342],[494,-820],[424,-447],[509,-447],[636,-423],[1004,-596],[354,-174],[523,-298],[367,-249],[523,-497],[410,-497],[608,-969],[240,-497],[311,-746],[283,-820],[325,-1292],[198,-1143],[71,-919],[-28,-1541],[-99,-945],[-114,-795],[-409,-2087],[-326,-1392],[-339,-1093],[-452,-1044],[-509,-696],[-396,-398],[-551,-546],[-396,-348],[-467,-348],[-565,-298],[-509,-75],[-707,174],[-480,199],[-509,323],[-396,323],[-509,621],[-311,423],[-509,745],[-509,746],[-1117,1590],[-509,646],[-579,696],[-693,795],[-792,746],[-1046,820],[-183,124],[-679,398],[-565,224],[-580,24],[-523,-323],[-368,-348],[-509,-497],[-480,-571],[-297,-721],[-212,-845]],[[867908,212251],[-537,448],[-636,-597],[-439,-522],[-395,-994],[-128,-720],[-42,-1119],[-28,-770],[84,-1143],[283,-2311],[142,-1119],[282,-2360],[128,-1069],[70,-1243],[57,-994],[56,-1590],[0,-969],[-56,-920],[-212,-1217],[-354,-1243],[-438,-1069],[-325,-571],[-368,-646],[-395,-497],[-495,-622],[-679,-795],[-466,-397],[-439,-398],[-438,-447],[-848,-522],[-622,-25],[-650,75],[-721,124],[-438,273],[-707,696],[-749,646],[-524,423],[-381,994],[-467,1640],[-240,944],[14,920],[311,1068],[580,1019],[494,547],[721,546],[792,373],[523,323],[679,547],[721,746],[367,646],[368,845],[169,497],[241,1292],[14,1068],[-57,1491],[-169,920],[-269,795],[-452,1019],[-410,497],[-396,323],[-523,298],[-792,323],[-495,100],[-438,74],[-763,25],[-721,-199],[-594,-919],[-240,-547],[-325,-870],[-424,-1018],[-368,-771],[-396,-770],[-99,-1292],[184,-796],[-240,-1143],[-396,-621],[-481,-522],[-806,-621],[-692,-124],[-481,24],[-509,100],[-523,124],[-664,124],[-453,0],[-494,0],[-735,-74],[-1075,-199],[-763,-75],[-764,224],[-523,447],[-339,796],[-99,1068],[28,845],[170,2088],[42,969],[-84,944],[-368,994],[-608,795],[-692,299],[-467,24],[-580,-99],[-367,-149],[-537,-398],[-679,-571],[-1343,-1392],[-537,-572],[-565,-323],[-509,-223],[-764,-50],[-2163,99],[-1201,150],[-566,49],[-820,-223],[-494,-398],[-608,-746],[-523,-1018],[-255,-1193],[-85,-845],[-84,-1044],[-57,-1068],[-170,-1293],[-268,-870],[-1569,-4025],[-749,-2262],[-665,-1665],[-42,-50],[-877,-1391],[-608,-845],[-353,-398],[-749,-621],[-523,-224],[-834,-124],[-665,-50],[-848,100],[-466,99],[-608,174],[-538,249],[-890,522],[-1357,1043],[-1937,1839],[-834,721],[-707,472],[-396,174],[-523,199],[-509,99],[-678,100],[-1697,149],[-876,124],[-622,149],[-622,174],[-325,124],[-1357,622],[-735,-75]],[[804690,190457],[-325,447],[-665,845],[-382,423],[-1286,1565],[-523,572],[-1032,1044],[-240,198],[-2135,1641],[-3520,4523],[-2559,3305],[-1724,1342],[-1244,695],[-1668,497],[-933,597],[-580,820],[-438,1243],[-438,1640],[-919,2733],[-1131,4175],[-184,820],[-1880,6934],[-679,2336],[-551,1491],[-198,372],[-594,1342],[-494,-174],[-552,-248],[-622,-398],[-791,-720],[-820,-820],[-1329,-1417],[-1018,-1193],[-297,-348],[-777,-944],[-283,-422],[-438,-1268],[-226,-1019],[-198,-1143],[-128,-1218],[-183,-2211],[42,-1491],[113,-994],[170,-771],[282,-1093],[114,-472],[240,-1218],[226,-1417],[141,-1043],[156,-1467],[42,-944],[-42,-1143],[-156,-1516],[-254,-1068],[-396,-1268],[-947,-2410],[-85,-224],[-763,-1914],[-679,-1714],[-325,-2187],[-155,-1442],[-57,-894],[170,-2485],[480,-7580],[43,-1118],[0,-920],[-85,-1416],[-99,-919],[-452,-2063],[-184,-746],[-339,-1043],[-382,-994],[-212,-473],[-735,-1441],[-396,-621],[-1385,-2063],[-523,-646],[-707,-795],[-439,-423],[-947,-720],[-1258,-696],[-198,-100],[-551,1765],[-664,2187],[-1047,3429],[-749,1566],[-2544,5020],[-1258,2609],[-1131,2684],[-4779,8101],[-6531,15035],[-3915,8052],[-3266,10288],[-42,2137],[509,1143],[325,746],[311,596],[396,1193],[212,1118],[28,721],[71,1118],[84,870],[184,1292],[184,1144],[240,1665],[241,1292],[169,795],[170,795],[353,994],[552,1094],[607,770],[410,423],[651,671],[565,695],[693,895],[452,1143],[198,1143],[226,1342],[410,2411],[354,1938],[282,1789],[326,1889],[296,1541],[297,1739],[325,2113],[368,2609],[226,1317],[297,1690],[254,1889],[29,348],[-1386,447],[-4113,3603],[-2163,1988],[-962,895],[-480,870],[-297,969],[-636,2510],[-905,2311],[-537,770],[-1555,1591],[-2813,1938],[-1753,1094],[-1117,472],[-862,99],[-608,224],[-665,745],[-1032,2113],[-551,720],[-749,572],[-806,149],[-495,-50],[-1102,-298],[-1032,-522],[-1329,-894],[-905,-497],[-862,-174],[-1103,74],[-2855,795],[-665,299],[-622,372],[-636,994],[-212,572],[-1286,3355],[-1258,3678],[-637,2435],[-339,1044],[-353,596],[-566,746],[-1300,994],[-552,248],[-1541,323],[-197,75],[-2206,1044],[-85,49],[-1781,1392]],[[815843,579671],[764,-2236],[297,-945],[1046,-3230],[1300,-3927],[283,-845],[283,-969],[805,-2659],[2404,-7082],[3166,-9618],[2191,-6933],[933,-3305],[1753,-4548],[1626,-4945],[1272,-3479],[1541,-4399],[2248,-6610],[1060,-3330],[481,-1516],[240,-795],[226,-771],[1598,-4572],[3265,-9369],[707,-2237],[368,-1143],[904,-3330],[439,-1267],[607,-2013],[1004,-2982],[975,-2808],[1075,-3380],[438,-1392],[127,-372],[523,-1665],[792,-1989],[240,-720],[679,-2038],[848,-2808],[99,-298],[848,-2436],[269,-894],[3393,-10065],[141,-472],[650,-1864],[778,-2237],[169,-695],[707,-1914],[1230,-3678],[1074,-3404],[622,-1566],[552,-994],[904,-1342],[863,-1416],[396,-647],[579,-869],[1909,-3479],[1201,-2709],[1230,-1616],[1103,-1789],[608,-323],[480,-745],[509,-597],[424,25],[509,323],[594,-248],[297,-299],[721,25],[593,25],[269,-969],[353,-895],[326,-1093],[763,-671],[1612,-572],[268,2063],[71,1566],[-156,3379],[509,-1068],[57,-2287],[-71,-1640],[28,-124],[-325,-1814],[-198,-1317],[14,-646],[608,-1790],[848,-3007],[933,-3876],[5740,-20477],[7846,-26168],[579,-1889],[2446,-8176],[650,-2137],[354,-1044],[452,-1416],[283,-1293],[918,-3007],[410,-1267],[538,-1690],[1074,-3603],[339,-1218],[410,-1267],[113,-398],[354,-1317],[862,-2982],[919,-2709],[212,-596],[368,-1243],[480,-1615],[580,-1740],[919,-2808],[1017,-3106],[1810,-5617],[297,-969]],[[913682,302733],[85,-298],[933,-3106],[2671,-7605],[2121,-5939],[396,-994],[565,-1243],[551,-1168],[750,-1814],[622,-1690],[551,-1341],[14,-50],[1159,-3156],[721,-1988],[424,-845],[424,-1019],[849,-2286],[523,-1392],[608,-1267],[961,-2411],[792,-1789],[876,-2038],[113,-224],[509,-1143],[1173,-2982],[453,-1069],[876,-2683],[608,-1690],[410,-1193],[622,-1541],[254,-870],[382,-1292],[749,-1814],[608,-1516],[481,-1193],[184,-522],[381,-1093],[693,-1789],[608,-1591],[749,-1665],[580,-1068],[1003,-2262],[1244,-2733],[15,-50],[494,-1342],[622,-1342],[537,-1466],[1146,-3156],[565,-1541],[1032,-3082],[0,-24],[495,-1467],[339,-1068],[481,-1516],[480,-1417],[467,-1267],[438,-1367],[353,-820],[2192,-6163],[593,-1615],[198,-497],[410,-1118],[806,-2361],[466,-1342],[368,-1218],[721,-2286],[396,-1417],[339,-1292],[382,-1242],[254,-547],[438,-1069],[905,-3007],[339,-1093],[453,-1218],[820,-2261],[480,-1541],[849,-2609],[636,-1765],[763,-2410],[481,-1317],[480,-1019],[354,-746],[551,-1690],[410,-820],[368,-1267],[226,-870],[268,-994],[382,-1069],[877,-2534],[706,-1839],[311,-771],[523,-1093],[297,-945],[269,-770],[410,-1367],[2050,-6511],[197,-546],[354,-945],[311,-1143],[283,-522],[480,-1342],[410,-1018],[269,-1044],[890,-2535],[679,-1938],[339,-771],[580,-1416],[297,-746],[311,-1267],[919,-2311],[424,-1193],[353,-1218],[325,-919],[354,-796],[367,-844],[382,-845],[438,-1168],[198,-647],[353,-969],[453,-1143],[396,-745],[650,-1964],[71,-273],[791,-2709],[877,-1938],[763,-1591],[2036,-5964],[707,-2038],[169,-497],[523,-1540],[608,-1317],[622,-970],[467,-1590],[593,-1690],[410,-1466],[184,-621],[283,-1094],[1003,-2410],[1032,-2212],[721,-2038],[297,-969],[467,-1069],[579,-994],[368,-646],[777,-2261],[424,-1342],[1626,-4821],[396,-1268],[-622,-521],[-608,-696],[-1244,-1740],[-1555,-1764],[-735,-423],[-806,0],[-975,-199],[-693,-422],[-565,-572],[-1230,-1839],[-1386,-1789],[-1145,-1690],[-1922,-2261],[-2644,-2336],[-1908,-1267],[-1795,-1268],[-2121,-994],[-1202,-646],[-2360,-994],[-1866,-472],[-1131,0],[-1555,223],[-1174,373],[-1300,945],[-961,646],[-2121,894],[-1781,1143],[-2841,1467],[-1867,1093],[-3633,1914],[-1936,1018],[-2969,1467],[-1626,646],[-1625,248],[-1414,0],[-1908,-273],[-1471,-273],[-1215,-50],[-3096,-174],[-2474,74],[-2615,348],[-1216,671],[-933,25],[-1626,994],[-1060,224],[-1711,-124],[-1328,-149],[-778,24],[-777,348],[-1513,920],[-367,646],[-580,1044],[-71,124],[-1102,1640],[-1244,2759],[-467,1118],[-367,994],[-170,571],[-240,1342],[0,1193],[56,1640],[14,224],[241,2485],[70,1466],[43,1268],[-14,1416],[-71,2610],[-99,1317],[-184,1342],[-170,869],[-169,696],[-424,1118],[-509,796],[-693,646],[-438,248],[-905,398],[-1201,497],[-1725,994],[-424,298],[-961,870],[-467,746],[-367,1018],[-85,870],[28,1069],[283,1367],[1074,2758],[679,1839],[438,1317],[155,1516],[-28,721],[-99,919],[-170,771],[-395,844],[-665,1218],[-791,1268],[-849,1391],[-254,249],[-3322,621],[-707,447],[-1131,1914],[-664,1068],[-509,1467],[-1117,3429],[-961,2709],[-1117,3355],[-693,3031],[-735,3231],[-85,348],[-494,2137],[-2177,9443],[-2785,11482],[-509,2087],[-354,2063],[-84,2187],[56,3056],[-198,2535],[-820,1889],[-919,1267],[-1074,472],[-919,547],[-862,1441],[-566,472],[-466,174],[-509,0],[-664,-174],[-467,-347],[-438,-771],[-721,-969],[-1188,-1541],[-819,-696],[-919,-372],[-721,198],[-764,920],[-1286,1267],[-1074,1168],[-863,1019],[-198,249],[-622,745],[-268,423],[-453,745],[-240,448],[-707,1317],[-113,248],[-919,2783],[-509,3181],[-438,4672],[368,5244],[-15,2733],[15,224],[169,2634],[-14,2560],[-170,1889],[-480,3031],[-438,1690],[-255,969],[-438,1193]],[[447574,548036],[778,20875],[636,17222],[198,7455],[283,8275],[141,6735],[-382,10860],[29,5069],[-14,1317],[56,1019],[85,1516],[466,770],[-28,995],[0,720],[-127,5592],[-85,4175],[-28,1565],[551,870],[891,1789],[282,547],[0,1218],[142,646],[495,1913],[155,671],[523,1317],[339,994],[241,845],[99,1342],[-99,771],[-57,1118],[-198,1715],[-28,1640],[0,1615],[0,1069],[-99,820],[85,1143],[184,646],[509,1566],[-57,1143],[-1937,3379],[-834,2163],[-791,1416],[-1315,1367],[-933,1044],[-495,745],[-551,1566],[-339,1888],[-1047,1243],[-2403,1839],[-1526,870],[-1259,1416],[-3406,5343],[-2220,2684],[-1654,2137],[-890,6486],[-354,7977],[-509,11158],[-396,1690],[-791,5890]],[[433579,812449],[340,-670],[650,-1740],[-127,-1267],[395,-473],[637,-248],[791,-249],[891,-198],[537,-597],[679,-1392],[28,-49],[1145,-1292],[1018,-1715],[85,-895],[339,-944],[382,-1392],[409,-919],[481,-448],[481,-372],[565,-796],[537,-397],[721,-721],[665,-174],[579,-25],[354,-74],[791,-124],[637,546],[452,671],[650,199],[778,199],[664,298],[-14,1839],[-141,895],[-424,348],[-2008,2211],[-763,1119],[-919,1764],[-353,1590],[282,1442],[651,845],[339,671],[141,1814],[-56,770],[325,1392],[495,721],[381,74],[990,1168],[-255,1541],[354,1391],[848,895],[509,522],[565,845],[297,1640],[-71,1019],[396,1317],[439,795],[353,398],[269,1466],[296,721],[495,820],[566,646],[692,770],[764,1243],[452,721],[636,497],[636,497],[467,-50],[537,74],[551,323],[552,-49],[593,397],[750,497],[1611,1069],[240,1168],[227,721],[551,2187],[283,1018],[495,870],[438,572],[325,1391],[452,2113],[-282,1193],[-311,894],[-170,795],[113,1119],[-57,1516],[-212,969],[-70,845],[-297,919],[-806,3007],[0,771],[0,1615],[141,2261],[-339,671],[-452,870],[-424,845],[-1046,2063],[-806,1590],[-665,149],[-367,447],[-509,622],[-509,621],[-57,1615],[128,1317],[494,1715],[-183,721],[-453,721],[29,1366],[325,1044],[480,1243],[156,695],[268,1417],[227,547],[141,994],[-42,1168],[212,1217],[169,1342],[-113,1293],[537,1168],[71,1143],[-113,546],[-283,1268],[-28,1391],[-14,1417],[56,1218],[-282,869],[-1569,2411],[-707,944],[-1145,1491],[-1061,671],[-777,398],[-650,-497],[-580,50],[-1032,-323],[-848,-224],[-976,-224],[-636,-248],[-1032,-448],[-2869,-1988],[-665,-894],[-763,-547],[-156,-99],[-947,-796],[-989,-621],[-481,-74],[-410,546],[-509,1616],[-268,1590],[-156,895],[0,1242],[-240,572],[-424,1441],[-340,969],[-212,1765],[99,1888],[-113,1268],[481,5044],[-212,3852],[-57,994],[-254,2635],[-57,397],[-212,1765],[-551,2385],[-85,920],[-339,969],[-552,1193],[-296,1093],[-198,1044],[-269,1168],[-283,870],[-325,1093],[-735,1541],[-509,1143],[-650,1143],[-580,746],[-452,323],[-452,25],[-538,-149],[-947,99],[-749,-249],[-509,-323],[-1004,-621],[-848,-199],[-848,-770],[-820,-870],[-594,-646],[-1385,-1566],[-1824,-2683],[-480,-870],[-1357,-2088],[-467,-720],[-480,-1119],[-71,-1068],[-551,-845],[-425,671],[-607,397],[-820,423],[-509,596],[-1810,4523],[-424,1243],[-579,1317],[-735,1516],[-382,745],[-311,621],[-523,796],[-410,621],[-382,646],[-410,696],[-480,870],[-481,745],[-721,845],[-990,646],[-848,0],[-848,-99],[-283,-149],[-579,-298],[-976,-671],[-805,-547],[-651,-820],[-1357,-646],[-367,-721],[-538,-174],[-664,4100],[-368,1616],[-197,919],[-227,1442],[-226,1192],[-480,1715],[-495,1491],[-226,994],[-326,1367],[-325,1019],[-339,1093],[-622,1367],[-693,1292],[-14,50],[-1102,2088],[-721,1043],[-382,671],[-707,746],[-339,621],[-608,646],[-721,547],[-707,447],[-622,100],[-452,149],[-749,-50],[-354,174],[-537,-398],[-509,50],[-466,944],[-820,249],[-509,-75],[-863,-397],[-904,-423],[-495,-273],[-650,-174],[-453,-373],[-396,-373],[-466,-273],[-834,-248],[-650,-274],[-707,-248],[-495,1193],[226,844],[438,1218],[128,547],[-29,2535],[-14,646],[142,1019],[-114,1292],[-70,1193],[-28,497],[98,1690],[-113,1143],[142,944],[28,3206],[113,696],[170,1168],[127,869],[353,1094],[297,596],[424,1069],[-155,1392],[-636,174],[-523,-199],[-453,124],[-805,1218],[-736,497],[-424,-50],[-1088,795],[-834,323],[-990,-248],[-381,-25],[-594,-348],[-467,-522],[-848,-472],[-1018,-1267],[-396,-895],[-197,-845],[-410,-1541],[-29,-621],[-537,-1143],[-382,-969],[-537,-696],[-650,-25],[-650,-1069],[-439,-845],[-311,-1018],[-579,-1168],[-410,-945],[-650,-1491],[-453,-1193],[-226,-770],[-777,-770],[-410,323],[-325,1093],[98,1019],[128,1491],[-255,770],[-353,746],[-325,621],[-439,721],[-494,696],[-481,-199],[-806,-298],[-523,-174],[-1244,-298],[-452,223],[-834,-124],[-382,-472],[-452,-572],[-566,-720],[-834,-647],[-721,-521],[-1003,99],[-863,323],[-396,75],[-508,-274],[-354,-373],[-763,-571],[-269,-100],[-1088,-397],[-142,-746],[-297,-944],[-622,-497],[-749,-522],[-664,124],[-410,224],[-481,696],[-579,348],[-439,0],[-678,-895],[-552,-770],[-395,-622],[-368,-646],[-749,-869],[-509,-821],[-664,-1416],[-241,-497],[-721,-1441],[-848,-448],[-636,-795],[-707,-422],[-777,0],[-679,1267],[-891,1044],[-763,199],[-891,223],[-197,75],[-1089,323],[-551,-323],[-1004,-646],[-749,-771],[-1174,-1217],[-2049,-2361],[-43,-50],[-1753,-2560],[-155,-447],[-679,-1392],[-622,-1192],[-325,-448],[-1583,-1764],[-608,-298],[-452,994],[226,1043],[-396,1541],[-580,771],[-466,422],[-396,149],[-890,-74],[-467,-348],[-876,-1094],[-1527,-1864],[-198,1442],[141,1043],[-85,1144],[-296,894],[-326,721],[-353,447],[-707,696],[-509,-323],[-410,-721],[99,-1391],[99,-1491],[-636,-820],[-481,-448],[-466,-124],[-650,-572],[-453,-869],[-325,-920],[-367,-1118],[-241,-1094],[-268,-1391],[-269,-1243],[-127,-696],[-240,-1192],[-198,-1168],[-269,-1243],[-198,-621],[-169,-895],[-184,-1267],[-71,-671],[-113,-870],[-113,-920],[99,-869],[56,-820],[-862,-75],[-452,497],[-453,746],[-311,720],[-353,1317],[-212,2138],[14,994],[113,1739],[240,1640],[439,1939],[311,1193],[1017,4001],[566,1938],[608,1764],[608,1342],[664,1243],[679,1118],[834,1267],[622,845],[989,1119],[1414,1491],[1484,1640],[1442,1566],[1159,1143],[481,596],[594,1044],[396,1143],[155,870],[156,1068],[56,945],[57,1540],[198,845],[212,597],[466,745],[424,348],[707,348],[509,149],[509,0],[523,-99],[466,-174],[665,99],[608,174],[537,149],[735,-124],[622,-149],[438,25],[523,199],[438,248],[552,398],[777,174],[580,-174],[792,-373],[579,-348],[792,-671],[438,-224],[594,-99],[551,149],[580,174],[862,50],[551,149],[509,124],[749,373],[608,124],[340,75],[565,894],[28,1193],[382,1069],[565,671],[481,74],[975,125],[566,198],[792,174],[749,398],[523,149],[339,398],[622,596],[495,273],[495,423],[579,398],[552,795],[509,720],[720,671],[990,671],[975,423],[1202,422],[537,149],[693,348],[424,522],[537,423],[495,223],[792,597],[537,298],[650,199],[566,149],[395,-50],[594,-25],[368,0],[608,472],[367,199],[636,249],[580,174],[848,149],[466,348],[665,373],[777,173],[679,373],[382,174],[947,323],[848,149],[721,75],[678,472],[806,249],[749,223],[594,199],[438,-25],[1287,0],[565,50],[947,74],[1301,75],[1315,-149],[537,-50],[523,-174],[1216,-397],[1343,-646],[1597,-373],[1725,-348],[1470,-969],[777,-547],[368,-273],[537,-125],[523,-149],[905,-547],[353,-447],[467,-571],[594,-845],[961,-895],[226,-199],[622,-472],[707,-522],[1357,-1019],[848,-795],[693,-671],[495,-646],[509,-422],[339,-448],[721,-323],[212,-99],[1117,-721],[1003,-895],[1032,-1043],[269,-373],[848,-1094],[1385,-1267],[1711,-795],[1230,-820],[1993,-2038],[1456,-2187],[156,-224],[664,-770],[1117,-1317],[28,-25],[919,-969],[763,-572],[1244,-422],[184,-75],[1428,-944],[1710,-1938],[1089,-1467],[905,-1217],[1456,-1914],[353,-447],[1824,-2237],[2247,-2385],[184,-224],[1499,-1889],[2021,-2659],[28,-25],[750,-994],[1738,-3156],[1697,-2510],[919,-1491],[523,-845],[1357,-2534],[636,-1243],[763,-1491],[1287,-1889],[3647,-6063],[1781,-3405],[2728,-3852],[1047,-1516],[706,-1043],[2290,-4598],[1923,-2684],[1951,-2435],[2728,-3454],[1711,-2460],[1314,-1864],[340,-423],[947,-1242],[594,-771],[819,-1043],[1032,-1342],[6630,-7480],[57,-50],[1315,-1466],[2120,-2336],[848,-870],[933,-969],[1216,-1168],[594,-547],[6093,-4573],[3378,-2857],[4877,-3405],[806,-273],[961,-299],[1301,-820],[1088,-546],[792,-75],[537,-149],[537,-174],[1174,-522],[1046,-621],[650,-497],[764,-671],[791,-75],[1894,-621],[1442,-745],[241,-150],[1032,-646],[763,-422],[820,-398],[834,-223],[1060,-522],[608,-323],[806,-497],[1640,-1019],[2120,-1044],[1202,-770],[678,-423],[1810,-1093],[523,-472],[424,-324],[806,-571],[721,-646],[579,-249],[679,100],[495,25],[1936,149],[1244,0],[1668,-348],[764,-298],[593,-249],[1103,-596],[820,-696],[339,-224],[750,-447],[933,-348],[1385,-920],[1371,-472],[1046,-273],[764,-423],[975,-745],[198,-100],[1004,-521],[975,-274],[735,-199],[891,-347],[155,-50],[806,-572],[806,-522],[848,-273],[523,-298],[664,-795],[594,-423],[594,-248],[678,-25],[806,-472],[382,-50],[1498,-969],[1301,-771],[452,-323],[679,-348],[424,-99],[721,-398],[749,-546],[735,-473],[1400,-397],[1230,-348],[424,-398],[424,-248],[509,-149],[551,-149],[862,0],[580,124],[763,-447],[523,-249],[453,-124],[933,-149],[579,-25],[806,-199],[1159,-273],[1739,-125],[1216,-174],[735,-149],[565,-99],[834,-99],[651,49],[763,75],[976,-50],[551,-273],[622,25],[452,-100],[580,-124],[551,-25],[1032,199],[594,99],[1654,249],[1724,74],[1570,25],[1187,-174],[763,-223],[778,-448],[622,-373],[424,-149],[551,-174],[594,-124],[424,-149],[537,-273],[778,-448],[353,-174],[580,0],[495,125],[466,124],[650,-25],[622,-224],[326,-149],[537,-397],[593,-174],[566,49],[594,-99],[1032,-25],[692,-149],[495,-547],[368,0],[565,-74],[1555,-124],[339,223],[1004,423],[707,-125],[820,-248],[876,-447],[848,-448],[806,-397],[792,-299],[848,-397],[693,-646],[678,-895],[537,-621],[509,-373],[665,-398],[692,-198],[778,-348],[410,-50],[636,174],[735,-273],[1018,-473],[396,-248],[495,-398],[749,-720],[608,-472],[678,-423],[523,-174],[523,-248],[721,-497],[439,-448],[523,-447],[593,-323]],[[515967,49329],[-1584,75],[-692,-199],[-933,-696],[-933,-1044],[-1428,-373],[-1767,274],[-693,-622],[-1018,-298],[-1046,-99],[-551,-348],[-636,-273],[-481,-50],[-523,845],[-495,-149],[-608,-298],[-777,-299],[-1103,-646],[-99,-497],[-424,-1093],[-594,-572],[-409,-596],[-538,-472],[-777,74],[-735,-149],[-297,-572],[-467,-497],[-1399,-1416],[-1725,-1864],[-2318,-2386],[-453,-596],[-650,-224],[-396,199],[-509,25],[-579,-746],[-509,125],[-382,696],[-749,-845],[-212,-1019],[-254,-547],[-509,-845],[-15,-870],[-155,-671],[-141,-1192],[169,-771],[354,-596],[381,-547],[424,-447],[311,-1119],[57,-1068],[-71,-1491],[-297,-622],[-579,-1043],[-255,-1094],[-42,-696],[-311,-1192],[28,-746],[241,-795],[141,-1392],[-113,-1093],[71,-1491],[-439,-1119],[-820,-273],[-381,646],[-509,969],[-438,174],[-439,224],[-452,1914],[-566,1640],[-1357,1963],[-975,820],[-1498,50],[-1047,-820],[-904,-845],[-241,-199],[-1215,-75],[-834,149],[-990,299],[-990,-125],[-1427,-969],[-1697,0],[-1668,572],[-3237,2410],[-226,299],[-4227,5566],[-3661,5592],[-2644,2534],[-6715,5070],[-2205,1988],[-311,298],[-1428,4498],[-1329,3554],[-1300,3057],[-1216,2584],[-1230,721],[-1936,348],[-736,-622],[-3152,-2684],[-1315,-1018],[-4863,-3852],[-947,-895],[-2106,-1938],[-2036,-1864],[-2657,-2212],[-1866,-1019],[-2404,-1292],[-1159,-621],[-1456,-622],[-1866,-49],[-1894,1541],[-1795,2410],[-297,398],[-523,1217],[-1852,4300],[-1273,1988],[-565,944],[-368,870],[-169,1292],[113,1864],[0,2584],[-14,1640],[466,2088],[71,1019],[537,1342],[141,1491],[-325,1292],[-509,1019],[-466,696],[-14,1217],[42,845],[-311,721],[-876,497],[-608,-25],[-862,-547],[-128,1318],[-169,1118],[-99,621],[-170,969],[679,2411],[-382,895],[-467,521],[-254,1019],[-57,1541],[57,1019],[-127,1044],[85,1491],[198,596],[466,547],[975,994],[594,1019],[650,1888],[283,1168],[156,1616],[-29,1292],[-141,1491],[-311,1665],[-481,1889],[-353,969],[-664,1342],[-410,1044],[-198,1068],[-424,3927],[-481,2982],[-141,894],[0,1044],[-99,1466],[-255,1491],[-325,1268],[-438,1118],[-580,994],[-664,1093],[-382,771],[-2163,5914],[-735,2436],[-226,1118],[-127,1615],[28,2436],[141,2833],[269,4498],[-113,4100],[-198,2908],[-198,2385],[-198,1715],[-933,8598],[28,1591],[85,944],[340,1417],[452,1317],[367,745],[255,547],[806,1218],[1074,870],[1074,671],[1329,223],[1569,249],[1089,-50],[2898,-696],[975,75],[707,323],[566,472],[438,820],[466,1118],[665,2336],[183,1740],[-28,1516],[-14,248],[-254,1715],[-241,1342],[-2417,6908],[-792,2038],[-2163,10438],[-918,3031],[-622,1914],[-326,1292],[-226,1789],[-113,1989],[85,2385],[184,1516],[367,1814],[71,298],[721,2560],[311,1814],[127,1914],[170,3752],[283,9518],[-43,2261],[-212,1939],[-297,2286],[-509,1814],[-890,4076],[-283,1963],[-452,2112],[-891,4225],[-495,1988],[-1032,2982],[-1145,2187],[-975,1640],[-2163,3802],[-961,2038],[-2333,6287],[-848,3156],[-481,2187],[-169,1765],[-113,1441],[28,1193],[42,1541],[325,3504],[806,5367],[537,3157],[863,2733],[438,969],[721,1094],[1668,1367],[947,397],[2870,746],[933,174],[579,273],[467,497],[382,646],[282,895],[142,994],[28,1391],[-42,1044],[-128,1118],[-381,1119],[-453,870],[-452,820],[-467,671],[-735,745],[-692,472],[-552,348],[-410,348],[-678,895],[-453,596],[-296,646],[-1372,3952],[-848,1814],[-820,1242],[-1032,1044],[-919,572],[-805,347],[-948,100],[-975,-373],[-820,-671],[-509,-621],[-608,-1019],[-1823,-3554],[-410,-720],[-438,-373],[-453,-249],[-1583,-348],[-961,-347],[-608,-50],[-509,124],[-679,920],[-523,1267],[-650,1814],[-551,969]],[[371662,328404],[-29,795],[-183,2262],[-128,1118],[-70,572],[-85,1242],[99,622],[396,894],[494,696],[905,895],[650,571],[608,547],[778,820],[1187,1566],[311,447],[1159,1764],[297,522],[368,795],[396,1144],[678,2236],[566,1839],[212,696],[424,1218],[311,671],[480,720],[354,348],[523,398],[537,273],[877,224],[636,0],[650,-149],[537,-199],[749,348],[-56,671],[-650,1764],[-198,497],[-552,1765],[-268,1217],[-198,1218],[-212,1516],[-396,3131],[-99,646],[-254,1466],[-368,2013],[-297,1342],[-113,448],[-438,1540],[-127,647],[-792,4398],[-438,6238],[99,5740],[268,2287],[226,1863],[0,2311],[-240,2784],[-650,4050],[-608,249],[-452,373],[-481,298],[-565,124],[-707,149],[-424,50],[-481,174],[-495,224],[-791,-199],[-453,-870],[142,-1267],[438,-2510],[212,-1168],[113,-1119],[57,-944],[14,-994],[14,-969],[-43,-1168],[-99,-1491],[-212,-1442],[-113,-1341],[0,-970],[142,-969],[169,-795],[212,-1143],[71,-696],[-14,-1019],[99,-1367],[283,-3255],[155,-1566],[28,-1217],[-127,-1690],[-325,-1889],[-594,-1193],[-622,-894],[-297,-274],[-749,298],[-862,1367],[-863,1143],[-353,448],[-777,671],[-849,-50],[-452,-149],[-551,124],[-764,-398],[-282,-869],[-269,-1019],[-141,-472],[-495,-1392],[-170,-596],[-113,-920],[-170,-2435],[57,-1516],[28,-1392],[255,-1242],[367,-1144],[325,-1168],[170,-1242],[212,-1367],[198,-1392],[-42,-1391],[-184,-969],[-255,-1019],[-254,-622],[-566,-1043],[-353,-497],[-580,-646],[-720,-522],[-764,-398],[-579,-99],[-580,174],[-806,422],[-495,398],[-565,1193],[-339,1292],[-184,1292],[-113,944],[-481,1765],[-169,745],[-368,920],[-481,373],[-593,-75],[-382,-373],[-325,-944],[-241,-1093],[-183,-771],[-212,-1193],[-142,-1193],[-155,-671],[-368,-994],[-424,-671],[-820,-497],[-523,125],[-551,845],[-212,820],[-142,1292],[-28,1019],[-42,1441],[-57,1889],[-226,1044],[-537,671],[-453,323],[-622,447],[-367,596],[-184,746]],[[804690,190457],[-566,-50],[-1428,-720],[-1385,-1243],[-1187,-1690],[-919,-1516],[-1343,-2584],[-1584,-3057],[-1682,-2038],[-1880,-2012],[-1753,-2411],[-820,-2609],[-678,-3852],[42,-3330],[622,-3455],[862,-3951],[198,-3976],[-325,-4399],[-721,-2758],[-1343,-4051],[-947,-4026],[-989,-4125],[-580,-4001],[297,-3852],[749,-3951],[1725,-4697],[1286,-3454],[1654,-3131],[2050,-2883],[2446,-2361],[2134,-1640],[2969,-1118],[2191,-547],[2446,-571],[2049,-2262],[863,-3479],[961,-3554],[1908,-2932],[1810,-2435],[1399,-1889],[1584,-2137],[1159,-2461],[325,-869],[551,-1467],[368,-2584],[-14,-1541],[-226,-2187],[-142,-472],[-367,-1218],[-1414,-3354],[-1173,-2312],[-750,-1913],[-226,-920],[-141,-1665],[141,-1292],[509,-2584],[354,-2212],[282,-3479],[-99,-2237],[-155,-2062],[-226,-2585],[-170,-1516],[-325,-1690],[-240,-646],[-453,-720],[-537,-473],[-3506,-1143],[-664,-273],[-1470,-895],[-1117,-919],[-919,-1118],[-438,-696],[-1259,-2436],[-268,-671],[-848,-2708],[-877,-3380],[-806,-3206],[-296,-820],[-637,-1292],[-1781,-2485],[-1314,-2585],[-891,-1367],[-679,-770],[-607,-422],[-255,-100],[-820,-248],[-438,-50],[-1187,248],[-1951,895],[-368,124],[-792,224],[-947,124],[-791,0],[-537,-149],[-580,-497],[-297,-348],[-537,-944],[-1272,-2311],[-1782,-3007],[-410,-522],[-961,-770],[-707,-323],[-1880,-497],[-1286,-373],[-1852,-1019],[-1696,-522],[-1965,25],[-1725,547],[-1060,546],[-2856,2212],[-2658,2932],[-3081,2958],[-2121,1739],[-396,249],[-2629,1193],[-2714,1242],[-2177,497],[-3068,298],[-1965,249],[-2869,422],[-3492,249],[-2446,-100],[-2742,348],[-2008,1243],[-212,199],[-1908,2758],[-2262,3504],[-2219,5418],[-1485,3007],[-381,919],[-1117,3603],[-764,4001],[-409,3703],[-651,4548],[-452,2485],[-255,994],[-1046,2510],[-1046,1416],[-353,324],[-848,646],[-538,223],[-819,75],[-707,248],[-453,323],[-466,423],[-438,522],[-410,596],[-651,1118],[-820,1665],[-508,647],[-425,298],[-636,273],[-707,149],[-551,25],[-537,-25],[-834,348],[-339,895],[-142,1193],[-212,2236],[-28,1516],[42,1814],[85,1168],[297,1690],[382,1889],[466,1292],[212,447],[495,622],[975,2410],[255,497],[608,895],[735,745],[806,820],[749,373],[763,-99],[-56,596],[-113,2262],[-198,2510],[-99,1018],[-226,1442],[-396,2187],[-325,1516],[-566,2286],[-212,770],[-198,671],[-707,2237],[-198,522],[-438,994],[-438,845],[-1965,3280],[-820,1292],[-636,870],[-2785,4324],[-947,1764],[-424,820],[-1725,4001],[-198,497],[-1724,4424],[-113,323],[-538,1441],[-749,1790],[-495,969],[-721,994],[-339,323],[-678,472],[-651,323],[-537,149],[-1088,174],[-71,25]],[[371662,328404],[-636,-397],[-269,-870],[-156,-671],[-169,-795],[-142,-1268],[255,-1466],[466,-1143],[2517,-5343],[2205,-4647],[-99,-1292],[-240,-647],[-424,-1118],[-227,-894],[-226,-1094],[-226,-994],[-466,-1864],[-354,-1441],[-325,-1317],[481,-1268],[466,-298],[424,-273],[679,-224],[523,50],[495,74],[424,25],[565,-621],[311,-870],[43,-1342],[-594,-1019],[-566,-273],[-706,273],[-622,323],[-382,174],[-735,199],[-792,25],[-523,-199],[-495,-348],[-381,-397],[-538,-746],[-664,-994],[-551,-1068],[-325,-671],[-523,-1094],[-184,-1068],[-29,-1268],[-169,-1342],[-339,-1168],[70,-1118],[142,-621],[113,-945],[56,-1416],[142,-746],[226,-1317],[127,-1938],[-42,-1367],[-142,-1044],[-28,-869],[14,-1044],[-85,-870],[-169,-671],[-85,-994],[-71,-621],[-268,-1218],[-241,-721],[-155,-1217],[0,-994],[113,-1243],[155,-795],[-28,-870],[-212,-870],[-311,-1416],[-311,-1193],[-297,-572],[-353,-720],[-467,-1118],[-325,-845],[-226,-870],[-141,-895],[-227,-1391],[-141,-746],[-226,-1019],[-156,-745],[-353,-1268],[-325,-870],[-438,-994],[-524,-646],[-706,-422],[-665,-920],[-311,-919],[-283,-621],[-367,-497],[-481,-696],[-353,-622],[-325,-1068],[-269,-969],[-424,-398],[-1880,-1615],[-3577,-3082],[-791,-472],[-707,-248],[-693,-100],[-791,-50],[-933,50],[-1329,174],[-608,-149],[-877,-323],[-890,-572],[-2333,-1789],[-480,-373],[-1909,-894],[-4764,-2684],[-947,-373],[-622,-74],[-777,99],[-424,199],[-538,447],[-1173,1516],[-735,1118],[-636,1143],[-4481,1591],[-13374,-30144],[-5838,-37649],[-4792,-7356],[-1329,-1616],[-1923,-994]]],"bbox":[101.01745,6.54973,101.72484,6.95213],"transform":{"scale":[7.073907073907111e-7,4.0240040240040246e-7],"translate":[101.01745,6.54973]}}