{"type":"FeatureCollection","features":[{"type":"Feature","properties":{"OBJECTID":1,"PROV_CODE":"10","PROV_NAMT":"กรุงเทพมหานคร","PROV_NAME":"BANGKOK","PROV_NAMEN":"Bangkok","PROV_NAMC":"曼谷","COLOR_IDX":0},"geometry":{"type":"Polygon","coordinates":[[[100.62496,13.94451],[100.62484,13.94239],[100.6248,13.94087],[100.62476,13.94048],[100.62476,13.938],[100.63976,13.93738],[100.63962,13.9344],[100.63959,13.93308],[100.63961,13.93237],[100.63965,13.93227],[100.63974,13.93213],[100.64006,13.93186],[100.64063,13.93152],[100.64088,13.93141],[100.64153,13.93131],[100.64347,13.93124],[100.64936,13.93096],[100.655,13.93077],[100.6574,13.93063],[100.66171,13.93048],[100.6632,13.9304],[100.66583,13.93034],[100.66765,13.93037],[100.66999,13.93048],[100.68032,13.93079],[100.68381,13.93086],[100.68538,13.93094],[100.68978,13.93103],[100.6898,13.93011],[100.68973,13.92901],[100.6894,13.92728],[100.68933,13.92666],[100.68932,13.9259],[100.68922,13.92571],[100.68889,13.92538],[100.68869,13.92506],[100.68857,13.92463],[100.68849,13.92383],[100.68843,13.92372],[100.68806,13.92331],[100.68793,13.92308],[100.68739,13.92177],[100.68722,13.92122],[100.68711,13.92068],[100.68711,13.92034],[100.6873,13.91866],[100.68756,13.91746],[100.6875,13.91721],[100.68683,13.91625],[100.68695,13.91625],[100.68997,13.91632],[100.69321,13.91644],[100.69612,13.91648],[100.70285,13.91674],[100.71066,13.91696],[100.71401,13.91701],[100.71806,13.91718],[100.71887,13.91724],[100.72869,13.91746],[100.73639,13.91781],[100.74767,13.91819],[100.74819,13.9182],[100.74922,13.91817],[100.75038,13.91828],[100.75191,13.91836],[100.7526,13.91847],[100.75721,13.92005],[100.75986,13.92091],[100.76189,13.92163],[100.76691,13.92333],[100.7688,13.92393],[100.77958,13.92747],[100.78007,13.92757],[100.79133,13.93113],[100.79149,13.93112],[100.79182,13.93124],[100.79191,13.93132],[100.79213,13.9314],[100.79237,13.93141],[100.79259,13.93139],[100.7926,13.93154],[100.79414,13.93167],[100.79549,13.93183],[100.80988,13.93327],[100.81289,13.93355],[100.81407,13.93368],[100.81448,13.93368],[100.81498,13.93375],[100.81535,13.93377],[100.81701,13.93402],[100.81992,13.93428],[100.82206,13.93457],[100.82684,13.93509],[100.82764,13.93521],[100.83162,13.93562],[100.83526,13.93609],[100.83647,13.93619],[100.83839,13.93644],[100.83966,13.93653],[100.84201,13.93684],[100.84266,13.93696],[100.84408,13.93712],[100.85174,13.93815],[100.85435,13.9384],[100.86331,13.93914],[100.86563,13.93995],[100.87381,13.94112],[100.88362,13.94258],[100.88498,13.94277],[100.88828,13.94318],[100.89622,13.9441],[100.90477,13.94529],[100.90701,13.94556],[100.91398,13.94649],[100.91396,13.94541],[100.91372,13.94369],[100.9134,13.94102],[100.91335,13.94085],[100.91334,13.94041],[100.91293,13.93731],[100.91278,13.9356],[100.91257,13.93434],[100.91238,13.93239],[100.91217,13.93169],[100.91208,13.93112],[100.91197,13.92985],[100.91183,13.92888],[100.91178,13.92871],[100.91178,13.92804],[100.91172,13.92777],[100.91173,13.92738],[100.91156,13.92681],[100.91152,13.92663],[100.91154,13.92646],[100.91143,13.92596],[100.91144,13.92516],[100.91135,13.92492],[100.9113,13.9247],[100.91125,13.9238],[100.91105,13.92238],[100.91096,13.92142],[100.91081,13.92031],[100.91064,13.91946],[100.9106,13.91867],[100.91045,13.91765],[100.91042,13.91722],[100.91011,13.91517],[100.90966,13.91123],[100.90946,13.90993],[100.90929,13.90832],[100.90917,13.90757],[100.90906,13.90652],[100.90886,13.90527],[100.9085,13.90208],[100.90829,13.8995],[100.90811,13.89823],[100.90797,13.89696],[100.90784,13.89519],[100.90743,13.89095],[100.90726,13.88956],[100.90704,13.88718],[100.9069,13.88641],[100.90679,13.88526],[100.90645,13.88119],[100.90639,13.87966],[100.9064,13.87905],[100.90637,13.87711],[100.9063,13.87629],[100.9062,13.86956],[100.90613,13.86847],[100.90613,13.86831],[100.90618,13.86809],[100.90618,13.86717],[100.90622,13.86684],[100.9063,13.86649],[100.90632,13.86619],[100.90632,13.86442],[100.90628,13.86336],[100.90629,13.86227],[100.90626,13.8608],[100.90622,13.86052],[100.90616,13.86038],[100.90566,13.85981],[100.90558,13.85958],[100.90562,13.85934],[100.90589,13.85523],[100.90577,13.85456],[100.90469,13.84998],[100.9042,13.84842],[100.90996,13.84735],[100.91268,13.8468],[100.91254,13.84651],[100.91184,13.84539],[100.9116,13.84487],[100.91147,13.84466],[100.91035,13.84333],[100.91,13.84288],[100.90952,13.84217],[100.9088,13.84085],[100.90843,13.83982],[100.90824,13.83943],[100.90812,13.83898],[100.90795,13.83858],[100.90778,13.83833],[100.90768,13.83828],[100.90755,13.8381],[100.90819,13.83754],[100.90879,13.83708],[100.90907,13.83688],[100.90927,13.83679],[100.91045,13.83586],[100.91095,13.83552],[100.91393,13.83329],[100.91455,13.83275],[100.91536,13.83218],[100.91564,13.83191],[100.91658,13.83121],[100.91774,13.83029],[100.91915,13.82924],[100.91991,13.82853],[100.92014,13.8284],[100.92023,13.82838],[100.92222,13.82688],[100.9229,13.82636],[100.92423,13.82524],[100.92476,13.82489],[100.92538,13.82442],[100.9258,13.82401],[100.92657,13.82345],[100.92698,13.82321],[100.92756,13.82277],[100.92762,13.82267],[100.92785,13.82247],[100.92856,13.82199],[100.92947,13.82118],[100.93049,13.82049],[100.93261,13.81884],[100.93429,13.81761],[100.93464,13.81726],[100.93558,13.81648],[100.93649,13.81583],[100.93852,13.81426],[100.93694,13.81239],[100.93153,13.80535],[100.93085,13.8044],[100.93078,13.80445],[100.92992,13.80326],[100.92951,13.80285],[100.92914,13.80215],[100.92891,13.80181],[100.92827,13.80128],[100.92575,13.79992],[100.92467,13.79931],[100.92375,13.79872],[100.92243,13.79797],[100.92201,13.79768],[100.92077,13.79689],[100.91794,13.79525],[100.91679,13.79455],[100.91612,13.79416],[100.91523,13.79372],[100.9123,13.792],[100.91128,13.79145],[100.91069,13.79116],[100.91041,13.79099],[100.90979,13.79048],[100.90926,13.78958],[100.90899,13.78904],[100.90855,13.78841],[100.90811,13.78766],[100.90745,13.78644],[100.90615,13.78416],[100.9054,13.7827],[100.90396,13.78017],[100.90334,13.77902],[100.90275,13.77803],[100.90257,13.77759],[100.90168,13.7761],[100.90116,13.77511],[100.90075,13.77451],[100.89997,13.77313],[100.89938,13.77198],[100.89883,13.77107],[100.89853,13.77051],[100.89828,13.76992],[100.89801,13.7695],[100.89794,13.76933],[100.89667,13.7671],[100.89595,13.76593],[100.8954,13.76483],[100.89481,13.76389],[100.89453,13.76339],[100.89396,13.76223],[100.89357,13.76156],[100.89281,13.76031],[100.89221,13.75923],[100.89198,13.75888],[100.89095,13.75708],[100.89077,13.75672],[100.8905,13.75632],[100.89043,13.75615],[100.88953,13.75472],[100.88925,13.75436],[100.88857,13.75333],[100.88819,13.75266],[100.88752,13.7517],[100.88681,13.75042],[100.88624,13.74948],[100.8844,13.7465],[100.88396,13.74587],[100.8838,13.74548],[100.8819,13.74264],[100.88156,13.74219],[100.88095,13.74106],[100.88017,13.73979],[100.87963,13.7391],[100.87883,13.73788],[100.87744,13.73578],[100.87689,13.7349],[100.87656,13.73424],[100.87614,13.73367],[100.87457,13.73114],[100.87396,13.73006],[100.87176,13.72662],[100.87104,13.72535],[100.87057,13.72458],[100.87035,13.72415],[100.86954,13.72297],[100.86879,13.72175],[100.86863,13.72161],[100.86809,13.7206],[100.86749,13.71986],[100.86743,13.71974],[100.8674,13.71946],[100.86735,13.71934],[100.86706,13.71897],[100.86669,13.71842],[100.86541,13.71634],[100.86515,13.71583],[100.8647,13.71526],[100.86442,13.71475],[100.86423,13.71455],[100.86373,13.71354],[100.86367,13.71348],[100.86364,13.71333],[100.86322,13.7127],[100.86297,13.71225],[100.86281,13.7121],[100.86257,13.71169],[100.86237,13.71144],[100.86219,13.711],[100.86215,13.71096],[100.86156,13.70994],[100.86132,13.70943],[100.86032,13.708],[100.86013,13.70765],[100.86004,13.70739],[100.85952,13.70672],[100.85924,13.70625],[100.8591,13.70593],[100.85843,13.705],[100.85833,13.70478],[100.85792,13.70404],[100.85709,13.70268],[100.85639,13.70162],[100.85507,13.69927],[100.85644,13.69873],[100.85981,13.69726],[100.86077,13.6969],[100.8606,13.69617],[100.85996,13.69265],[100.85935,13.68956],[100.85212,13.69247],[100.84098,13.69689],[100.84035,13.69686],[100.83715,13.69824],[100.83298,13.70012],[100.82885,13.7018],[100.81943,13.70524],[100.80911,13.70892],[100.80031,13.71236],[100.79455,13.71446],[100.79006,13.71594],[100.7892,13.71619],[100.78795,13.71661],[100.78487,13.71673],[100.78336,13.71662],[100.78278,13.71655],[100.78099,13.71651],[100.78056,13.71641],[100.77955,13.71602],[100.77912,13.71599],[100.77335,13.71628],[100.77223,13.7163],[100.77187,13.71621],[100.77172,13.71614],[100.77155,13.71602],[100.77115,13.71565],[100.77098,13.71556],[100.76675,13.71528],[100.76664,13.71528],[100.76643,13.71537],[100.76561,13.71608],[100.76537,13.71625],[100.7648,13.71646],[100.76451,13.7165],[100.76222,13.71649],[100.7621,13.71647],[100.76172,13.71626],[100.7616,13.71622],[100.7611,13.71619],[100.76084,13.71622],[100.76045,13.71644],[100.75433,13.71662],[100.75344,13.71662],[100.75314,13.71656],[100.7526,13.71623],[100.75223,13.71595],[100.75214,13.71591],[100.75208,13.71591],[100.75097,13.71634],[100.75052,13.71646],[100.74815,13.71652],[100.74616,13.71654],[100.74498,13.71691],[100.74435,13.71692],[100.74278,13.71685],[100.73746,13.71687],[100.73463,13.7168],[100.7313,13.71683],[100.73066,13.71681],[100.73045,13.71779],[100.72036,13.71817],[100.71625,13.71819],[100.71616,13.7169],[100.71454,13.71691],[100.71314,13.71685],[100.70999,13.71678],[100.71011,13.71597],[100.71024,13.71544],[100.71046,13.71388],[100.71047,13.71358],[100.71076,13.71209],[100.7109,13.71111],[100.71105,13.70966],[100.71135,13.7078],[100.71152,13.70703],[100.71156,13.70669],[100.71157,13.70604],[100.71199,13.70404],[100.71238,13.70129],[100.71237,13.70123],[100.71233,13.7012],[100.71109,13.7012],[100.71082,13.69982],[100.71029,13.69676],[100.71019,13.69636],[100.70999,13.69517],[100.7102,13.69512],[100.70987,13.6913],[100.70981,13.69081],[100.70895,13.68832],[100.70856,13.68761],[100.70838,13.68715],[100.70798,13.68636],[100.70768,13.68553],[100.70732,13.68484],[100.70691,13.68267],[100.70665,13.68092],[100.70646,13.67954],[100.70641,13.67862],[100.70613,13.67865],[100.70546,13.6788],[100.70504,13.67667],[100.70462,13.6748],[100.70467,13.6747],[100.70514,13.67451],[100.70518,13.67445],[100.70517,13.67435],[100.70457,13.67272],[100.70393,13.67138],[100.70319,13.6702],[100.70229,13.6686],[100.70187,13.66791],[100.70111,13.66638],[100.69996,13.66431],[100.69976,13.66384],[100.69926,13.66242],[100.69885,13.66067],[100.69847,13.65836],[100.69827,13.65633],[100.69146,13.65761],[100.68831,13.65824],[100.68291,13.65996],[100.67976,13.66103],[100.67911,13.66119],[100.6787,13.66133],[100.67804,13.66164],[100.677,13.66225],[100.67659,13.6626],[100.6759,13.6633],[100.67569,13.66344],[100.67454,13.66386],[100.67344,13.6641],[100.6731,13.6642],[100.67222,13.66461],[100.67226,13.66495],[100.67217,13.66503],[100.66934,13.66609],[100.66647,13.66721],[100.66657,13.66736],[100.66691,13.66817],[100.66612,13.66859],[100.66449,13.66966],[100.66335,13.67033],[100.66296,13.67065],[100.66234,13.67127],[100.66221,13.67134],[100.6618,13.67133],[100.66161,13.6714],[100.66115,13.6717],[100.66105,13.6717],[100.65999,13.67027],[100.65992,13.67018],[100.65987,13.67016],[100.65753,13.67158],[100.65569,13.67227],[100.6555,13.67229],[100.65544,13.67229],[100.65537,13.67224],[100.65477,13.67094],[100.65405,13.66959],[100.65379,13.66898],[100.6536,13.66827],[100.65325,13.66743],[100.65296,13.66643],[100.65274,13.66585],[100.65239,13.6644],[100.65225,13.66387],[100.65175,13.66275],[100.65127,13.66151],[100.65089,13.66065],[100.6508,13.66036],[100.65076,13.66008],[100.65074,13.65955],[100.64971,13.6525],[100.64481,13.65364],[100.64076,13.65464],[100.63994,13.65346],[100.63628,13.6485],[100.63406,13.64868],[100.63292,13.64884],[100.63049,13.64948],[100.63089,13.65081],[100.62852,13.65165],[100.62697,13.65233],[100.62414,13.65327],[100.62355,13.65352],[100.62224,13.65389],[100.62092,13.65439],[100.61983,13.6547],[100.61863,13.6552],[100.61884,13.65572],[100.61784,13.65606],[100.61637,13.65268],[100.61392,13.65361],[100.60821,13.65592],[100.60872,13.65721],[100.60649,13.65805],[100.60605,13.65823],[100.60556,13.65848],[100.60534,13.65792],[100.60351,13.6584],[100.60281,13.65651],[100.60132,13.65703],[100.60044,13.65738],[100.60069,13.65801],[100.60029,13.65816],[100.60022,13.65825],[100.60045,13.65922],[100.60046,13.65942],[100.60044,13.65946],[100.59943,13.65971],[100.59871,13.65993],[100.59834,13.66007],[100.59777,13.66034],[100.5972,13.66054],[100.59666,13.66069],[100.59675,13.66105],[100.59632,13.66117],[100.59653,13.66215],[100.5921,13.66381],[100.5821,13.66771],[100.58135,13.66804],[100.57946,13.66922],[100.58017,13.67016],[100.58105,13.67116],[100.58333,13.67393],[100.58415,13.67499],[100.58583,13.67731],[100.58675,13.67868],[100.58742,13.67982],[100.58797,13.68096],[100.5883,13.68174],[100.58877,13.68302],[100.58908,13.68408],[100.58925,13.6849],[100.58935,13.68578],[100.58935,13.68653],[100.5893,13.68727],[100.58917,13.68805],[100.58888,13.68926],[100.58861,13.69004],[100.58827,13.69082],[100.58788,13.69157],[100.58744,13.6923],[100.58695,13.69297],[100.58643,13.6936],[100.58588,13.6942],[100.5853,13.69478],[100.58392,13.6961],[100.5821,13.69753],[100.58037,13.69876],[100.57964,13.69922],[100.57888,13.69963],[100.57654,13.70079],[100.57337,13.70223],[100.57137,13.70308],[100.56968,13.70368],[100.56541,13.70505],[100.5633,13.70561],[100.56202,13.7059],[100.56073,13.70612],[100.5594,13.70623],[100.55851,13.70625],[100.55807,13.70623],[100.55716,13.70612],[100.55626,13.70593],[100.55487,13.70548],[100.5535,13.70451],[100.55298,13.70395],[100.55275,13.70365],[100.55234,13.703],[100.55196,13.70222],[100.55167,13.70139],[100.55146,13.70053],[100.5514,13.70008],[100.55134,13.69924],[100.55136,13.69806],[100.55142,13.69727],[100.55162,13.69566],[100.55233,13.69105],[100.55249,13.68972],[100.55255,13.68884],[100.55258,13.68796],[100.55251,13.68617],[100.55236,13.68441],[100.55221,13.68312],[100.55195,13.68144],[100.55162,13.67977],[100.5514,13.67893],[100.55094,13.6777],[100.55058,13.6769],[100.54996,13.67585],[100.54922,13.67473],[100.5487,13.67404],[100.54736,13.6726],[100.54592,13.6714],[100.54519,13.67093],[100.54443,13.6705],[100.54339,13.66999],[100.54232,13.66955],[100.54147,13.66928],[100.5406,13.66908],[100.53971,13.66896],[100.53932,13.66894],[100.53852,13.66897],[100.53772,13.66906],[100.53655,13.66928],[100.5354,13.66958],[100.53464,13.66982],[100.53378,13.67015],[100.53294,13.67053],[100.53218,13.67092],[100.53149,13.67132],[100.53015,13.67219],[100.5291,13.67298],[100.52707,13.67467],[100.52544,13.67614],[100.5234,13.67788],[100.5212,13.67645],[100.5204,13.67564],[100.52038,13.67554],[100.52047,13.67524],[100.5205,13.67514],[100.52057,13.67508],[100.52074,13.67506],[100.52141,13.67514],[100.52167,13.67509],[100.5218,13.67501],[100.52198,13.67434],[100.52188,13.67389],[100.52192,13.6738],[100.52201,13.67371],[100.522,13.67356],[100.52196,13.67348],[100.52169,13.67329],[100.52164,13.67321],[100.52163,13.67281],[100.52154,13.67255],[100.52158,13.67213],[100.52154,13.672],[100.52144,13.67194],[100.52109,13.67187],[100.52104,13.67177],[100.52105,13.67155],[100.521,13.67144],[100.52092,13.67137],[100.52075,13.67134],[100.52062,13.67127],[100.52048,13.67113],[100.52042,13.67099],[100.52044,13.6709],[100.52071,13.67063],[100.52061,13.67016],[100.52082,13.67005],[100.52088,13.67],[100.5207,13.66973],[100.52067,13.66957],[100.52072,13.66951],[100.52096,13.66947],[100.52102,13.66943],[100.52111,13.66931],[100.52106,13.66919],[100.52099,13.66912],[100.52077,13.66906],[100.52073,13.66899],[100.52073,13.66886],[100.52069,13.66882],[100.52058,13.66882],[100.52047,13.6689],[100.52038,13.66887],[100.52038,13.66879],[100.5205,13.66849],[100.52047,13.66838],[100.52039,13.66832],[100.52003,13.66826],[100.5198,13.66808],[100.51944,13.66794],[100.5193,13.66783],[100.51911,13.66776],[100.51885,13.6676],[100.51853,13.66765],[100.51831,13.66746],[100.51795,13.66724],[100.5178,13.66724],[100.51767,13.66734],[100.51759,13.66729],[100.51761,13.66704],[100.51759,13.66644],[100.51763,13.66582],[100.51751,13.66328],[100.51757,13.66292],[100.51768,13.66257],[100.51764,13.66217],[100.51752,13.6616],[100.51737,13.66054],[100.51728,13.6595],[100.51724,13.6583],[100.51717,13.65811],[100.51704,13.65592],[100.51674,13.65282],[100.5166,13.65219],[100.51631,13.65163],[100.51622,13.65135],[100.51673,13.65],[100.51667,13.64966],[100.51689,13.64941],[100.51691,13.64932],[100.51649,13.64923],[100.51646,13.64881],[100.5165,13.64853],[100.5167,13.6478],[100.51693,13.64725],[100.51697,13.64668],[100.51695,13.64571],[100.5164,13.64568],[100.51581,13.64554],[100.51535,13.64503],[100.51529,13.64474],[100.51541,13.64437],[100.51544,13.6438],[100.5155,13.64374],[100.51595,13.64367],[100.51607,13.64337],[100.51587,13.6424],[100.51582,13.64224],[100.51568,13.64203],[100.51569,13.64178],[100.51576,13.64163],[100.51576,13.64155],[100.51559,13.64114],[100.51534,13.64065],[100.51526,13.64035],[100.51524,13.63992],[100.51513,13.63963],[100.5151,13.6394],[100.51536,13.6388],[100.51547,13.63873],[100.516,13.63851],[100.51625,13.63837],[100.51661,13.63802],[100.51694,13.63778],[100.5168,13.63746],[100.51675,13.63725],[100.51678,13.63676],[100.51686,13.63636],[100.51712,13.63589],[100.51756,13.63528],[100.51774,13.63512],[100.51803,13.63497],[100.51807,13.63489],[100.51769,13.63416],[100.51713,13.6329],[100.51631,13.63152],[100.51594,13.63106],[100.5149,13.62999],[100.51492,13.6292],[100.51489,13.62909],[100.51484,13.62905],[100.51453,13.62892],[100.5144,13.62883],[100.51428,13.62867],[100.51424,13.6285],[100.51434,13.62767],[100.51441,13.62742],[100.51451,13.62725],[100.51493,13.6267],[100.51498,13.62659],[100.51509,13.62555],[100.51504,13.62473],[100.51494,13.62437],[100.51505,13.62414],[100.51532,13.62369],[100.51539,13.62348],[100.5155,13.62293],[100.51552,13.62236],[100.51576,13.62182],[100.51576,13.62162],[100.51563,13.62117],[100.51599,13.6204],[100.51609,13.62012],[100.51618,13.61977],[100.51627,13.61925],[100.51644,13.61869],[100.51643,13.61848],[100.51612,13.61805],[100.51607,13.61782],[100.51616,13.61757],[100.51648,13.61712],[100.51653,13.61668],[100.51671,13.6162],[100.51674,13.61557],[100.51664,13.61473],[100.51668,13.61455],[100.51682,13.61415],[100.51685,13.61397],[100.51675,13.61362],[100.5164,13.61299],[100.51638,13.61277],[100.51641,13.61268],[100.51647,13.61262],[100.51673,13.61248],[100.51688,13.61228],[100.51707,13.61215],[100.51726,13.6121],[100.5176,13.61223],[100.51767,13.61221],[100.51824,13.6115],[100.51794,13.61103],[100.51795,13.61096],[100.51842,13.61064],[100.51873,13.6102],[100.51884,13.6101],[100.51911,13.60998],[100.51958,13.60992],[100.51999,13.60923],[100.52006,13.60917],[100.52029,13.60908],[100.52035,13.60901],[100.52038,13.60891],[100.5204,13.60812],[100.5205,13.6074],[100.52099,13.60557],[100.52104,13.60514],[100.52001,13.60499],[100.51949,13.60485],[100.51803,13.60427],[100.51692,13.6039],[100.5159,13.60342],[100.51508,13.60315],[100.51374,13.60259],[100.51366,13.60249],[100.51307,13.60152],[100.51287,13.60113],[100.51251,13.59998],[100.51155,13.59716],[100.51151,13.59685],[100.51092,13.59694],[100.50776,13.59764],[100.50717,13.59745],[100.50679,13.59743],[100.50658,13.59746],[100.50595,13.59771],[100.50579,13.59771],[100.50546,13.59763],[100.50482,13.5977],[100.50443,13.59762],[100.50416,13.59751],[100.50291,13.59653],[100.50278,13.59648],[100.50245,13.59643],[100.5023,13.59638],[100.50172,13.59598],[100.5014,13.59586],[100.5008,13.59572],[100.50042,13.59543],[100.50033,13.59542],[100.50016,13.59547],[100.49964,13.59564],[100.4995,13.59528],[100.49929,13.59488],[100.49922,13.59464],[100.49919,13.59433],[100.49921,13.59368],[100.49903,13.5931],[100.49897,13.59273],[100.49911,13.59219],[100.49904,13.59195],[100.49886,13.59161],[100.49854,13.59113],[100.49838,13.59094],[100.49784,13.59044],[100.49706,13.58933],[100.49671,13.58889],[100.49617,13.58833],[100.49593,13.58816],[100.49502,13.58778],[100.4947,13.58768],[100.49448,13.58767],[100.49401,13.58782],[100.4939,13.58771],[100.49376,13.5874],[100.4936,13.58727],[100.49332,13.58716],[100.49225,13.58697],[100.49192,13.58659],[100.4912,13.58616],[100.49083,13.58654],[100.49051,13.58716],[100.49002,13.58768],[100.48954,13.58841],[100.48866,13.5893],[100.48847,13.58946],[100.48831,13.58956],[100.48818,13.5896],[100.48774,13.58962],[100.48669,13.59029],[100.4842,13.59146],[100.48343,13.59197],[100.48225,13.59245],[100.48207,13.59256],[100.48191,13.59271],[100.48173,13.59299],[100.48162,13.59324],[100.48159,13.59412],[100.48101,13.59627],[100.48088,13.59724],[100.4808,13.59761],[100.48072,13.59786],[100.48063,13.59801],[100.48045,13.59816],[100.48024,13.59823],[100.47919,13.59818],[100.47884,13.59819],[100.47856,13.59825],[100.47835,13.59836],[100.47777,13.59875],[100.47718,13.59906],[100.47702,13.5992],[100.47693,13.59932],[100.47689,13.59945],[100.47688,13.59958],[100.47695,13.59989],[100.47743,13.60101],[100.47772,13.60157],[100.47777,13.6018],[100.47772,13.60203],[100.47759,13.60228],[100.47705,13.60287],[100.47693,13.60296],[100.47675,13.60276],[100.47658,13.60252],[100.47642,13.60237],[100.47548,13.6021],[100.47537,13.60203],[100.47511,13.60166],[100.47477,13.60113],[100.47403,13.60034],[100.47329,13.5994],[100.4731,13.59904],[100.473,13.59858],[100.47293,13.59742],[100.47295,13.59702],[100.47305,13.59643],[100.47366,13.59393],[100.47365,13.59388],[100.47011,13.59285],[100.46982,13.59275],[100.46969,13.59267],[100.46958,13.59279],[100.46933,13.59372],[100.46908,13.5941],[100.46882,13.59466],[100.46853,13.59506],[100.46824,13.59539],[100.46767,13.59585],[100.46739,13.59632],[100.46694,13.59682],[100.46686,13.59695],[100.46674,13.59786],[100.46682,13.598],[100.46697,13.5981],[100.46706,13.59822],[100.46712,13.59838],[100.46713,13.59856],[100.46701,13.59892],[100.46688,13.59917],[100.46658,13.59968],[100.46612,13.60033],[100.466,13.601],[100.46576,13.60165],[100.46576,13.60294],[100.4658,13.60318],[100.46592,13.60334],[100.46596,13.60353],[100.46587,13.6039],[100.46581,13.60398],[100.46561,13.60386],[100.46544,13.6038],[100.46531,13.60381],[100.46522,13.60386],[100.46514,13.60399],[100.46496,13.60447],[100.46486,13.60461],[100.46443,13.60494],[100.46424,13.60514],[100.4641,13.60564],[100.46395,13.60585],[100.46354,13.60603],[100.46324,13.6061],[100.46303,13.6061],[100.46213,13.60573],[100.46188,13.60549],[100.46156,13.60507],[100.46147,13.60501],[100.46128,13.60498],[100.46097,13.60502],[100.4607,13.6051],[100.46033,13.6053],[100.46015,13.60532],[100.45997,13.60525],[100.45966,13.60501],[100.45938,13.60487],[100.45926,13.60487],[100.45882,13.60495],[100.45859,13.60492],[100.45836,13.60482],[100.45803,13.60445],[100.45755,13.6044],[100.45748,13.60443],[100.45736,13.60455],[100.45712,13.60468],[100.45658,13.60481],[100.4562,13.60498],[100.45587,13.60494],[100.45583,13.60515],[100.45576,13.60523],[100.45569,13.60527],[100.45562,13.60527],[100.45535,13.6052],[100.45502,13.60504],[100.45466,13.60504],[100.45456,13.60513],[100.45458,13.60532],[100.45446,13.60563],[100.45437,13.60569],[100.45421,13.60563],[100.45414,13.60566],[100.4541,13.60596],[100.45397,13.60601],[100.45371,13.60554],[100.45367,13.60537],[100.45367,13.60521],[100.45376,13.60486],[100.45379,13.60454],[100.45377,13.60427],[100.4537,13.60403],[100.4533,13.60301],[100.45317,13.60283],[100.45285,13.60251],[100.45268,13.6023],[100.45251,13.60195],[100.45239,13.60158],[100.45231,13.60097],[100.45217,13.60037],[100.45214,13.59971],[100.45218,13.59923],[100.45212,13.59867],[100.45217,13.59832],[100.45213,13.59824],[100.45164,13.59772],[100.4514,13.59741],[100.45107,13.59693],[100.45095,13.59662],[100.45093,13.59642],[100.45105,13.59605],[100.45106,13.59583],[100.45091,13.59525],[100.45087,13.59476],[100.45083,13.59456],[100.45076,13.59442],[100.45039,13.59394],[100.45015,13.59354],[100.45,13.59308],[100.44987,13.59254],[100.4498,13.59248],[100.44938,13.59231],[100.44922,13.59207],[100.44918,13.59189],[100.44929,13.59145],[100.44931,13.59119],[100.44927,13.59095],[100.44915,13.59068],[100.4489,13.59034],[100.44854,13.59007],[100.44828,13.58959],[100.44821,13.58952],[100.44776,13.58926],[100.44769,13.5892],[100.44758,13.589],[100.44753,13.58885],[100.44755,13.58817],[100.44748,13.58787],[100.4473,13.58766],[100.44671,13.58724],[100.4466,13.58706],[100.44659,13.58686],[100.44671,13.58648],[100.44673,13.58625],[100.44659,13.58575],[100.44632,13.5852],[100.44628,13.58487],[100.44645,13.58401],[100.44673,13.58327],[100.44676,13.58289],[100.44648,13.57988],[100.44637,13.57839],[100.44601,13.57463],[100.44564,13.56967],[100.44535,13.56632],[100.44533,13.565],[100.44507,13.56283],[100.44496,13.56162],[100.44461,13.55677],[100.44445,13.55354],[100.44446,13.55319],[100.44491,13.55077],[100.44522,13.54884],[100.44562,13.54715],[100.44605,13.54402],[100.44638,13.54233],[100.44764,13.53452],[100.45028,13.52001],[100.45148,13.51322],[100.45182,13.51224],[100.45286,13.50642],[100.45369,13.50198],[100.45323,13.50195],[100.4521,13.50199],[100.45191,13.50217],[100.45024,13.50192],[100.45015,13.50186],[100.45003,13.50169],[100.44999,13.50148],[100.44986,13.50123],[100.44924,13.50084],[100.44799,13.50029],[100.44625,13.49999],[100.44411,13.49968],[100.44385,13.49979],[100.44326,13.50034],[100.44306,13.50036],[100.44288,13.50029],[100.44275,13.50017],[100.44273,13.4996],[100.44256,13.49932],[100.44233,13.4992],[100.44201,13.49888],[100.44167,13.49866],[100.44049,13.4984],[100.44018,13.49844],[100.43988,13.49872],[100.43966,13.49877],[100.43939,13.49854],[100.43926,13.49829],[100.4388,13.49794],[100.43841,13.49788],[100.43768,13.49787],[100.43735,13.49778],[100.43712,13.49759],[100.43708,13.49746],[100.43716,13.49681],[100.43708,13.49677],[100.43627,13.49674],[100.43619,13.49762],[100.43543,13.49752],[100.43536,13.49813],[100.43493,13.49809],[100.43481,13.49805],[100.43496,13.49664],[100.43491,13.49659],[100.43474,13.49653],[100.43094,13.49627],[100.43089,13.4962],[100.43083,13.49589],[100.43074,13.49583],[100.43056,13.49586],[100.4304,13.49596],[100.43025,13.49612],[100.42988,13.49625],[100.4272,13.49623],[100.4271,13.49635],[100.42688,13.49681],[100.42666,13.49719],[100.42649,13.4974],[100.42629,13.49749],[100.42581,13.49756],[100.42553,13.49749],[100.42535,13.49729],[100.42528,13.49713],[100.42529,13.49681],[100.42369,13.49585],[100.42361,13.49585],[100.42356,13.49588],[100.42357,13.49641],[100.42355,13.49678],[100.42349,13.49685],[100.42335,13.49688],[100.42321,13.49688],[100.42305,13.49682],[100.42271,13.49616],[100.42225,13.49564],[100.42185,13.49526],[100.4217,13.49485],[100.42163,13.49474],[100.41739,13.49461],[100.41446,13.49431],[100.41098,13.49368],[100.40884,13.49339],[100.40871,13.49409],[100.40682,13.50222],[100.40665,13.50918],[100.40659,13.51351],[100.40663,13.51598],[100.4065,13.5251],[100.40649,13.52956],[100.40633,13.5358],[100.40825,13.53584],[100.41369,13.53582],[100.41407,13.53587],[100.41435,13.53644],[100.41488,13.53774],[100.41491,13.53797],[100.41474,13.53824],[100.41466,13.53844],[100.4147,13.53863],[100.41485,13.53883],[100.41529,13.53919],[100.41588,13.53957],[100.41617,13.53969],[100.41708,13.5399],[100.4178,13.54015],[100.41796,13.54023],[100.41822,13.54042],[100.41832,13.54054],[100.41851,13.54085],[100.4189,13.54168],[100.41951,13.54284],[100.41958,13.54307],[100.41969,13.54369],[100.41998,13.54436],[100.42008,13.54488],[100.42009,13.54524],[100.41972,13.54628],[100.41949,13.54684],[100.41936,13.54709],[100.41911,13.54742],[100.41831,13.54821],[100.41794,13.54878],[100.41735,13.54938],[100.41649,13.55039],[100.41632,13.5505],[100.41491,13.55119],[100.41469,13.55135],[100.41464,13.55146],[100.4146,13.5518],[100.41462,13.55192],[100.41481,13.55234],[100.41485,13.55251],[100.4149,13.55345],[100.41497,13.55408],[100.41506,13.55453],[100.41507,13.55573],[100.41528,13.55636],[100.41528,13.55651],[100.4152,13.55693],[100.41521,13.55715],[100.41484,13.55707],[100.41435,13.55687],[100.41417,13.5569],[100.41411,13.55693],[100.41381,13.55739],[100.41371,13.55749],[100.4136,13.5575],[100.41351,13.55748],[100.41299,13.5571],[100.41269,13.55723],[100.41256,13.55724],[100.41236,13.55705],[100.4122,13.55677],[100.41218,13.55656],[100.4123,13.55621],[100.4123,13.55608],[100.41224,13.55594],[100.4119,13.55548],[100.41175,13.55544],[100.41142,13.55551],[100.41132,13.5555],[100.41076,13.55507],[100.4106,13.55502],[100.41037,13.55502],[100.40981,13.55506],[100.40963,13.55505],[100.40852,13.55453],[100.40844,13.55453],[100.40777,13.55472],[100.40739,13.55479],[100.40724,13.55473],[100.40689,13.55449],[100.40669,13.55442],[100.40655,13.55442],[100.40615,13.55453],[100.40541,13.55461],[100.40529,13.55471],[100.40514,13.55497],[100.40506,13.55502],[100.40461,13.55508],[100.40437,13.55506],[100.40426,13.55499],[100.40414,13.55481],[100.40404,13.55442],[100.40395,13.55424],[100.40339,13.55353],[100.40267,13.55319],[100.40244,13.55313],[100.40215,13.55314],[100.40196,13.55321],[100.40174,13.5532],[100.40134,13.55293],[100.40111,13.55283],[100.40086,13.55284],[100.40035,13.55304],[100.40023,13.55304],[100.40015,13.55302],[100.39974,13.55279],[100.39957,13.55273],[100.39928,13.55272],[100.39915,13.55277],[100.39909,13.55285],[100.399,13.55309],[100.39894,13.55316],[100.39877,13.55324],[100.39857,13.5532],[100.39832,13.55304],[100.39822,13.55301],[100.39803,13.55298],[100.39751,13.55298],[100.39705,13.55306],[100.3967,13.55338],[100.39663,13.55342],[100.39634,13.55346],[100.39586,13.55346],[100.39573,13.55351],[100.39544,13.55381],[100.39538,13.55393],[100.39527,13.5544],[100.39522,13.55451],[100.39504,13.5547],[100.39471,13.55493],[100.39467,13.55499],[100.39465,13.5551],[100.39477,13.55542],[100.39478,13.55553],[100.39475,13.55564],[100.39458,13.55579],[100.39427,13.55597],[100.39421,13.55607],[100.39412,13.55663],[100.394,13.5572],[100.39408,13.55826],[100.39345,13.55864],[100.39337,13.55872],[100.39318,13.55904],[100.39296,13.55953],[100.39284,13.56007],[100.39257,13.56078],[100.39255,13.56092],[100.39257,13.56099],[100.39262,13.56102],[100.39309,13.56124],[100.39314,13.56136],[100.39312,13.56147],[100.39248,13.56242],[100.39237,13.56264],[100.39227,13.56303],[100.39222,13.5631],[100.39208,13.56315],[100.39144,13.56316],[100.39134,13.5632],[100.39131,13.56326],[100.3913,13.56356],[100.39141,13.56423],[100.39125,13.56468],[100.39125,13.56503],[100.39121,13.56517],[100.39114,13.56525],[100.39089,13.5654],[100.39082,13.56552],[100.39088,13.56586],[100.39099,13.5662],[100.39099,13.56632],[100.39066,13.56729],[100.39061,13.56758],[100.39065,13.56769],[100.39074,13.56775],[100.39131,13.56795],[100.39143,13.56807],[100.39151,13.56835],[100.39149,13.5689],[100.39141,13.56897],[100.3909,13.56894],[100.39068,13.56898],[100.39062,13.56905],[100.39053,13.56935],[100.39044,13.56948],[100.38984,13.56952],[100.38967,13.5696],[100.38956,13.56969],[100.38944,13.56989],[100.38929,13.57048],[100.38932,13.57065],[100.38946,13.57088],[100.38946,13.57113],[100.38889,13.57167],[100.38889,13.57256],[100.38849,13.57252],[100.38807,13.57242],[100.388,13.57243],[100.38752,13.57347],[100.38749,13.57363],[100.38754,13.57374],[100.38767,13.57388],[100.38796,13.57411],[100.388,13.57421],[100.38798,13.57429],[100.38781,13.57433],[100.38728,13.57429],[100.38703,13.57415],[100.38696,13.57415],[100.38687,13.57424],[100.38665,13.57469],[100.38664,13.57478],[100.3867,13.57489],[100.38704,13.57532],[100.38705,13.57545],[100.387,13.57551],[100.38684,13.57557],[100.38652,13.5756],[100.38643,13.57563],[100.38627,13.5759],[100.38617,13.57613],[100.3862,13.57625],[100.3863,13.57635],[100.38696,13.57668],[100.38672,13.57725],[100.3866,13.57795],[100.38645,13.57811],[100.38614,13.57817],[100.38591,13.57838],[100.38561,13.57844],[100.38547,13.5786],[100.38529,13.57869],[100.38521,13.57877],[100.38505,13.57899],[100.385,13.57913],[100.38501,13.57925],[100.38518,13.57948],[100.38526,13.57973],[100.3855,13.58003],[100.38552,13.58011],[100.38548,13.58021],[100.38522,13.58029],[100.38516,13.58035],[100.38507,13.58093],[100.38532,13.58103],[100.38551,13.5814],[100.38568,13.5815],[100.38571,13.58157],[100.38556,13.58187],[100.38566,13.58214],[100.38554,13.58243],[100.38547,13.58248],[100.38523,13.58255],[100.38516,13.58264],[100.38517,13.5827],[100.38539,13.58291],[100.38543,13.58304],[100.38528,13.58373],[100.38588,13.58473],[100.38597,13.58496],[100.38594,13.58505],[100.3857,13.58509],[100.38564,13.58515],[100.38566,13.58521],[100.38582,13.58541],[100.3858,13.5855],[100.38561,13.58549],[100.38539,13.58532],[100.38527,13.58534],[100.38517,13.58542],[100.38517,13.58555],[100.38523,13.58564],[100.3857,13.58583],[100.38571,13.58589],[100.38567,13.58596],[100.38548,13.58603],[100.38496,13.58606],[100.38488,13.58613],[100.38487,13.58624],[100.38493,13.58632],[100.38506,13.58636],[100.38526,13.58636],[100.38534,13.58644],[100.38534,13.58652],[100.3853,13.58657],[100.38495,13.58679],[100.38486,13.5869],[100.38479,13.58707],[100.38478,13.58717],[100.38481,13.58724],[100.38509,13.58737],[100.38509,13.5875],[100.38504,13.58755],[100.38488,13.58755],[100.38457,13.58741],[100.38452,13.58742],[100.38427,13.58759],[100.38421,13.58766],[100.38417,13.58782],[100.38418,13.58797],[100.38441,13.5882],[100.38444,13.58832],[100.38433,13.58871],[100.38436,13.58952],[100.38432,13.58955],[100.38389,13.58958],[100.38373,13.58952],[100.38366,13.58953],[100.38322,13.5898],[100.3831,13.59004],[100.38301,13.59016],[100.38279,13.59025],[100.38256,13.59022],[100.38249,13.59024],[100.38231,13.59049],[100.38216,13.59061],[100.38209,13.59082],[100.38189,13.59087],[100.38167,13.59097],[100.38161,13.59114],[100.38154,13.59121],[100.3814,13.59126],[100.38127,13.59137],[100.381,13.59136],[100.38096,13.59145],[100.38101,13.59164],[100.38099,13.59172],[100.38094,13.59175],[100.38065,13.59177],[100.3806,13.59192],[100.37998,13.59236],[100.37997,13.59268],[100.3799,13.59272],[100.37969,13.59277],[100.37959,13.59302],[100.37941,13.59316],[100.37926,13.59336],[100.379,13.5933],[100.37895,13.59333],[100.37878,13.59363],[100.37875,13.59387],[100.37865,13.59413],[100.37852,13.59428],[100.37854,13.5944],[100.37877,13.59442],[100.37883,13.59447],[100.37881,13.59455],[100.3787,13.59466],[100.37887,13.59479],[100.37888,13.59487],[100.37882,13.59496],[100.37872,13.59503],[100.37871,13.5951],[100.37893,13.59539],[100.37909,13.59603],[100.37894,13.59625],[100.37895,13.59634],[100.37904,13.59652],[100.37896,13.59675],[100.379,13.59699],[100.37888,13.59726],[100.37895,13.59747],[100.37882,13.59768],[100.3787,13.59801],[100.37867,13.59852],[100.37854,13.59868],[100.3785,13.59878],[100.37852,13.59903],[100.37848,13.59931],[100.37851,13.59988],[100.37847,13.60019],[100.37851,13.60046],[100.37845,13.60069],[100.37845,13.60098],[100.37849,13.60113],[100.37846,13.60125],[100.37835,13.60136],[100.37832,13.60146],[100.37843,13.60179],[100.37844,13.60201],[100.37768,13.60454],[100.37715,13.60642],[100.37725,13.60657],[100.37726,13.60665],[100.37722,13.60697],[100.37714,13.60932],[100.37648,13.6197],[100.3753,13.62043],[100.37381,13.62149],[100.3718,13.62273],[100.37121,13.62459],[100.37157,13.62491],[100.37107,13.62556],[100.37052,13.62611],[100.36994,13.62677],[100.36966,13.62715],[100.36942,13.62756],[100.36877,13.62921],[100.36872,13.62936],[100.36861,13.63012],[100.36785,13.63007],[100.36721,13.63017],[100.36681,13.63147],[100.36627,13.63284],[100.36601,13.63362],[100.36559,13.6332],[100.36492,13.63389],[100.3646,13.63379],[100.36306,13.63344],[100.36012,13.63299],[100.35906,13.63278],[100.35899,13.6344],[100.35879,13.63683],[100.3587,13.63732],[100.35817,13.63704],[100.35793,13.63694],[100.3563,13.63664],[100.3556,13.63653],[100.35545,13.63654],[100.35538,13.63659],[100.3551,13.63713],[100.35476,13.63831],[100.35461,13.63904],[100.35459,13.63953],[100.35446,13.64056],[100.3544,13.64084],[100.35434,13.64089],[100.35343,13.64092],[100.35198,13.64078],[100.35024,13.6405],[100.35021,13.64096],[100.34852,13.64101],[100.34861,13.64373],[100.34736,13.64364],[100.34717,13.64506],[100.34545,13.64473],[100.34468,13.64923],[100.34632,13.64917],[100.3467,13.65225],[100.34685,13.65225],[100.34687,13.65454],[100.34684,13.65534],[100.34673,13.65533],[100.34644,13.65523],[100.34571,13.65487],[100.34531,13.65474],[100.34505,13.65471],[100.34428,13.65473],[100.34383,13.65478],[100.34291,13.65483],[100.34269,13.65489],[100.34197,13.65494],[100.34174,13.65492],[100.3409,13.65495],[100.33979,13.65496],[100.33938,13.65499],[100.33938,13.65566],[100.33943,13.65619],[100.33948,13.65652],[100.33977,13.65769],[100.33986,13.65792],[100.33994,13.65804],[100.34066,13.65856],[100.34074,13.65865],[100.34081,13.6588],[100.3409,13.65908],[100.34103,13.66001],[100.34111,13.66032],[100.3413,13.66079],[100.34125,13.66131],[100.34102,13.66213],[100.34076,13.66287],[100.3406,13.66358],[100.34037,13.66426],[100.34019,13.66496],[100.34014,13.66528],[100.34015,13.66628],[100.34011,13.66672],[100.34003,13.66687],[100.33935,13.66771],[100.3392,13.66862],[100.3388,13.66967],[100.33825,13.67498],[100.3376,13.67733],[100.33755,13.67736],[100.33632,13.67703],[100.33607,13.67699],[100.33584,13.67762],[100.33358,13.68137],[100.33355,13.68154],[100.33356,13.6821],[100.33384,13.68352],[100.33372,13.68405],[100.33303,13.6864],[100.33278,13.68708],[100.33243,13.68836],[100.33216,13.69037],[100.33203,13.69135],[100.33208,13.69271],[100.33188,13.69312],[100.33181,13.69346],[100.33126,13.69747],[100.33109,13.69796],[100.33056,13.69917],[100.33065,13.69957],[100.33071,13.69966],[100.33235,13.69992],[100.3323,13.702],[100.33208,13.70199],[100.33209,13.70256],[100.33223,13.7034],[100.33231,13.70417],[100.3326,13.70507],[100.3332,13.706],[100.33343,13.70649],[100.33323,13.70657],[100.33323,13.70664],[100.33321,13.70664],[100.33326,13.70688],[100.33307,13.70692],[100.33323,13.70722],[100.33337,13.70785],[100.3334,13.70785],[100.33348,13.70839],[100.33348,13.70926],[100.33343,13.70926],[100.3334,13.70976],[100.33314,13.71047],[100.33309,13.71098],[100.3329,13.71155],[100.33265,13.71189],[100.33233,13.71246],[100.33387,13.71299],[100.33414,13.71306],[100.3345,13.71227],[100.33491,13.71162],[100.33511,13.7112],[100.33559,13.71106],[100.33588,13.71087],[100.33612,13.71082],[100.33631,13.71087],[100.33644,13.71096],[100.3365,13.71105],[100.33651,13.71126],[100.33665,13.71134],[100.33778,13.71225],[100.33834,13.71252],[100.33877,13.71277],[100.33841,13.71333],[100.33809,13.71405],[100.33754,13.7148],[100.33648,13.71516],[100.33608,13.71546],[100.33671,13.71646],[100.33614,13.71719],[100.33543,13.71794],[100.33533,13.71804],[100.33482,13.71833],[100.33457,13.71856],[100.33423,13.71899],[100.3336,13.71996],[100.33311,13.72084],[100.33189,13.72077],[100.33125,13.72051],[100.33134,13.72008],[100.33046,13.71978],[100.33033,13.71972],[100.33023,13.72122],[100.33084,13.72123],[100.33257,13.72188],[100.33362,13.72222],[100.33574,13.72299],[100.33544,13.72597],[100.33519,13.72705],[100.33477,13.72839],[100.3348,13.72844],[100.33566,13.72871],[100.33568,13.72882],[100.33551,13.72918],[100.33552,13.72928],[100.33624,13.72951],[100.33674,13.72971],[100.33674,13.72979],[100.33614,13.73079],[100.33575,13.73157],[100.33564,13.73187],[100.3356,13.73226],[100.33514,13.73349],[100.33749,13.73391],[100.33735,13.73535],[100.33746,13.73604],[100.33733,13.73705],[100.33676,13.73715],[100.33634,13.74],[100.33608,13.73998],[100.33605,13.74005],[100.33574,13.74155],[100.33613,13.74171],[100.33559,13.74379],[100.33528,13.74553],[100.33514,13.74616],[100.33499,13.74709],[100.33496,13.74772],[100.33547,13.74786],[100.33552,13.74887],[100.3355,13.74987],[100.33547,13.75155],[100.33538,13.75329],[100.33535,13.75333],[100.3349,13.75342],[100.33448,13.75522],[100.33278,13.75537],[100.33294,13.75764],[100.33302,13.75959],[100.33157,13.75997],[100.33159,13.76025],[100.33264,13.76022],[100.33258,13.76068],[100.33187,13.76064],[100.33156,13.76158],[100.33114,13.76155],[100.3311,13.76216],[100.33011,13.76237],[100.33026,13.76294],[100.3301,13.76309],[100.33013,13.76312],[100.3303,13.7638],[100.33002,13.76575],[100.32997,13.76649],[100.33009,13.76774],[100.33009,13.76809],[100.33028,13.76877],[100.33032,13.76919],[100.33063,13.77322],[100.33068,13.77477],[100.33094,13.77756],[100.33196,13.77762],[100.33194,13.77835],[100.33182,13.77961],[100.33182,13.78002],[100.3319,13.78138],[100.33386,13.78124],[100.3339,13.78217],[100.33374,13.78344],[100.33365,13.78392],[100.33315,13.78563],[100.33112,13.79298],[100.33083,13.79652],[100.33081,13.79744],[100.3307,13.79815],[100.32945,13.80085],[100.32894,13.80186],[100.32882,13.80203],[100.32874,13.80224],[100.3287,13.80248],[100.32826,13.80327],[100.32791,13.80413],[100.33237,13.80385],[100.33773,13.80369],[100.33894,13.80368],[100.34036,13.80363],[100.34223,13.80351],[100.3444,13.80344],[100.35742,13.80313],[100.35956,13.80306],[100.36167,13.80295],[100.36884,13.80279],[100.37312,13.80264],[100.37401,13.80259],[100.37796,13.80254],[100.384,13.80231],[100.38807,13.8022],[100.39046,13.80208],[100.39754,13.80192],[100.39874,13.80181],[100.40148,13.80172],[100.40392,13.80169],[100.40535,13.80162],[100.40872,13.80139],[100.41106,13.80135],[100.41249,13.80127],[100.41412,13.80123],[100.41518,13.80116],[100.41723,13.80108],[100.41937,13.8009],[100.42153,13.80079],[100.4235,13.80062],[100.42525,13.80056],[100.42879,13.80034],[100.43012,13.80018],[100.43178,13.80009],[100.43328,13.80009],[100.43987,13.79955],[100.44177,13.79948],[100.44459,13.79922],[100.44823,13.79903],[100.45092,13.79877],[100.45217,13.79871],[100.45525,13.79846],[100.45809,13.79832],[100.46061,13.79797],[100.4628,13.79746],[100.46415,13.79731],[100.46966,13.79479],[100.46949,13.79436],[100.46923,13.79389],[100.46885,13.79337],[100.46816,13.79252],[100.46744,13.79141],[100.46665,13.79008],[100.4663,13.78933],[100.46618,13.78892],[100.47138,13.79008],[100.47278,13.79044],[100.47347,13.79066],[100.47871,13.79259],[100.4815,13.79353],[100.49428,13.79814],[100.49914,13.79988],[100.50025,13.80031],[100.50118,13.80077],[100.50205,13.80133],[100.50255,13.80172],[100.50376,13.80281],[100.50647,13.80532],[100.51526,13.81327],[100.51497,13.81352],[100.5144,13.8139],[100.51347,13.81428],[100.51253,13.81463],[100.51044,13.81532],[100.5081,13.81588],[100.50745,13.81611],[100.50682,13.8176],[100.50641,13.81867],[100.50633,13.81894],[100.50631,13.8191],[100.50633,13.81934],[100.50645,13.81967],[100.5066,13.8199],[100.50684,13.8205],[100.50697,13.82089],[100.5071,13.82117],[100.50745,13.82147],[100.50757,13.82164],[100.50756,13.82246],[100.5076,13.82268],[100.50766,13.82281],[100.50784,13.82294],[100.50829,13.82315],[100.5086,13.82343],[100.50954,13.82364],[100.50968,13.8237],[100.5098,13.82378],[100.50994,13.82394],[100.5101,13.82418],[100.51013,13.82432],[100.51009,13.82441],[100.50994,13.82448],[100.50965,13.82453],[100.50952,13.82459],[100.50927,13.82488],[100.50916,13.82515],[100.5092,13.82535],[100.50929,13.82553],[100.50938,13.82561],[100.50944,13.82563],[100.51038,13.82522],[100.51065,13.82522],[100.51074,13.82526],[100.51082,13.82541],[100.51089,13.82597],[100.51097,13.82617],[100.51108,13.82619],[100.51179,13.82607],[100.51204,13.82593],[100.51215,13.82581],[100.51253,13.82508],[100.51275,13.82475],[100.51288,13.8247],[100.5131,13.82473],[100.51315,13.82484],[100.51311,13.82597],[100.51315,13.82607],[100.51324,13.82617],[100.51356,13.82634],[100.51397,13.8265],[100.51456,13.82677],[100.51477,13.82686],[100.5152,13.82697],[100.51537,13.82707],[100.51565,13.82737],[100.51577,13.82757],[100.51581,13.82775],[100.51581,13.82834],[100.51585,13.82848],[100.51593,13.82859],[100.51679,13.82914],[100.51763,13.8299],[100.51882,13.83074],[100.51941,13.83137],[100.52028,13.83207],[100.52103,13.83282],[100.5214,13.83309],[100.52207,13.8337],[100.52248,13.83401],[100.52283,13.8345],[100.52294,13.83459],[100.52334,13.83484],[100.52347,13.83504],[100.52369,13.83528],[100.52447,13.83586],[100.52528,13.83661],[100.52583,13.83702],[100.52622,13.83739],[100.52697,13.83798],[100.52768,13.83863],[100.52956,13.84028],[100.53003,13.8408],[100.53042,13.84109],[100.53114,13.84179],[100.53128,13.84189],[100.53161,13.84207],[100.53185,13.84225],[100.53218,13.84263],[100.53241,13.84282],[100.53271,13.84316],[100.53312,13.84343],[100.53329,13.84357],[100.53351,13.84386],[100.53395,13.84433],[100.53478,13.8449],[100.53505,13.84513],[100.53551,13.84562],[100.53583,13.8459],[100.53621,13.84614],[100.53698,13.84652],[100.5374,13.84664],[100.53751,13.8467],[100.53806,13.84716],[100.53825,13.84728],[100.54059,13.84829],[100.54182,13.84888],[100.54263,13.8492],[100.54305,13.84934],[100.54333,13.84946],[100.54363,13.84963],[100.54418,13.85179],[100.54466,13.8539],[100.54513,13.85576],[100.54528,13.8565],[100.54651,13.86176],[100.54679,13.86303],[100.54688,13.86321],[100.55105,13.88099],[100.55502,13.89817],[100.55639,13.90387],[100.55889,13.91446],[100.56359,13.9345],[100.56632,13.94592],[100.56761,13.95147],[100.56828,13.95172],[100.56845,13.95174],[100.56972,13.95247],[100.57024,13.9528],[100.57089,13.9531],[100.57142,13.95342],[100.57288,13.95417],[100.57302,13.95431],[100.57331,13.95438],[100.57344,13.95445],[100.57348,13.95444],[100.57374,13.95455],[100.57377,13.95463],[100.574,13.95464],[100.57455,13.95443],[100.57511,13.95429],[100.5755,13.95426],[100.5765,13.95396],[100.58365,13.95234],[100.58472,13.95212],[100.58816,13.95128],[100.58896,13.95113],[100.59004,13.95083],[100.59186,13.95027],[100.59288,13.94979],[100.60105,13.94622],[100.60162,13.94583],[100.60317,13.94511],[100.6045,13.94454],[100.60568,13.9441],[100.60561,13.94475],[100.60542,13.94586],[100.60535,13.94655],[100.60487,13.94972],[100.60456,13.95217],[100.60434,13.95347],[100.6066,13.95372],[100.61046,13.95394],[100.6113,13.95401],[100.61119,13.95514],[100.61276,13.9552],[100.61959,13.95167],[100.62185,13.95053],[100.62255,13.95025],[100.62346,13.94974],[100.62406,13.94931],[100.6243,13.94906],[100.62451,13.94879],[100.62471,13.94848],[100.62492,13.94796],[100.62502,13.94762],[100.62504,13.94727],[100.62496,13.94451]]]}}]}